<?xml version="1.0" encoding="UTF-8"?>
<kml xmlns="http://www.opengis.net/kml/2.2">
  <Document>
    <name>Range</name>
    <Placemark>
      <name>Range – Low (0.00–0.33) (1)</name>
      <Style>
        <PolygonStyle>
          <color>80ff0000</color>
          <outline>0</outline>
        </PolygonStyle>
      </Style>
      <Polygon>
        <outerBoundaryIs>
          <LinearRing>
            <coordinates>-62.25,73.25,0 -61.75,73.75,0 -61.25,73.75,0 -60.75,73.75,0 -60.25,73.75,0 -59.75,73.75,0 -59.25,73.75,0 -58.75,73.75,0 -58.25,73.75,0 -57.75,73.75,0 -57.25,73.75,0 -56.75,73.75,0 -56.25,73.25,0 -55.75,72.75,0 -55.25,72.25,0 -54.25,71.75,0 -53.75,71.75,0 -53.25,71.75,0 -52.75,71.75,0 -52.25,71.75,0 -51.75,71.75,0 -51.25,71.75,0 -50.75,70.75,0 -50.25,70.25,0 -50.25,69.75,0 -50.25,69.25,0 -50.75,68.25,0 -51.75,68.75,0 -52.25,68.75,0 -53.25,66.75,0 -51.75,66.25,0 -50.75,64.25,0 -50.25,64.25,0 -51.25,63.25,0 -51.75,62.75,0 -52.25,62.75,0 -52.75,63.25,0 -53.75,63.75,0 -54.75,64.25,0 -55.25,64.25,0 -55.25,64.75,0 -56.25,65.75,0 -57.75,65.25,0 -58.25,64.75,0 -58.75,65.25,0 -59.25,65.75,0 -59.25,67.75,0 -59.75,68.25,0 -60.25,69.75,0 -60.25,70.25,0 -60.25,70.75,0 -60.25,71.25,0 -61.25,72.75,0 -62.25,73.25,0</coordinates>
          </LinearRing>
        </outerBoundaryIs>
      </Polygon>
    </Placemark>
    <Placemark>
      <name>Range – Low (0.00–0.33) (2)</name>
      <Style>
        <PolygonStyle>
          <color>80ff0000</color>
          <outline>0</outline>
        </PolygonStyle>
      </Style>
      <Polygon>
        <outerBoundaryIs>
          <LinearRing>
            <coordinates>-22.25,64.25,0 -21.25,65.75,0 -20.75,65.75,0 -20.25,65.75,0 -19.25,66.25,0 -19.75,66.25,0 -20.25,66.25,0 -21.25,67.75,0 -22.25,69.25,0 -22.25,69.75,0 -22.25,70.25,0 -22.75,70.25,0 -23.75,69.75,0 -24.75,69.25,0 -25.25,69.25,0 -26.25,68.75,0 -26.75,68.75,0 -27.25,68.75,0 -28.25,68.25,0 -28.75,68.25,0 -29.25,68.25,0 -29.75,68.25,0 -30.75,67.75,0 -31.25,67.75,0 -31.75,67.75,0 -32.75,67.25,0 -33.25,66.75,0 -33.75,66.25,0 -32.75,65.25,0 -32.25,65.25,0 -31.25,65.25,0 -30.75,65.25,0 -30.25,65.25,0 -28.25,65.75,0 -27.75,64.75,0 -27.25,64.25,0 -26.75,63.75,0 -26.25,62.25,0 -25.25,62.75,0 -24.75,62.75,0 -23.75,63.25,0 -23.25,63.25,0 -22.75,63.25,0 -22.25,63.25,0 -21.75,63.25,0 -22.25,64.25,0</coordinates>
          </LinearRing>
        </outerBoundaryIs>
      </Polygon>
    </Placemark>
    <Placemark>
      <name>Range – Low (0.00–0.33) (3)</name>
      <Style>
        <PolygonStyle>
          <color>80ff0000</color>
          <outline>0</outline>
        </PolygonStyle>
      </Style>
      <Polygon>
        <outerBoundaryIs>
          <LinearRing>
            <coordinates>-18.75,71.75,0 -17.75,72.25,0 -17.25,72.25,0 -18.25,71.75,0 -18.75,70.25,0 -16.75,69.25,0 -15.75,71.25,0 -16.25,69.25,0 -15.25,67.25,0 -14.75,67.25,0 -14.25,67.25,0 -13.75,67.25,0 -13.25,66.75,0 -13.25,66.25,0 -13.25,65.25,0 -13.25,64.75,0 -13.25,64.25,0 -13.75,63.75,0 -14.25,63.75,0 -14.75,63.75,0 -15.25,63.75,0 -15.75,63.75,0 -16.75,63.25,0 -17.25,63.25,0 -17.75,63.25,0 -18.25,63.25,0 -18.75,63.25,0 -19.25,63.25,0 -19.75,63.25,0 -20.25,63.25,0 -20.75,63.25,0 -21.25,63.25,0 -20.25,63.75,0 -19.75,63.75,0 -18.25,63.75,0 -17.75,63.75,0 -17.25,63.75,0 -16.25,64.25,0 -15.75,64.25,0 -15.25,64.25,0 -14.25,64.75,0 -14.25,66.25,0 -14.75,66.75,0 -15.75,67.25,0 -16.75,68.75,0 -18.25,67.75,0 -18.25,68.25,0 -19.75,69.25,0 -20.25,69.25,0 -20.75,69.25,0 -21.25,69.25,0 -21.75,69.25,0 -21.75,69.75,0 -21.25,69.75,0 -20.25,70.25,0 -19.75,70.75,0 -19.25,71.25,0 -18.75,71.75,0</coordinates>
          </LinearRing>
        </outerBoundaryIs>
      </Polygon>
    </Placemark>
    <Placemark>
      <name>Range – Low (0.00–0.33) (4)</name>
      <Style>
        <PolygonStyle>
          <color>80ff0000</color>
          <outline>0</outline>
        </PolygonStyle>
      </Style>
      <Polygon>
        <outerBoundaryIs>
          <LinearRing>
            <coordinates>-67.25,65.75,0 -67.25,66.25,0 -66.75,66.25,0 -65.75,65.75,0 -65.25,65.75,0 -64.25,65.25,0 -63.25,65.75,0 -61.75,66.25,0 -61.25,66.25,0 -60.75,66.25,0 -60.25,66.25,0 -59.75,66.25,0 -59.25,65.25,0 -58.75,64.75,0 -58.75,64.25,0 -59.25,63.75,0 -60.25,63.25,0 -60.75,62.25,0 -60.75,61.75,0 -60.75,61.25,0 -60.25,59.75,0 -59.75,58.75,0 -59.75,58.25,0 -59.25,57.25,0 -58.75,56.75,0 -58.25,56.25,0 -57.75,55.75,0 -57.25,55.25,0 -56.75,54.75,0 -56.75,53.75,0 -57.75,54.25,0 -58.25,54.25,0 -59.25,54.25,0 -60.25,55.75,0 -61.25,56.25,0 -61.75,56.25,0 -61.75,57.75,0 -62.75,58.25,0 -63.25,58.75,0 -63.75,59.25,0 -64.25,60.25,0 -65.25,61.25,0 -65.75,61.75,0 -66.25,62.25,0 -67.25,62.75,0 -68.25,63.25,0 -68.75,63.75,0 -68.25,63.75,0 -67.25,65.75,0</coordinates>
          </LinearRing>
        </outerBoundaryIs>
      </Polygon>
    </Placemark>
    <Placemark>
      <name>Range – Low (0.00–0.33) (5)</name>
      <Style>
        <PolygonStyle>
          <color>80ff0000</color>
          <outline>0</outline>
        </PolygonStyle>
      </Style>
      <Polygon>
        <outerBoundaryIs>
          <LinearRing>
            <coordinates>-44.75,59.25,0 -44.25,59.75,0 -44.25,60.25,0 -44.75,60.75,0 -45.25,61.25,0 -45.75,61.25,0 -46.25,61.25,0 -47.25,60.75,0 -47.75,60.75,0 -48.75,61.75,0 -48.75,62.25,0 -49.25,62.25,0 -50.75,63.25,0 -51.25,62.75,0 -51.25,62.25,0 -50.75,61.75,0 -50.25,61.25,0 -49.25,60.75,0 -48.75,60.25,0 -48.25,60.25,0 -47.75,60.25,0 -47.25,60.25,0 -46.25,59.75,0 -45.75,59.25,0 -45.25,59.25,0 -44.75,59.25,0</coordinates>
          </LinearRing>
        </outerBoundaryIs>
      </Polygon>
    </Placemark>
    <Placemark>
      <name>Range – Low (0.00–0.33) (6)</name>
      <Style>
        <PolygonStyle>
          <color>80ff0000</color>
          <outline>0</outline>
        </PolygonStyle>
      </Style>
      <Polygon>
        <outerBoundaryIs>
          <LinearRing>
            <coordinates>-40.25,62.25,0 -40.75,64.25,0 -40.75,65.25,0 -39.75,65.25,0 -39.25,65.25,0 -38.25,65.75,0 -37.75,66.25,0 -37.25,66.25,0 -35.75,66.25,0 -35.25,66.25,0 -34.25,66.75,0 -33.75,67.25,0 -33.75,66.75,0 -33.75,65.75,0 -34.25,64.75,0 -35.25,64.25,0 -36.25,63.75,0 -36.75,63.75,0 -37.25,63.75,0 -38.25,63.25,0 -38.75,63.25,0 -39.25,63.25,0 -40.25,62.25,0</coordinates>
          </LinearRing>
        </outerBoundaryIs>
      </Polygon>
    </Placemark>
    <Placemark>
      <name>Range – Low (0.00–0.33) (7)</name>
      <Style>
        <PolygonStyle>
          <color>80ff0000</color>
          <outline>0</outline>
        </PolygonStyle>
      </Style>
      <Polygon>
        <outerBoundaryIs>
          <LinearRing>
            <coordinates>-67.25,48.75,0 -68.25,49.25,0 -67.25,49.75,0 -66.75,50.25,0 -66.25,50.25,0 -65.75,50.25,0 -65.25,50.25,0 -64.75,50.25,0 -64.25,50.25,0 -63.75,50.25,0 -63.25,50.25,0 -63.25,49.75,0 -62.25,47.75,0 -61.75,47.75,0 -61.25,47.75,0 -61.25,47.25,0 -61.25,46.25,0 -63.25,45.75,0 -64.25,45.75,0 -64.25,47.25,0 -65.75,47.75,0 -66.25,48.25,0 -67.25,48.75,0</coordinates>
          </LinearRing>
        </outerBoundaryIs>
      </Polygon>
    </Placemark>
    <Placemark>
      <name>Range – Low (0.00–0.33) (8)</name>
      <Style>
        <PolygonStyle>
          <color>80ff0000</color>
          <outline>0</outline>
        </PolygonStyle>
      </Style>
      <Polygon>
        <outerBoundaryIs>
          <LinearRing>
            <coordinates>-50.75,43.75,0 -51.25,44.75,0 -51.25,45.75,0 -49.75,46.25,0 -49.25,46.75,0 -49.25,46.25,0 -49.25,45.75,0 -49.25,45.25,0 -49.75,44.25,0 -49.75,43.75,0 -50.75,43.75,0</coordinates>
          </LinearRing>
        </outerBoundaryIs>
      </Polygon>
    </Placemark>
    <Placemark>
      <name>Range – Mid (0.34–0.65) (1)</name>
      <Style>
        <PolygonStyle>
          <color>8000ffff</color>
          <outline>0</outline>
        </PolygonStyle>
      </Style>
      <Polygon>
        <outerBoundaryIs>
          <LinearRing>
            <coordinates>-54.25,65.75,0 -53.75,65.75,0 -53.25,65.75,0 -53.25,65.25,0 -53.75,65.25,0 -54.75,65.75,0 -54.25,65.75,0</coordinates>
          </LinearRing>
        </outerBoundaryIs>
      </Polygon>
    </Placemark>
    <Placemark>
      <name>Range – Mid (0.34–0.65) (2)</name>
      <Style>
        <PolygonStyle>
          <color>8000ffff</color>
          <outline>0</outline>
        </PolygonStyle>
      </Style>
      <Polygon>
        <outerBoundaryIs>
          <LinearRing>
            <coordinates>-35.25,65.25,0 -34.75,65.25,0 -35.25,64.75,0 -35.75,64.75,0 -36.25,64.75,0 -37.25,64.25,0 -37.75,63.75,0 -38.25,63.75,0 -38.75,63.75,0 -39.75,63.25,0 -40.25,62.75,0 -40.75,61.75,0 -41.25,61.25,0 -41.75,60.25,0 -42.25,59.75,0 -43.25,59.25,0 -43.75,59.25,0 -44.25,59.25,0 -43.75,59.75,0 -42.75,60.75,0 -43.25,62.75,0 -42.25,63.25,0 -41.25,63.75,0 -40.75,63.75,0 -40.25,63.75,0 -39.25,64.25,0 -38.75,64.25,0 -37.75,65.25,0 -37.25,65.25,0 -36.75,65.25,0 -36.25,65.25,0 -35.75,65.25,0 -35.25,65.25,0</coordinates>
          </LinearRing>
        </outerBoundaryIs>
      </Polygon>
    </Placemark>
    <Placemark>
      <name>Range – Mid (0.34–0.65) (3)</name>
      <Style>
        <PolygonStyle>
          <color>8000ffff</color>
          <outline>0</outline>
        </PolygonStyle>
      </Style>
      <Polygon>
        <outerBoundaryIs>
          <LinearRing>
            <coordinates>-28.75,66.25,0 -28.25,66.25,0 -27.75,66.25,0 -28.75,65.75,0 -29.25,65.75,0 -29.75,65.75,0 -30.25,65.75,0 -30.75,65.75,0 -31.25,65.75,0 -30.25,66.25,0 -29.75,66.25,0 -29.25,66.25,0 -28.75,66.25,0</coordinates>
          </LinearRing>
        </outerBoundaryIs>
      </Polygon>
    </Placemark>
    <Placemark>
      <name>Range – Mid (0.34–0.65) (4)</name>
      <Style>
        <PolygonStyle>
          <color>8000ffff</color>
          <outline>0</outline>
        </PolygonStyle>
      </Style>
      <Polygon>
        <outerBoundaryIs>
          <LinearRing>
            <coordinates>-24.25,67.25,0 -23.25,67.75,0 -22.25,67.25,0 -21.25,66.75,0 -20.75,66.75,0 -20.25,66.75,0 -19.75,66.75,0 -18.75,66.25,0 -18.25,66.25,0 -17.75,66.25,0 -17.25,66.25,0 -16.75,66.25,0 -15.75,66.25,0 -14.75,65.75,0 -14.25,65.75,0 -13.75,65.75,0 -14.75,66.25,0 -15.25,66.75,0 -16.25,67.25,0 -16.75,67.25,0 -17.25,67.25,0 -17.75,67.25,0 -18.75,67.75,0 -19.25,67.75,0 -19.75,67.75,0 -20.25,67.75,0 -20.75,67.75,0 -21.75,67.25,0 -22.25,67.25,0 -22.75,67.25,0 -23.25,67.25,0 -23.75,67.25,0 -24.75,66.75,0 -25.25,66.75,0 -24.25,67.25,0</coordinates>
          </LinearRing>
        </outerBoundaryIs>
      </Polygon>
    </Placemark>
    <Placemark>
      <name>Range – Mid (0.34–0.65) (5)</name>
      <Style>
        <PolygonStyle>
          <color>8000ffff</color>
          <outline>0</outline>
        </PolygonStyle>
      </Style>
      <Polygon>
        <outerBoundaryIs>
          <LinearRing>
            <coordinates>-62.25,50.25,0 -61.75,50.25,0 -62.25,49.75,0 -62.75,49.75,0 -63.75,48.75,0 -63.25,47.25,0 -61.25,46.75,0 -60.25,46.25,0 -61.75,45.25,0 -61.75,43.75,0 -62.25,43.75,0 -63.25,43.25,0 -65.25,43.75,0 -67.25,44.75,0 -66.25,45.25,0 -65.75,45.25,0 -64.75,46.25,0 -66.25,47.75,0 -65.75,48.25,0 -64.25,48.75,0 -63.75,49.75,0 -62.75,50.25,0 -62.25,50.25,0</coordinates>
          </LinearRing>
        </outerBoundaryIs>
      </Polygon>
    </Placemark>
    <Placemark>
      <name>Range – Mid (0.34–0.65) (6)</name>
      <Style>
        <PolygonStyle>
          <color>8000ffff</color>
          <outline>0</outline>
        </PolygonStyle>
      </Style>
      <Polygon>
        <outerBoundaryIs>
          <LinearRing>
            <coordinates>-58.75,53.75,0 -57.25,53.75,0 -56.75,51.75,0 -58.75,51.25,0 -57.25,50.25,0 -56.75,51.25,0 -55.25,51.25,0 -54.75,50.75,0 -54.25,50.75,0 -53.75,50.75,0 -53.25,51.25,0 -51.25,50.75,0 -50.75,50.25,0 -50.25,49.75,0 -50.25,50.25,0 -50.25,51.25,0 -50.25,51.75,0 -50.75,52.25,0 -51.25,52.75,0 -51.75,53.25,0 -52.25,53.75,0 -52.75,54.25,0 -53.25,54.75,0 -54.25,55.25,0 -54.75,55.25,0 -55.25,55.25,0 -55.75,55.25,0 -56.75,55.75,0 -57.25,56.25,0 -58.25,56.75,0 -57.75,56.25,0 -58.75,54.25,0 -59.75,53.75,0 -60.25,53.25,0 -59.25,53.75,0 -58.75,53.75,0</coordinates>
          </LinearRing>
        </outerBoundaryIs>
      </Polygon>
    </Placemark>
    <Placemark>
      <name>Range – High (0.66–1.00) (1)</name>
      <Style>
        <PolygonStyle>
          <color>800000ff</color>
          <outline>0</outline>
        </PolygonStyle>
      </Style>
      <Polygon>
        <outerBoundaryIs>
          <LinearRing>
            <coordinates>-65.25,47.25,0 -64.75,48.25,0 -64.25,48.25,0 -63.25,49.25,0 -62.75,49.25,0 -61.75,49.75,0 -61.25,50.25,0 -60.75,50.25,0 -60.25,50.25,0 -59.25,50.75,0 -58.25,51.25,0 -57.75,51.25,0 -57.25,51.25,0 -55.75,51.25,0 -55.25,50.75,0 -54.25,50.25,0 -53.25,50.75,0 -52.75,51.25,0 -52.25,51.25,0 -51.75,51.25,0 -51.25,50.25,0 -50.75,49.75,0 -50.25,49.25,0 -49.75,48.75,0 -48.75,48.25,0 -48.25,48.25,0 -47.75,48.25,0 -47.25,47.75,0 -45.75,47.75,0 -45.25,48.25,0 -44.75,47.75,0 -44.25,47.25,0 -44.25,46.75,0 -45.25,46.25,0 -45.75,46.25,0 -47.25,46.25,0 -47.75,45.75,0 -48.25,45.25,0 -48.75,44.25,0 -48.75,43.75,0 -49.25,43.25,0 -49.75,42.75,0 -50.25,42.75,0 -50.75,42.75,0 -51.75,43.25,0 -52.75,43.75,0 -53.25,44.25,0 -54.25,44.75,0 -55.25,44.75,0 -55.75,44.75,0 -56.25,44.75,0 -57.25,44.25,0 -57.75,44.25,0 -58.75,43.75,0 -59.25,43.75,0 -60.25,43.25,0 -60.75,43.25,0 -61.25,44.25,0 -61.25,45.25,0 -60.75,46.75,0 -60.75,47.25,0 -61.75,48.25,0 -62.25,48.25,0 -62.75,48.25,0 -63.25,48.25,0 -64.25,47.75,0 -64.75,47.25,0 -65.25,47.25,0</coordinates>
          </LinearRing>
        </outerBoundaryIs>
      </Polygon>
    </Placemark>
    <Placemark>
      <name>Range – High (0.66–1.00) (2)</name>
      <Style>
        <PolygonStyle>
          <color>800000ff</color>
          <outline>0</outline>
        </PolygonStyle>
      </Style>
      <Polygon>
        <outerBoundaryIs>
          <LinearRing>
            <coordinates>-61.25,43.25,0 -61.25,44.75,0 -61.75,44.75,0 -62.25,44.75,0 -62.75,44.75,0 -64.75,45.25,0 -65.25,45.25,0 -66.25,44.75,0 -66.75,44.75,0 -67.75,44.25,0 -68.25,44.25,0 -69.25,43.75,0 -69.75,43.75,0 -70.25,43.25,0 -70.25,42.75,0 -70.25,42.25,0 -70.25,41.75,0 -69.25,41.25,0 -68.25,40.75,0 -67.75,40.75,0 -67.25,40.75,0 -66.25,41.25,0 -65.75,41.75,0 -64.75,42.25,0 -63.75,42.75,0 -63.25,42.75,0 -62.75,42.75,0 -62.25,42.75,0 -61.75,42.75,0 -61.25,43.25,0</coordinates>
          </LinearRing>
        </outerBoundaryIs>
      </Polygon>
    </Placemark>
  </Document>
</kml>