<?xml version="1.0" encoding="UTF-8"?>
<kml xmlns="http://www.opengis.net/kml/2.2">
  <Document>
    <name>Range</name>
    <Placemark>
      <name>Range – Low (0.00–0.33) (1)</name>
      <Style>
        <PolygonStyle>
          <color>80ff0000</color>
          <outline>0</outline>
        </PolygonStyle>
      </Style>
      <Polygon>
        <outerBoundaryIs>
          <LinearRing>
            <coordinates>-171.75,66.75,0 -170.25,67.25,0 -169.75,67.25,0 -169.25,67.25,0 -168.25,67.75,0 -167.75,67.75,0 -167.25,67.75,0 -166.75,67.75,0 -166.25,67.75,0 -165.75,67.75,0 -164.25,67.75,0 -163.25,67.25,0 -162.75,67.25,0 -162.25,67.25,0 -161.75,67.25,0 -160.75,66.75,0 -160.25,66.75,0 -160.25,66.25,0 -160.75,64.75,0 -160.75,64.25,0 -160.75,63.75,0 -161.75,63.25,0 -162.25,63.25,0 -163.25,63.75,0 -163.75,63.75,0 -164.25,63.75,0 -165.25,62.25,0 -164.75,61.25,0 -163.25,60.75,0 -162.25,59.25,0 -161.75,59.25,0 -160.25,58.75,0 -158.75,58.25,0 -159.75,56.25,0 -158.75,56.25,0 -158.25,56.75,0 -157.25,58.25,0 -155.25,58.25,0 -156.75,59.25,0 -157.75,58.75,0 -158.75,59.25,0 -160.25,58.75,0 -162.25,58.75,0 -162.75,58.75,0 -163.25,58.75,0 -163.75,58.75,0 -164.25,58.75,0 -165.25,59.25,0 -165.75,59.25,0 -166.25,59.25,0 -167.25,59.75,0 -167.75,59.75,0 -168.75,60.25,0 -169.25,60.25,0 -170.25,60.75,0 -171.25,61.25,0 -171.75,61.25,0 -171.75,61.75,0 -170.75,62.25,0 -170.25,62.25,0 -169.75,62.25,0 -168.75,63.25,0 -168.75,63.75,0 -169.75,64.75,0 -170.25,65.25,0 -171.75,65.75,0 -172.25,65.75,0 -172.75,65.75,0 -171.75,66.75,0</coordinates>
          </LinearRing>
        </outerBoundaryIs>
      </Polygon>
    </Placemark>
    <Placemark>
      <name>Range – Low (0.00–0.33) (2)</name>
      <Style>
        <PolygonStyle>
          <color>80ff0000</color>
          <outline>0</outline>
        </PolygonStyle>
      </Style>
      <Polygon>
        <outerBoundaryIs>
          <LinearRing>
            <coordinates>-121.25,34.25,0 -122.25,35.75,0 -122.75,36.75,0 -123.25,37.25,0 -124.25,38.75,0 -124.75,39.75,0 -125.25,40.25,0 -125.25,41.75,0 -125.25,42.25,0 -125.25,43.25,0 -125.25,43.75,0 -124.25,42.75,0 -124.25,42.25,0 -124.25,41.75,0 -124.25,41.25,0 -124.25,40.75,0 -123.75,39.75,0 -123.25,38.75,0 -123.25,38.25,0 -122.25,36.75,0 -121.25,36.25,0 -120.75,35.25,0 -120.25,34.75,0 -120.25,34.25,0 -120.75,34.25,0 -121.25,34.25,0</coordinates>
          </LinearRing>
        </outerBoundaryIs>
      </Polygon>
    </Placemark>
    <Placemark>
      <name>Range – Low (0.00–0.33) (3)</name>
      <Style>
        <PolygonStyle>
          <color>80ff0000</color>
          <outline>0</outline>
        </PolygonStyle>
      </Style>
      <Polygon>
        <outerBoundaryIs>
          <LinearRing>
            <coordinates>179.75,64.75,0 179.75,65.25,0 178.75,64.75,0 178.25,64.75,0 178.75,63.75,0 176.75,62.75,0 178.75,63.25,0 179.25,63.25,0 179.75,63.25,0 179.75,63.75,0 179.75,64.25,0 179.75,64.75,0</coordinates>
          </LinearRing>
        </outerBoundaryIs>
      </Polygon>
    </Placemark>
    <Placemark>
      <name>Range – Low (0.00–0.33) (4)</name>
      <Style>
        <PolygonStyle>
          <color>80ff0000</color>
          <outline>0</outline>
        </PolygonStyle>
      </Style>
      <Polygon>
        <outerBoundaryIs>
          <LinearRing>
            <coordinates>129.25,39.75,0 129.75,40.25,0 130.25,39.25,0 131.25,38.25,0 131.75,38.25,0 132.25,38.25,0 133.25,39.25,0 133.25,39.75,0 133.75,40.25,0 134.25,40.25,0 134.75,40.25,0 135.25,40.25,0 135.75,40.25,0 136.25,40.25,0 138.25,39.25,0 138.75,39.75,0 139.25,41.25,0 139.25,41.75,0 139.25,42.25,0 138.25,44.25,0 137.25,44.25,0 138.75,44.75,0 139.25,46.25,0 140.25,46.75,0 140.25,46.25,0 140.25,44.75,0 140.75,44.25,0 140.75,43.75,0 140.75,41.75,0 142.25,41.75,0 142.75,41.25,0 143.25,40.75,0 143.25,40.25,0 142.75,39.25,0 142.75,38.75,0 142.75,38.25,0 142.75,37.75,0 142.75,37.25,0 141.75,36.75,0 141.25,36.25,0 140.75,35.75,0 140.25,35.75,0 138.75,37.25,0 137.75,36.75,0 136.75,35.25,0 134.75,34.75,0 134.25,34.75,0 133.25,34.25,0 132.75,34.25,0 132.25,34.25,0 131.75,34.25,0 131.25,34.25,0 130.75,34.25,0 129.75,34.75,0 129.25,34.75,0 129.25,35.25,0 129.25,35.75,0 129.25,36.25,0 129.25,36.75,0 129.25,37.25,0 129.25,37.75,0 129.25,38.25,0 129.25,39.25,0 129.25,39.75,0</coordinates>
          </LinearRing>
        </outerBoundaryIs>
      </Polygon>
    </Placemark>
    <Placemark>
      <name>Range – Mid (0.34–0.65) (1)</name>
      <Style>
        <PolygonStyle>
          <color>8000ffff</color>
          <outline>0</outline>
        </PolygonStyle>
      </Style>
      <Polygon>
        <outerBoundaryIs>
          <LinearRing>
            <coordinates>-175.25,61.25,0 -176.25,61.75,0 -177.25,62.25,0 -178.25,62.75,0 -178.75,62.75,0 -179.75,63.25,0 -179.75,63.75,0 -178.75,64.75,0 -178.75,65.25,0 -179.25,66.25,0 -178.75,66.25,0 -178.25,65.75,0 -177.25,64.75,0 -176.25,64.25,0 -175.75,64.25,0 -174.75,63.75,0 -172.75,64.75,0 -172.25,65.25,0 -171.25,65.75,0 -170.75,65.75,0 -170.25,65.75,0 -168.25,65.25,0 -167.75,65.25,0 -166.75,65.25,0 -165.75,64.75,0 -165.25,64.25,0 -165.75,64.25,0 -166.75,63.75,0 -167.75,63.25,0 -168.75,62.75,0 -169.25,62.75,0 -171.25,62.25,0 -170.75,60.75,0 -169.75,60.25,0 -168.75,59.75,0 -169.25,59.75,0 -170.25,60.25,0 -171.25,60.75,0 -171.75,60.75,0 -172.25,60.75,0 -172.75,60.75,0 -173.25,60.75,0 -174.25,61.25,0 -174.75,61.25,0 -175.25,61.25,0</coordinates>
          </LinearRing>
        </outerBoundaryIs>
      </Polygon>
    </Placemark>
    <Placemark>
      <name>Range – Mid (0.34–0.65) (2)</name>
      <Style>
        <PolygonStyle>
          <color>8000ffff</color>
          <outline>0</outline>
        </PolygonStyle>
      </Style>
      <Polygon>
        <outerBoundaryIs>
          <LinearRing>
            <coordinates>-125.25,47.25,0 -124.75,48.25,0 -124.75,48.75,0 -125.25,49.75,0 -125.75,50.25,0 -126.25,50.75,0 -126.75,50.75,0 -128.75,50.25,0 -128.25,49.75,0 -126.25,50.25,0 -125.25,49.75,0 -124.75,49.25,0 -124.25,48.25,0 -124.25,47.75,0 -124.25,47.25,0 -124.75,46.25,0 -124.25,44.75,0 -124.25,44.25,0 -124.25,43.75,0 -124.25,43.25,0 -124.75,42.25,0 -124.75,42.75,0 -124.75,43.25,0 -124.75,43.75,0 -125.25,44.75,0 -125.25,45.75,0 -125.25,46.75,0 -125.25,47.25,0</coordinates>
          </LinearRing>
        </outerBoundaryIs>
      </Polygon>
    </Placemark>
    <Placemark>
      <name>Range – Mid (0.34–0.65) (3)</name>
      <Style>
        <PolygonStyle>
          <color>8000ffff</color>
          <outline>0</outline>
        </PolygonStyle>
      </Style>
      <Polygon>
        <outerBoundaryIs>
          <LinearRing>
            <coordinates>149.75,51.75,0 149.25,52.25,0 148.25,54.25,0 147.75,54.25,0 147.25,54.25,0 146.25,54.75,0 145.75,54.75,0 145.25,54.75,0 144.75,54.75,0 143.25,54.75,0 142.25,55.25,0 141.75,55.75,0 141.25,56.25,0 140.75,56.25,0 139.75,55.75,0 138.75,55.25,0 139.25,55.25,0 140.25,54.75,0 140.75,54.75,0 141.25,54.75,0 141.75,54.75,0 142.75,54.25,0 143.25,54.25,0 144.75,53.25,0 145.25,52.25,0 145.25,52.75,0 146.25,54.75,0 146.75,54.75,0 147.25,54.75,0 147.75,54.75,0 148.25,54.75,0 149.25,54.25,0 149.75,54.25,0 150.25,53.75,0 150.75,53.25,0 151.75,52.75,0 152.75,51.75,0 153.25,50.75,0 154.75,50.75,0 154.25,50.25,0 153.75,50.25,0 153.25,50.25,0 151.25,49.25,0 150.75,49.25,0 150.25,49.25,0 149.75,49.25,0 149.25,49.25,0 147.25,48.75,0 149.25,49.75,0 149.75,51.75,0</coordinates>
          </LinearRing>
        </outerBoundaryIs>
      </Polygon>
    </Placemark>
    <Placemark>
      <name>Range – High (0.66–1.00) (1)</name>
      <Style>
        <PolygonStyle>
          <color>800000ff</color>
          <outline>0</outline>
        </PolygonStyle>
      </Style>
      <Polygon>
        <outerBoundaryIs>
          <LinearRing>
            <coordinates>-179.25,60.25,0 -179.75,60.75,0 -179.75,61.25,0 -179.75,61.75,0 -179.75,62.25,0 -179.75,62.75,0 -179.25,62.75,0 -178.25,62.25,0 -177.75,62.25,0 -176.75,61.75,0 -175.75,61.25,0 -174.75,60.75,0 -174.25,60.75,0 -173.75,60.75,0 -172.75,60.25,0 -172.25,60.25,0 -171.75,60.25,0 -171.25,60.25,0 -170.75,60.25,0 -169.75,59.75,0 -168.75,59.25,0 -168.25,59.25,0 -167.25,58.75,0 -166.75,58.75,0 -165.75,58.25,0 -165.25,58.25,0 -164.25,57.75,0 -163.75,57.75,0 -163.25,57.75,0 -162.75,57.75,0 -162.25,57.75,0 -161.75,57.75,0 -161.25,57.75,0 -160.75,57.75,0 -160.25,57.75,0 -159.75,57.75,0 -159.25,57.75,0 -157.75,57.75,0 -156.25,57.75,0 -155.75,57.75,0 -154.75,58.25,0 -153.75,58.75,0 -153.25,59.75,0 -152.75,59.75,0 -151.25,59.75,0 -150.75,59.75,0 -150.25,59.75,0 -149.25,60.25,0 -148.25,61.25,0 -147.75,61.25,0 -146.75,61.25,0 -146.25,61.25,0 -145.75,60.75,0 -144.25,60.25,0 -143.75,60.25,0 -143.25,60.25,0 -142.75,60.25,0 -142.25,60.25,0 -141.75,60.25,0 -141.25,60.25,0 -139.75,60.25,0 -139.25,60.25,0 -138.25,59.25,0 -137.25,58.75,0 -136.75,58.75,0 -136.25,58.75,0 -135.25,59.25,0 -134.75,58.75,0 -134.25,58.25,0 -133.25,56.75,0 -132.75,56.75,0 -131.75,56.25,0 -131.25,55.25,0 -129.75,55.25,0 -128.75,53.75,0 -128.25,52.75,0 -127.75,52.25,0 -127.25,51.25,0 -127.25,50.75,0 -126.75,49.75,0 -125.75,49.25,0 -125.25,48.75,0 -125.25,48.25,0 -125.25,47.75,0 -124.75,46.75,0 -125.75,47.75,0 -126.25,48.25,0 -126.75,48.75,0 -127.25,49.25,0 -127.75,49.75,0 -128.25,50.25,0 -129.25,50.75,0 -129.75,50.75,0 -130.25,51.25,0 -131.25,51.75,0 -131.75,52.25,0 -132.25,52.75,0 -133.25,53.25,0 -133.75,53.75,0 -135.75,53.25,0 -134.75,55.25,0 -135.25,55.75,0 -135.75,56.25,0 -136.25,56.75,0 -137.25,57.75,0 -137.75,57.75,0 -138.25,57.75,0 -139.25,58.25,0 -139.75,58.25,0 -140.75,58.75,0 -141.25,58.75,0 -142.25,59.25,0 -143.25,59.75,0 -143.75,59.75,0 -144.75,59.25,0 -145.25,59.25,0 -145.75,59.25,0 -146.25,59.25,0 -146.75,59.25,0 -147.75,58.75,0 -148.25,58.25,0 -148.75,57.75,0 -149.25,57.75,0 -150.25,57.25,0 -151.25,56.75,0 -152.25,56.25,0 -153.25,55.75,0 -153.75,55.75,0 -154.25,55.75,0 -154.75,55.75,0 -155.75,55.25,0 -156.25,55.25,0 -157.25,54.75,0 -157.75,54.75,0 -158.75,54.25,0 -159.25,54.25,0 -159.75,54.25,0 -160.25,54.25,0 -160.75,54.25,0 -161.75,53.75,0 -163.25,53.75,0 -163.75,53.75,0 -164.25,53.75,0 -164.75,53.75,0 -165.75,53.25,0 -166.25,53.25,0 -167.25,52.75,0 -167.75,52.75,0 -168.25,52.75,0 -169.25,52.25,0 -169.75,52.25,0 -170.25,52.25,0 -170.75,52.25,0 -171.75,51.75,0 -172.25,51.75,0 -172.75,51.75,0 -173.25,51.75,0 -173.75,51.75,0 -174.25,51.75,0 -174.75,51.75,0 -175.25,51.75,0 -175.75,51.75,0 -176.75,51.25,0 -177.75,51.25,0 -178.25,51.25,0 -178.75,51.25,0 -179.25,51.25,0 -179.75,51.25,0 -179.75,51.75,0 -179.75,52.25,0 -179.75,52.75,0 -179.75,53.25,0 -179.75,53.75,0 -179.25,52.75,0 -178.25,51.75,0 -177.75,51.75,0 -176.75,52.25,0 -176.25,52.25,0 -175.75,52.25,0 -175.25,52.25,0 -174.75,52.25,0 -173.75,52.75,0 -173.25,52.75,0 -172.75,52.75,0 -172.25,52.75,0 -171.75,52.75,0 -171.25,52.75,0 -170.25,53.25,0 -169.75,53.25,0 -169.25,53.25,0 -168.25,53.75,0 -168.25,55.25,0 -169.75,55.75,0 -170.25,55.75,0 -171.25,56.25,0 -171.75,56.25,0 -172.75,56.25,0 -173.75,56.75,0 -174.25,57.75,0 -175.25,58.25,0 -175.75,58.25,0 -176.75,58.75,0 -177.25,58.75,0 -177.75,58.75,0 -178.25,58.75,0 -178.75,59.75,0 -179.25,60.25,0</coordinates>
          </LinearRing>
        </outerBoundaryIs>
      </Polygon>
    </Placemark>
    <Placemark>
      <name>Range – High (0.66–1.00) (2)</name>
      <Style>
        <PolygonStyle>
          <color>800000ff</color>
          <outline>0</outline>
        </PolygonStyle>
      </Style>
      <Polygon>
        <outerBoundaryIs>
          <LinearRing>
            <coordinates>179.25,60.75,0 178.25,61.25,0 177.25,61.75,0 176.75,61.75,0 175.75,61.25,0 174.75,60.75,0 174.25,60.75,0 173.75,60.75,0 173.25,60.75,0 172.75,60.75,0 172.25,60.75,0 171.25,60.25,0 170.75,59.25,0 170.75,58.75,0 170.75,58.25,0 170.25,58.75,0 169.75,59.25,0 168.25,59.75,0 167.75,59.75,0 166.75,59.25,0 166.25,59.25,0 165.75,59.25,0 164.75,58.75,0 163.75,57.75,0 163.75,56.25,0 164.75,55.75,0 163.25,55.75,0 162.25,54.75,0 161.75,54.25,0 160.75,52.75,0 160.25,52.75,0 159.75,52.75,0 158.75,51.75,0 158.75,51.25,0 158.25,50.75,0 157.75,50.25,0 156.75,49.75,0 156.25,49.25,0 155.75,48.75,0 155.25,48.25,0 154.75,47.75,0 154.25,47.75,0 152.75,47.25,0 152.25,46.75,0 151.25,45.75,0 150.75,45.25,0 149.75,44.75,0 148.75,44.25,0 147.75,43.75,0 146.75,43.25,0 145.75,42.75,0 145.25,42.75,0 144.25,42.25,0 143.75,41.75,0 143.25,41.75,0 142.75,41.75,0 141.75,42.25,0 141.25,42.25,0 140.75,42.25,0 141.25,43.25,0 141.75,44.25,0 141.25,45.25,0 141.25,45.75,0 139.75,46.75,0 138.75,46.25,0 138.25,45.75,0 137.75,45.25,0 137.25,44.75,0 136.75,44.25,0 136.25,43.75,0 135.25,43.25,0 134.75,42.75,0 134.25,42.75,0 133.75,42.75,0 133.25,42.75,0 132.25,43.25,0 131.75,43.25,0 131.25,42.75,0 130.25,42.25,0 129.75,41.75,0 129.75,41.25,0 130.25,41.75,0 130.75,42.25,0 131.75,42.75,0 132.25,42.75,0 132.75,42.75,0 133.25,42.75,0 134.25,43.25,0 135.25,43.75,0 135.75,44.25,0 136.25,44.75,0 136.75,45.25,0 137.25,45.75,0 137.75,46.25,0 138.25,46.75,0 138.75,47.25,0 139.25,47.75,0 139.75,48.25,0 140.25,49.25,0 140.25,49.75,0 140.25,50.75,0 140.75,51.25,0 141.25,51.25,0 142.25,51.25,0 143.25,52.25,0 143.25,52.75,0 143.25,53.25,0 143.25,53.75,0 142.75,55.25,0 142.25,55.75,0 141.75,56.25,0 140.25,56.25,0 139.25,55.75,0 138.75,55.75,0 138.25,55.75,0 137.75,55.75,0 137.25,55.75,0 136.75,55.75,0 137.25,56.25,0 138.25,56.75,0 138.75,57.25,0 139.75,57.75,0 140.75,58.25,0 141.25,58.75,0 142.25,59.25,0 142.75,59.25,0 143.25,59.25,0 143.75,59.25,0 144.25,59.25,0 144.75,59.25,0 145.25,59.25,0 145.75,59.25,0 146.25,59.25,0 146.75,59.25,0 147.25,59.25,0 147.75,59.25,0 148.75,59.75,0 149.25,59.75,0 149.75,59.75,0 150.25,59.75,0 150.75,59.75,0 151.25,59.75,0 151.75,59.75,0 152.75,59.25,0 153.25,59.25,0 153.75,59.25,0 154.25,59.25,0 155.25,60.25,0 155.75,60.75,0 156.25,61.25,0 156.75,61.75,0 157.25,61.75,0 157.75,61.75,0 158.25,61.75,0 158.75,61.75,0 159.25,61.75,0 159.75,61.75,0 160.25,61.75,0 161.25,61.25,0 162.25,60.75,0 162.75,60.75,0 163.75,60.25,0 164.25,60.25,0 164.75,60.25,0 165.25,60.25,0 165.75,60.25,0 166.25,60.25,0 166.75,60.25,0 167.75,60.75,0 168.25,60.75,0 168.75,60.75,0 169.25,60.75,0 170.25,60.25,0 171.25,60.75,0 172.25,61.25,0 173.25,61.75,0 173.75,61.75,0 174.25,61.75,0 175.25,62.25,0 175.75,62.25,0 176.25,62.25,0 177.25,62.75,0 177.75,62.75,0 178.25,62.75,0 179.25,62.25,0 179.75,62.25,0 179.75,61.75,0 179.75,61.25,0 179.75,60.75,0 179.25,60.75,0</coordinates>
          </LinearRing>
        </outerBoundaryIs>
      </Polygon>
    </Placemark>
  </Document>
</kml>