<?xml version="1.0" encoding="UTF-8"?>
<kml xmlns="http://www.opengis.net/kml/2.2">
  <Document>
    <name>Albacore Tuna Range</name>
    <Placemark>
      <name>Albacore Tuna Range – Low (0.00–0.33)</name>
      <Style>
        <PolygonStyle>
          <color>80ff0000</color>
          <outline>0</outline>
        </PolygonStyle>
      </Style>
      <Polygon>
        <outerBoundaryIs>
          <LinearRing>
            <coordinates>-46.75,-49.25,0 -44.75,-49.25,0 -42.75,-48.75,0 -42.25,-48.75,0 -41.75,-48.75,0 -41.25,-48.75,0 -40.75,-48.75,0 -39.75,-48.75,0 -39.25,-48.75,0 -38.75,-48.75,0 -38.25,-48.75,0 -37.75,-48.75,0 -35.75,-48.25,0 -33.75,-47.75,0 -32.25,-47.25,0 -31.75,-47.25,0 -31.25,-47.25,0 -30.75,-47.25,0 -30.25,-47.25,0 -28.25,-46.75,0 -27.75,-46.75,0 -27.25,-46.75,0 -26.75,-46.75,0 -26.25,-46.75,0 -25.75,-46.75,0 -25.25,-46.75,0 -24.75,-46.75,0 -24.25,-46.75,0 -23.75,-46.75,0 -23.25,-46.75,0 -22.75,-46.75,0 -22.25,-46.75,0 -21.75,-46.75,0 -19.75,-47.25,0 -19.25,-47.25,0 -18.75,-47.25,0 -18.25,-47.25,0 -15.75,-46.25,0 -15.25,-45.75,0 -14.25,-45.25,0 -13.75,-45.25,0 -13.25,-45.25,0 -12.75,-45.25,0 -12.25,-45.25,0 -11.75,-45.25,0 -11.25,-45.25,0 -10.75,-45.25,0 -10.25,-45.25,0 -9.75,-45.25,0 -7.75,-45.75,0 -7.25,-45.75,0 -6.75,-45.75,0 -6.25,-45.75,0 -5.75,-45.75,0 -5.25,-45.75,0 -4.75,-45.75,0 -4.25,-45.75,0 -3.75,-45.75,0 -3.25,-45.75,0 -2.75,-45.75,0 -2.25,-45.75,0 -1.75,-45.75,0 -1.25,-45.75,0 -0.75,-45.75,0 -0.25,-45.75,0 0.25,-45.75,0 0.75,-45.75,0 1.25,-45.75,0 1.75,-45.75,0 2.25,-45.75,0 5.75,-45.25,0 6.25,-45.25,0 6.75,-45.25,0 7.25,-45.25,0 7.75,-45.25,0 8.75,-45.75,0 11.75,-46.25,0 12.75,-45.75,0 13.25,-45.75,0 13.75,-45.75,0 14.25,-45.75,0 14.75,-45.75,0 16.75,-46.25,0 17.25,-46.25,0 17.75,-46.25,0 19.75,-45.75,0 20.25,-45.75,0 20.75,-45.75,0 21.25,-45.75,0 24.25,-45.75,0 24.75,-45.75,0 25.25,-45.75,0 25.75,-45.75,0 26.25,-45.75,0 28.25,-46.25,0 29.25,-46.75,0 31.75,-46.75,0 32.25,-46.75,0 32.75,-46.75,0 34.75,-46.25,0 36.25,-45.25,0 36.75,-45.25,0 37.25,-45.25,0 37.75,-45.25,0 38.25,-45.25,0 38.75,-45.25,0 39.25,-45.25,0 39.75,-45.25,0 40.25,-45.25,0 42.25,-44.75,0 44.25,-43.75,0 44.75,-43.75,0 45.25,-43.75,0 47.25,-43.25,0 47.75,-43.25,0 49.25,-43.75,0 51.25,-44.25,0 53.25,-44.75,0 53.75,-44.75,0 54.25,-44.75,0 55.25,-45.25,0 56.25,-45.75,0 57.25,-46.25,0 59.25,-46.75,0 59.75,-46.75,0 60.25,-46.75,0 60.75,-46.75,0 61.25,-46.75,0 63.25,-46.25,0 63.75,-46.25,0 65.75,-45.75,0 66.25,-45.75,0 66.75,-45.75,0 67.25,-45.75,0 67.75,-45.75,0 68.25,-45.75,0 68.75,-45.75,0 69.25,-45.75,0 71.25,-46.25,0 71.75,-46.25,0 72.25,-46.25,0 72.75,-46.25,0 73.75,-46.75,0 77.25,-46.75,0 77.75,-46.75,0 78.25,-46.75,0 78.75,-46.75,0 79.25,-46.75,0 79.75,-46.75,0 80.25,-46.75,0 80.75,-46.75,0 81.25,-46.75,0 81.75,-46.75,0 83.25,-47.25,0 84.75,-47.75,0 86.25,-48.25,0 88.25,-48.75,0 90.25,-49.25,0 91.25,-49.25,0 92.75,-48.75,0 93.75,-48.25,0 95.25,-47.25,0 96.25,-46.75,0 96.75,-46.75,0 97.25,-46.75,0 99.25,-47.25,0 101.25,-46.75,0 101.75,-46.75,0 102.25,-46.75,0 103.25,-47.25,0 105.25,-47.75,0 105.75,-47.75,0 106.25,-47.75,0 106.75,-47.75,0 107.25,-47.75,0 107.75,-47.75,0 108.25,-47.75,0 108.75,-47.75,0 109.25,-47.75,0 111.25,-48.25,0 113.25,-48.75,0 113.75,-48.75,0 115.75,-49.25,0 116.25,-49.25,0 118.25,-49.75,0 117.75,-49.75,0 117.25,-49.75,0 116.75,-49.75,0 116.25,-49.75,0 115.75,-49.75,0 115.25,-49.75,0 114.75,-49.75,0 114.25,-49.75,0 113.75,-49.75,0 113.25,-49.75,0 112.75,-49.75,0 112.25,-49.75,0 111.75,-49.75,0 111.25,-49.75,0 110.75,-49.75,0 110.25,-49.75,0 109.75,-49.75,0 109.25,-49.75,0 108.75,-49.75,0 108.25,-49.75,0 107.75,-49.75,0 107.25,-49.75,0 106.75,-49.75,0 106.25,-49.75,0 105.75,-49.75,0 105.25,-49.75,0 104.75,-49.75,0 104.25,-49.75,0 103.75,-49.75,0 103.25,-49.75,0 102.75,-49.75,0 102.25,-49.75,0 101.75,-49.75,0 101.25,-49.75,0 100.75,-49.75,0 100.25,-49.75,0 99.75,-49.75,0 99.25,-49.75,0 98.75,-49.75,0 98.25,-49.75,0 97.75,-49.75,0 97.25,-49.75,0 96.75,-49.75,0 96.25,-49.75,0 95.75,-49.75,0 95.25,-49.75,0 94.75,-49.75,0 94.25,-49.75,0 93.75,-49.75,0 93.25,-49.75,0 92.75,-49.75,0 92.25,-49.75,0 91.75,-49.75,0 91.25,-49.75,0 90.75,-49.75,0 90.25,-49.75,0 89.75,-49.75,0 89.25,-49.75,0 88.75,-49.75,0 88.25,-49.75,0 87.75,-49.75,0 87.25,-49.75,0 86.75,-49.75,0 86.25,-49.75,0 85.75,-49.75,0 85.25,-49.75,0 84.75,-49.75,0 84.25,-49.75,0 83.75,-49.75,0 83.25,-49.75,0 82.75,-49.75,0 82.25,-49.75,0 81.75,-49.75,0 81.25,-49.75,0 80.75,-49.75,0 80.25,-49.75,0 79.75,-49.75,0 79.25,-49.75,0 78.75,-49.75,0 78.25,-49.75,0 77.75,-49.75,0 77.25,-49.75,0 76.75,-49.75,0 76.25,-49.75,0 75.75,-49.75,0 75.25,-49.75,0 74.75,-49.75,0 74.25,-49.75,0 73.75,-49.75,0 73.25,-49.75,0 72.75,-49.75,0 72.25,-49.75,0 71.75,-49.75,0 71.25,-49.75,0 70.75,-49.75,0 70.25,-49.75,0 69.75,-49.75,0 69.25,-49.75,0 68.75,-49.75,0 68.25,-49.75,0 67.75,-49.75,0 67.25,-49.75,0 66.75,-49.75,0 66.25,-49.75,0 65.75,-49.75,0 65.25,-49.75,0 64.75,-49.75,0 64.25,-49.75,0 63.75,-49.75,0 63.25,-49.75,0 62.75,-49.75,0 62.25,-49.75,0 61.75,-49.75,0 61.25,-49.75,0 60.75,-49.75,0 60.25,-49.75,0 59.75,-49.75,0 59.25,-49.75,0 58.75,-49.75,0 58.25,-49.75,0 57.75,-49.75,0 57.25,-49.75,0 56.75,-49.75,0 56.25,-49.75,0 55.75,-49.75,0 55.25,-49.75,0 54.75,-49.75,0 54.25,-49.75,0 53.75,-49.75,0 53.25,-49.75,0 52.75,-49.75,0 52.25,-49.75,0 51.75,-49.75,0 51.25,-49.75,0 50.75,-49.75,0 50.25,-49.75,0 49.75,-49.75,0 49.25,-49.75,0 48.75,-49.75,0 48.25,-49.75,0 47.75,-49.75,0 47.25,-49.75,0 46.75,-49.75,0 46.25,-49.75,0 45.75,-49.75,0 45.25,-49.75,0 44.75,-49.75,0 44.25,-49.75,0 43.75,-49.75,0 43.25,-49.75,0 42.75,-49.75,0 42.25,-49.75,0 41.75,-49.75,0 41.25,-49.75,0 40.75,-49.75,0 40.25,-49.75,0 39.75,-49.75,0 39.25,-49.75,0 38.75,-49.75,0 38.25,-49.75,0 37.75,-49.75,0 37.25,-49.75,0 36.75,-49.75,0 36.25,-49.75,0 35.75,-49.75,0 35.25,-49.75,0 34.75,-49.75,0 34.25,-49.75,0 33.75,-49.75,0 33.25,-49.75,0 32.75,-49.75,0 32.25,-49.75,0 31.75,-49.75,0 31.25,-49.75,0 30.75,-49.75,0 30.25,-49.75,0 29.75,-49.75,0 29.25,-49.75,0 28.75,-49.75,0 28.25,-49.75,0 27.75,-49.75,0 27.25,-49.75,0 26.75,-49.75,0 26.25,-49.75,0 25.75,-49.75,0 25.25,-49.75,0 24.75,-49.75,0 24.25,-49.75,0 23.75,-49.75,0 23.25,-49.75,0 22.75,-49.75,0 22.25,-49.75,0 21.75,-49.75,0 21.25,-49.75,0 20.75,-49.75,0 20.25,-49.75,0 19.75,-49.75,0 19.25,-49.75,0 18.75,-49.75,0 18.25,-49.75,0 17.75,-49.75,0 17.25,-49.75,0 16.75,-49.75,0 16.25,-49.75,0 15.75,-49.75,0 15.25,-49.75,0 14.75,-49.75,0 14.25,-49.75,0 13.75,-49.75,0 13.25,-49.75,0 12.75,-49.75,0 12.25,-49.75,0 11.75,-49.75,0 11.25,-49.75,0 10.75,-49.75,0 10.25,-49.75,0 9.75,-49.75,0 9.25,-49.75,0 8.75,-49.75,0 8.25,-49.75,0 7.75,-49.75,0 7.25,-49.75,0 6.75,-49.75,0 6.25,-49.75,0 5.75,-49.75,0 5.25,-49.75,0 4.75,-49.75,0 4.25,-49.75,0 3.75,-49.75,0 3.25,-49.75,0 2.75,-49.75,0 2.25,-49.75,0 1.75,-49.75,0 1.25,-49.75,0 0.75,-49.75,0 0.25,-49.75,0 -0.25,-49.75,0 -0.75,-49.75,0 -1.25,-49.75,0 -1.75,-49.75,0 -2.25,-49.75,0 -2.75,-49.75,0 -3.25,-49.75,0 -3.75,-49.75,0 -4.25,-49.75,0 -4.75,-49.75,0 -5.25,-49.75,0 -5.75,-49.75,0 -6.25,-49.75,0 -6.75,-49.75,0 -7.25,-49.75,0 -8.75,-49.75,0 -9.25,-49.75,0 -9.75,-49.75,0 -10.25,-49.75,0 -10.75,-49.75,0 -11.25,-49.75,0 -11.75,-49.75,0 -12.25,-49.75,0 -12.75,-49.75,0 -13.25,-49.75,0 -13.75,-49.75,0 -14.25,-49.75,0 -14.75,-49.75,0 -15.25,-49.75,0 -15.75,-49.75,0 -16.25,-49.75,0 -16.75,-49.75,0 -17.25,-49.75,0 -17.75,-49.75,0 -18.25,-49.75,0 -18.75,-49.75,0 -19.25,-49.75,0 -19.75,-49.75,0 -20.25,-49.75,0 -20.75,-49.75,0 -21.25,-49.75,0 -21.75,-49.75,0 -22.25,-49.75,0 -22.75,-49.75,0 -23.25,-49.75,0 -23.75,-49.75,0 -24.25,-49.75,0 -24.75,-49.75,0 -25.25,-49.75,0 -25.75,-49.75,0 -26.25,-49.75,0 -26.75,-49.75,0 -27.25,-49.75,0 -27.75,-49.75,0 -28.25,-49.75,0 -28.75,-49.75,0 -29.25,-49.75,0 -29.75,-49.75,0 -30.25,-49.75,0 -30.75,-49.75,0 -31.25,-49.75,0 -31.75,-49.75,0 -32.25,-49.75,0 -32.75,-49.75,0 -33.25,-49.75,0 -33.75,-49.75,0 -34.25,-49.75,0 -34.75,-49.75,0 -35.25,-49.75,0 -35.75,-49.75,0 -36.25,-49.75,0 -36.75,-49.75,0 -37.25,-49.75,0 -37.75,-49.75,0 -38.25,-49.75,0 -38.75,-49.75,0 -39.25,-49.75,0 -39.75,-49.75,0 -40.25,-49.75,0 -40.75,-49.75,0 -41.25,-49.75,0 -41.75,-49.75,0 -42.25,-49.75,0 -42.75,-49.75,0 -43.25,-49.75,0 -43.75,-49.75,0 -44.25,-49.75,0 -44.75,-49.75,0 -45.25,-49.75,0 -45.75,-49.75,0 -46.25,-49.75,0 -46.75,-49.75,0 -47.25,-49.75,0 -47.75,-49.75,0 -48.25,-49.75,0 -48.75,-49.75,0 -46.75,-49.25,0</coordinates>
          </LinearRing>
        </outerBoundaryIs>
      </Polygon>
    </Placemark>
    <Placemark>
      <name>Albacore Tuna Range – Mid (0.34–0.65)</name>
      <Style>
        <PolygonStyle>
          <color>8000ffff</color>
          <outline>0</outline>
        </PolygonStyle>
      </Style>
      <Polygon>
        <outerBoundaryIs>
          <LinearRing>
            <coordinates>174.75,-39.75,0 175.25,-36.75,0 176.75,-39.25,0 179.25,-44.25,0 179.75,-44.75,0 179.75,-45.25,0 179.75,-45.75,0 179.75,-46.25,0 179.75,-46.75,0 179.75,-47.25,0 179.75,-47.75,0 179.75,-48.25,0 179.75,-48.75,0 179.75,-49.25,0 179.75,-49.75,0 179.25,-49.75,0 178.75,-49.75,0 178.25,-49.75,0 177.75,-49.75,0 177.25,-49.75,0 176.75,-49.75,0 176.25,-49.75,0 175.75,-49.75,0 175.25,-49.75,0 174.75,-49.75,0 174.25,-49.75,0 173.75,-49.75,0 173.25,-49.75,0 172.75,-49.75,0 172.25,-49.75,0 171.75,-49.75,0 171.25,-49.75,0 170.75,-49.75,0 170.25,-49.75,0 169.75,-49.75,0 169.25,-49.75,0 168.75,-49.75,0 168.25,-49.75,0 167.75,-49.75,0 167.25,-49.75,0 166.75,-49.75,0 166.25,-49.75,0 165.75,-49.75,0 165.25,-49.75,0 164.75,-49.75,0 164.25,-49.75,0 163.75,-49.75,0 163.25,-49.75,0 162.75,-49.75,0 162.25,-49.75,0 161.75,-49.75,0 161.25,-49.75,0 160.75,-49.75,0 160.25,-49.75,0 159.75,-49.75,0 159.25,-49.75,0 158.75,-49.75,0 158.25,-49.75,0 157.75,-49.75,0 157.25,-49.75,0 156.75,-49.75,0 156.25,-49.75,0 155.75,-49.75,0 155.25,-49.75,0 154.75,-49.75,0 154.25,-49.75,0 153.75,-49.75,0 153.25,-49.75,0 152.75,-49.75,0 152.25,-49.75,0 151.75,-49.75,0 151.25,-49.75,0 150.75,-49.75,0 150.25,-49.75,0 149.75,-49.75,0 149.25,-49.75,0 148.75,-49.75,0 148.25,-49.75,0 147.75,-49.75,0 147.25,-49.75,0 146.75,-49.75,0 146.25,-49.75,0 145.75,-49.75,0 145.25,-49.75,0 144.75,-49.75,0 144.25,-49.75,0 143.75,-49.75,0 143.25,-49.75,0 142.75,-49.75,0 142.25,-49.75,0 141.75,-49.75,0 141.25,-49.75,0 140.75,-49.75,0 140.25,-49.75,0 139.75,-49.75,0 139.25,-49.75,0 138.75,-49.75,0 138.25,-49.75,0 137.75,-49.75,0 137.25,-49.75,0 136.75,-49.75,0 136.25,-49.75,0 135.75,-49.75,0 135.25,-49.75,0 134.75,-49.75,0 134.25,-49.75,0 133.75,-49.75,0 133.25,-49.75,0 132.75,-49.75,0 132.25,-49.75,0 131.75,-49.75,0 131.25,-49.75,0 130.75,-49.75,0 130.25,-49.75,0 129.75,-49.75,0 129.25,-49.75,0 128.75,-49.75,0 128.25,-49.75,0 127.75,-49.75,0 127.25,-49.75,0 126.75,-49.75,0 126.25,-49.75,0 125.75,-49.75,0 125.25,-49.75,0 124.75,-49.75,0 124.25,-49.75,0 123.75,-49.75,0 121.75,-49.25,0 121.25,-49.25,0 120.75,-49.25,0 120.25,-49.25,0 119.75,-49.25,0 119.25,-49.25,0 118.75,-49.25,0 118.25,-49.25,0 117.75,-49.25,0 117.25,-49.25,0 116.75,-49.25,0 114.75,-48.75,0 114.25,-48.75,0 112.25,-48.25,0 111.75,-48.25,0 109.75,-47.75,0 107.75,-47.25,0 107.25,-47.25,0 106.75,-47.25,0 106.25,-47.25,0 105.75,-47.25,0 105.25,-47.25,0 104.75,-47.25,0 104.25,-47.25,0 103.75,-47.25,0 102.75,-46.75,0 100.75,-46.75,0 100.25,-46.75,0 99.75,-46.75,0 99.25,-46.75,0 98.75,-46.75,0 98.25,-46.75,0 97.75,-46.75,0 94.25,-47.75,0 93.25,-48.25,0 92.25,-48.75,0 90.75,-49.25,0 88.75,-48.75,0 86.75,-48.25,0 85.25,-47.75,0 83.75,-47.25,0 82.25,-46.75,0 80.25,-46.25,0 79.75,-46.25,0 79.25,-46.25,0 78.75,-46.25,0 76.75,-46.75,0 76.25,-46.75,0 75.75,-46.75,0 75.25,-46.75,0 74.75,-46.75,0 74.25,-46.75,0 73.25,-46.25,0 71.25,-45.75,0 70.75,-45.75,0 70.25,-45.75,0 69.75,-45.75,0 67.75,-45.25,0 67.25,-45.25,0 65.25,-45.75,0 64.75,-45.75,0 62.75,-46.25,0 62.25,-46.25,0 61.75,-46.25,0 61.25,-46.25,0 60.75,-46.25,0 60.25,-46.25,0 59.75,-46.25,0 59.25,-46.25,0 58.75,-46.25,0 58.25,-46.25,0 57.75,-46.25,0 56.75,-45.75,0 55.75,-45.25,0 54.75,-44.75,0 52.75,-44.25,0 52.25,-44.25,0 51.75,-44.25,0 49.75,-43.75,0 48.25,-43.25,0 46.75,-43.25,0 46.25,-43.25,0 45.75,-43.25,0 43.25,-44.25,0 41.75,-44.75,0 41.25,-44.75,0 40.75,-44.75,0 40.25,-44.75,0 39.75,-44.75,0 39.25,-44.75,0 38.75,-44.75,0 38.25,-44.75,0 37.75,-44.75,0 35.25,-45.75,0 34.25,-46.25,0 33.75,-46.25,0 33.25,-46.25,0 31.25,-46.75,0 30.75,-46.75,0 30.25,-46.75,0 29.75,-46.75,0 28.75,-46.25,0 26.75,-45.75,0 23.75,-45.75,0 23.25,-45.75,0 22.75,-45.75,0 22.25,-45.75,0 21.75,-45.75,0 19.25,-45.75,0 18.75,-45.75,0 18.25,-45.75,0 17.75,-45.75,0 17.25,-45.75,0 16.75,-45.75,0 16.25,-45.75,0 15.75,-45.75,0 15.25,-45.75,0 12.25,-45.75,0 11.25,-46.25,0 10.75,-46.25,0 10.25,-46.25,0 9.75,-46.25,0 8.25,-45.25,0 4.75,-45.75,0 4.25,-45.75,0 3.75,-45.75,0 3.25,-45.75,0 2.75,-45.75,0 0.75,-45.25,0 0.25,-45.25,0 -0.25,-45.25,0 -0.75,-45.25,0 -1.25,-45.25,0 -1.75,-45.25,0 -2.25,-45.25,0 -2.75,-45.25,0 -3.25,-45.25,0 -3.75,-45.25,0 -4.25,-45.25,0 -4.75,-45.25,0 -5.25,-45.25,0 -5.75,-45.25,0 -6.25,-45.25,0 -6.75,-45.25,0 -7.25,-45.25,0 -7.75,-45.25,0 -8.25,-45.25,0 -8.75,-45.25,0 -9.25,-45.25,0 -11.25,-44.75,0 -11.75,-44.75,0 -12.25,-44.75,0 -12.75,-44.75,0 -14.75,-45.25,0 -16.25,-46.25,0 -16.75,-46.75,0 -17.25,-46.75,0 -17.75,-46.75,0 -18.25,-46.75,0 -18.75,-46.75,0 -19.25,-46.75,0 -19.75,-46.75,0 -20.25,-46.75,0 -20.75,-46.75,0 -21.25,-46.75,0 -23.25,-46.25,0 -23.75,-46.25,0 -24.25,-46.25,0 -24.75,-46.25,0 -25.25,-46.25,0 -25.75,-46.25,0 -26.25,-46.25,0 -26.75,-46.25,0 -28.75,-46.75,0 -29.25,-46.75,0 -29.75,-46.75,0 -30.25,-46.75,0 -30.75,-46.75,0 -32.75,-47.25,0 -34.25,-47.75,0 -36.25,-48.25,0 -36.75,-48.25,0 -37.25,-48.25,0 -37.75,-48.25,0 -38.25,-48.25,0 -40.25,-48.75,0 -43.25,-48.75,0 -45.25,-49.25,0 -45.75,-49.25,0 -46.25,-49.25,0 -47.25,-49.25,0 -47.75,-49.25,0 -48.25,-49.25,0 -48.75,-49.25,0 -49.25,-49.25,0 -49.75,-49.25,0 -50.25,-49.25,0 -50.75,-49.25,0 -51.25,-49.25,0 -53.25,-48.75,0 -55.25,-48.25,0 -58.25,-49.75,0 -58.75,-49.75,0 -59.25,-49.75,0 -59.75,-49.75,0 -60.25,-49.75,0 -60.75,-49.75,0 -61.25,-49.75,0 -61.75,-49.75,0 -62.25,-49.75,0 -62.75,-49.75,0 -63.25,-49.75,0 -63.75,-49.75,0 -64.25,-49.75,0 -64.75,-49.75,0 -65.25,-49.75,0 -65.75,-49.75,0 -66.25,-49.75,0 -66.75,-49.75,0 -67.25,-49.75,0 -67.75,-49.75,0 -68.25,-49.75,0 -73.75,-48.25,0 -74.25,-48.75,0 -75.25,-49.75,0 -75.75,-49.75,0 -76.25,-49.75,0 -76.75,-49.75,0 -77.25,-49.75,0 -77.75,-49.75,0 -78.25,-49.75,0 -78.75,-49.75,0 -79.25,-49.75,0 -79.75,-49.75,0 -80.25,-49.75,0 -80.75,-49.75,0 -81.25,-49.75,0 -81.75,-49.75,0 -82.25,-49.75,0 -82.75,-49.75,0 -83.25,-49.75,0 -83.75,-49.75,0 -84.25,-49.75,0 -84.75,-49.75,0 -85.25,-49.75,0 -85.75,-49.75,0 -86.25,-49.75,0 -86.75,-49.75,0 -87.25,-49.75,0 -87.75,-49.75,0 -88.25,-49.75,0 -88.75,-49.75,0 -89.25,-49.75,0 -89.75,-49.75,0 -90.25,-49.75,0 -90.75,-49.75,0 -91.25,-49.75,0 -91.75,-49.75,0 -92.25,-49.75,0 -92.75,-49.75,0 -93.25,-49.75,0 -93.75,-49.75,0 -94.25,-49.75,0 -94.75,-49.75,0 -95.25,-49.75,0 -95.75,-49.75,0 -96.25,-49.75,0 -96.75,-49.75,0 -97.25,-49.75,0 -97.75,-49.75,0 -98.25,-49.75,0 -98.75,-49.75,0 -99.25,-49.75,0 -99.75,-49.75,0 -100.25,-49.75,0 -100.75,-49.75,0 -101.25,-49.75,0 -101.75,-49.75,0 -102.25,-49.75,0 -102.75,-49.75,0 -103.25,-49.75,0 -103.75,-49.75,0 -104.25,-49.75,0 -104.75,-49.75,0 -105.25,-49.75,0 -105.75,-49.75,0 -106.25,-49.75,0 -106.75,-49.75,0 -107.25,-49.75,0 -107.75,-49.75,0 -108.25,-49.75,0 -108.75,-49.75,0 -109.25,-49.75,0 -109.75,-49.75,0 -110.25,-49.75,0 -110.75,-49.75,0 -111.25,-49.75,0 -111.75,-49.75,0 -112.25,-49.75,0 -112.75,-49.75,0 -113.25,-49.75,0 -113.75,-49.75,0 -114.25,-49.75,0 -114.75,-49.75,0 -115.25,-49.75,0 -115.75,-49.75,0 -117.25,-49.75,0 -117.75,-49.75,0 -118.25,-49.75,0 -118.75,-49.75,0 -119.25,-49.75,0 -119.75,-49.75,0 -120.25,-49.75,0 -120.75,-49.75,0 -121.25,-49.75,0 -121.75,-49.75,0 -122.25,-49.75,0 -122.75,-49.75,0 -123.25,-49.75,0 -123.75,-49.75,0 -124.25,-49.75,0 -124.75,-49.75,0 -125.25,-49.75,0 -125.75,-49.75,0 -126.25,-49.75,0 -126.75,-49.75,0 -127.25,-49.75,0 -127.75,-49.75,0 -128.25,-49.75,0 -128.75,-49.75,0 -129.25,-49.75,0 -129.75,-49.75,0 -130.25,-49.75,0 -130.75,-49.75,0 -131.25,-49.75,0 -131.75,-49.75,0 -132.25,-49.75,0 -132.75,-49.75,0 -133.25,-49.75,0 -133.75,-49.75,0 -134.25,-49.75,0 -134.75,-49.75,0 -135.25,-49.75,0 -135.75,-49.75,0 -136.25,-49.75,0 -136.75,-49.75,0 -137.25,-49.75,0 -137.75,-49.75,0 -138.25,-49.75,0 -138.75,-49.75,0 -139.25,-49.75,0 -139.75,-49.75,0 -140.25,-49.75,0 -140.75,-49.75,0 -141.25,-49.75,0 -141.75,-49.75,0 -142.25,-49.75,0 -142.75,-49.75,0 -143.25,-49.75,0 -143.75,-49.75,0 -144.25,-49.75,0 -144.75,-49.75,0 -145.25,-49.75,0 -145.75,-49.75,0 -146.25,-49.75,0 -146.75,-49.75,0 -147.25,-49.75,0 -147.75,-49.75,0 -148.25,-49.75,0 -148.75,-49.75,0 -149.25,-49.75,0 -149.75,-49.75,0 -150.25,-49.75,0 -150.75,-49.75,0 -151.25,-49.75,0 -151.75,-49.75,0 -152.25,-49.75,0 -152.75,-49.75,0 -153.25,-49.75,0 -153.75,-49.75,0 -154.25,-49.75,0 -154.75,-49.75,0 -155.25,-49.75,0 -155.75,-49.75,0 -156.25,-49.75,0 -156.75,-49.75,0 -157.25,-49.75,0 -157.75,-49.75,0 -158.25,-49.75,0 -158.75,-49.75,0 -159.25,-49.75,0 -159.75,-49.75,0 -160.25,-49.75,0 -160.75,-49.75,0 -161.25,-49.75,0 -161.75,-49.75,0 -162.25,-49.75,0 -162.75,-49.75,0 -163.25,-49.75,0 -163.75,-49.75,0 -164.25,-49.75,0 -164.75,-49.75,0 -165.25,-49.75,0 -165.75,-49.75,0 -166.25,-49.75,0 -166.75,-49.75,0 -167.25,-49.75,0 -167.75,-49.75,0 -168.25,-49.75,0 -168.75,-49.75,0 -169.25,-49.75,0 -169.75,-49.75,0 -170.25,-49.75,0 -170.75,-49.75,0 -171.25,-49.75,0 -171.75,-49.75,0 -172.25,-49.75,0 -172.75,-49.75,0 -173.25,-49.75,0 -173.75,-49.75,0 -174.25,-49.75,0 -174.75,-49.75,0 -175.25,-49.75,0 -175.75,-49.75,0 -176.25,-49.75,0 -176.75,-49.75,0 -177.25,-49.75,0 -177.75,-49.75,0 -178.25,-49.75,0 -178.75,-49.75,0 -179.25,-49.75,0 -179.75,-49.75,0 -179.75,-49.25,0 -179.75,-48.75,0 -179.75,-48.25,0 -179.75,-47.75,0 -179.75,-47.25,0 -179.75,-46.75,0 -179.75,-46.25,0 -179.75,-45.75,0 -179.75,-45.25,0 -179.75,-44.75,0 -179.25,-44.75,0 -178.75,-44.75,0 -178.25,-44.75,0 -177.75,-45.25,0 -172.75,-47.25,0 -172.25,-47.25,0 -171.75,-47.25,0 -171.25,-47.25,0 -170.75,-47.25,0 -170.25,-47.25,0 -168.25,-46.75,0 -167.75,-46.75,0 -165.75,-46.25,0 -165.25,-46.25,0 -164.75,-46.25,0 -162.75,-45.75,0 -162.25,-45.75,0 -161.75,-45.75,0 -161.25,-45.75,0 -160.75,-45.75,0 -160.25,-45.75,0 -158.25,-45.25,0 -156.25,-44.75,0 -155.75,-44.75,0 -155.25,-44.75,0 -154.75,-44.75,0 -154.25,-44.75,0 -153.75,-44.75,0 -153.25,-44.75,0 -152.75,-44.75,0 -152.25,-44.75,0 -151.75,-44.75,0 -151.25,-44.75,0 -150.75,-44.75,0 -148.75,-44.25,0 -148.25,-44.25,0 -147.75,-44.25,0 -147.25,-44.25,0 -146.75,-44.25,0 -146.25,-44.25,0 -145.75,-44.25,0 -145.25,-44.25,0 -144.75,-44.25,0 -144.25,-44.25,0 -143.75,-44.25,0 -143.25,-44.25,0 -141.25,-43.75,0 -140.75,-43.75,0 -140.25,-43.75,0 -139.75,-43.75,0 -139.25,-43.75,0 -138.75,-43.75,0 -138.25,-43.75,0 -137.75,-43.75,0 -137.25,-43.75,0 -136.75,-43.75,0 -136.25,-43.75,0 -135.75,-43.75,0 -135.25,-43.75,0 -134.75,-43.75,0 -134.25,-43.75,0 -133.75,-43.75,0 -133.25,-43.75,0 -132.75,-43.75,0 -132.25,-43.75,0 -131.75,-43.75,0 -131.25,-43.75,0 -130.75,-43.75,0 -130.25,-43.75,0 -129.75,-43.75,0 -129.25,-43.75,0 -128.75,-43.75,0 -128.25,-43.75,0 -127.75,-43.75,0 -127.25,-43.75,0 -126.75,-43.75,0 -126.25,-43.75,0 -125.75,-43.75,0 -125.25,-43.75,0 -123.25,-43.25,0 -122.75,-43.25,0 -122.25,-43.25,0 -121.75,-43.25,0 -121.25,-43.25,0 -120.75,-43.25,0 -120.25,-43.25,0 -119.75,-43.25,0 -117.75,-43.75,0 -115.75,-43.25,0 -115.25,-43.25,0 -114.75,-43.25,0 -114.25,-43.25,0 -113.75,-43.25,0 -113.25,-43.25,0 -112.75,-43.25,0 -112.25,-43.25,0 -111.75,-43.25,0 -111.25,-43.25,0 -110.75,-43.25,0 -110.25,-43.25,0 -109.75,-43.25,0 -109.25,-43.25,0 -108.75,-43.25,0 -108.25,-43.25,0 -107.75,-43.25,0 -107.25,-43.25,0 -106.75,-43.25,0 -106.25,-43.25,0 -105.75,-43.25,0 -105.25,-43.25,0 -104.75,-43.25,0 -104.25,-43.25,0 -103.75,-43.25,0 -103.25,-43.25,0 -102.75,-43.25,0 -102.25,-43.25,0 -101.75,-43.25,0 -101.25,-43.25,0 -99.25,-42.75,0 -98.75,-42.75,0 -98.25,-42.75,0 -97.75,-42.75,0 -97.25,-42.75,0 -95.25,-42.75,0 -94.75,-42.75,0 -94.25,-42.75,0 -93.75,-42.75,0 -91.75,-43.25,0 -91.25,-43.25,0 -90.75,-43.25,0 -90.25,-43.25,0 -89.75,-43.25,0 -87.75,-42.75,0 -87.25,-42.75,0 -85.25,-43.25,0 -84.75,-43.25,0 -84.25,-43.25,0 -83.75,-43.25,0 -83.25,-43.25,0 -81.25,-43.75,0 -80.75,-43.75,0 -80.25,-43.75,0 -79.75,-43.75,0 -77.75,-44.25,0 -74.75,-41.75,0 -74.25,-39.75,0 -74.25,-39.25,0 -74.25,-38.75,0 -74.25,-38.25,0 -74.25,-37.75,0 -74.25,-37.25,0 -74.25,-36.75,0 -73.25,-35.25,0 -72.75,-34.25,0 -71.75,-31.75,0 -71.75,-31.25,0 -71.75,-30.75,0 -71.75,-30.25,0 -71.75,-29.75,0 -71.75,-29.25,0 -71.75,-28.75,0 -71.25,-27.75,0 -70.75,-25.75,0 -70.75,-25.25,0 -70.75,-24.75,0 -70.75,-24.25,0 -70.75,-23.75,0 -70.75,-23.25,0 -70.25,-21.25,0 -70.25,-20.75,0 -70.25,-20.25,0 -70.25,-19.75,0 -70.25,-19.25,0 -70.25,-18.75,0 -70.25,-18.25,0 -71.75,-17.75,0 -73.25,-16.75,0 -74.25,-15.75,0 -74.75,-15.25,0 -75.25,-14.75,0 -76.25,-13.25,0 -76.75,-12.75,0 -77.25,-12.25,0 -78.25,-9.75,0 -78.25,-9.25,0 -78.75,-8.25,0 -79.75,-6.75,0 -79.75,-2.75,0 -78.75,1.25,0 -77.25,3.25,0 -76.25,8.75,0 -71.75,9.25,0 -71.25,9.25,0 -71.25,9.75,0 -71.25,11.25,0 -71.75,11.25,0 -75.25,10.75,0 -78.75,8.75,0 -79.25,8.75,0 -83.25,13.25,0 -82.75,14.25,0 -82.75,14.75,0 -82.75,15.25,0 -84.25,15.25,0 -85.75,15.75,0 -88.25,18.75,0 -87.25,21.75,0 -87.75,21.75,0 -88.25,21.75,0 -88.75,21.75,0 -89.25,21.75,0 -90.25,21.25,0 -90.75,20.75,0 -90.75,19.25,0 -94.25,16.25,0 -97.75,16.25,0 -98.25,16.25,0 -101.75,17.75,0 -102.25,18.25,0 -105.25,20.25,0 -102.25,17.75,0 -99.25,14.75,0 -98.75,14.75,0 -98.25,14.75,0 -97.25,15.25,0 -93.25,13.75,0 -92.75,13.25,0 -92.25,13.25,0 -91.75,13.25,0 -91.25,13.25,0 -89.25,12.75,0 -86.25,10.25,0 -85.75,9.75,0 -83.75,8.25,0 -83.25,8.25,0 -81.25,7.75,0 -78.75,2.25,0 -79.75,1.25,0 -80.25,0.75,0 -80.75,-1.25,0 -81.25,-2.25,0 -81.25,-4.25,0 -81.75,-6.25,0 -81.25,-6.75,0 -79.75,-8.25,0 -78.75,-9.75,0 -78.25,-11.25,0 -77.75,-12.25,0 -76.75,-13.25,0 -76.25,-14.25,0 -75.75,-14.75,0 -75.25,-15.25,0 -74.75,-15.75,0 -74.25,-16.25,0 -73.75,-16.75,0 -71.75,-17.75,0 -70.75,-19.25,0 -70.25,-21.25,0 -70.25,-21.75,0 -70.25,-22.25,0 -70.25,-22.75,0 -70.25,-23.25,0 -70.25,-23.75,0 -70.25,-24.25,0 -70.25,-24.75,0 -70.25,-25.25,0 -70.75,-27.25,0 -70.75,-27.75,0 -71.25,-29.75,0 -71.25,-30.25,0 -71.25,-32.25,0 -71.25,-32.75,0 -71.75,-34.25,0 -72.25,-35.25,0 -73.25,-38.25,0 -73.25,-38.75,0 -73.25,-39.25,0 -72.75,-41.25,0 -72.25,-42.25,0 -67.25,-45.25,0 -65.25,-42.25,0 -62.75,-40.75,0 -62.25,-39.75,0 -61.75,-38.75,0 -60.75,-38.75,0 -57.25,-36.25,0 -55.75,-34.75,0 -53.25,-33.25,0 -52.75,-32.75,0 -51.25,-30.25,0 -48.75,-26.25,0 -50.75,-30.25,0 -50.75,-30.75,0 -51.25,-31.75,0 -51.75,-32.25,0 -52.25,-32.75,0 -53.25,-34.75,0 -53.75,-35.75,0 -54.25,-36.25,0 -55.25,-39.25,0 -55.25,-39.75,0 -55.25,-40.25,0 -55.25,-40.75,0 -55.25,-41.25,0 -54.75,-45.25,0 -54.25,-45.75,0 -53.75,-46.25,0 -49.75,-46.75,0 -48.25,-46.25,0 -46.75,-44.75,0 -46.25,-44.25,0 -45.25,-43.75,0 -43.75,-43.25,0 -43.25,-43.25,0 -42.75,-43.25,0 -42.25,-43.25,0 -40.25,-42.75,0 -39.75,-42.75,0 -39.25,-42.75,0 -38.75,-42.75,0 -36.75,-43.25,0 -36.25,-43.25,0 -35.75,-43.25,0 -33.75,-42.75,0 -33.25,-42.75,0 -32.25,-43.25,0 -30.25,-43.25,0 -29.75,-43.25,0 -29.25,-43.25,0 -28.75,-43.25,0 -28.25,-43.25,0 -25.25,-43.25,0 -24.75,-43.25,0 -24.25,-43.25,0 -20.25,-42.75,0 -19.75,-42.75,0 -19.25,-42.75,0 -18.75,-42.75,0 -18.25,-42.75,0 -17.75,-42.75,0 -17.25,-42.75,0 -16.75,-42.75,0 -16.25,-42.75,0 -15.75,-42.75,0 -15.25,-42.75,0 -14.75,-42.75,0 -14.25,-42.75,0 -10.25,-42.25,0 -8.25,-41.75,0 -7.75,-41.75,0 -7.25,-41.75,0 -6.75,-41.75,0 -6.25,-41.75,0 -5.75,-41.75,0 -5.25,-41.75,0 -4.75,-41.75,0 -4.25,-41.75,0 -3.75,-41.75,0 -1.75,-41.25,0 -1.25,-41.25,0 -0.75,-41.25,0 -0.25,-41.25,0 0.25,-41.25,0 0.75,-41.25,0 1.25,-41.25,0 1.75,-41.25,0 2.25,-41.25,0 2.75,-41.25,0 3.25,-41.25,0 3.75,-41.25,0 4.25,-41.25,0 4.75,-41.25,0 5.25,-41.25,0 5.75,-41.25,0 6.25,-41.25,0 6.75,-41.25,0 7.25,-41.25,0 9.25,-41.75,0 9.75,-41.75,0 10.25,-41.75,0 10.75,-41.75,0 11.75,-42.25,0 12.75,-42.75,0 14.75,-43.25,0 15.25,-43.25,0 15.75,-43.25,0 16.25,-43.25,0 18.25,-43.75,0 18.75,-43.75,0 19.25,-43.75,0 19.75,-43.75,0 20.25,-43.75,0 21.75,-43.75,0 22.25,-43.75,0 22.75,-43.75,0 23.25,-43.75,0 23.75,-43.75,0 24.25,-43.75,0 24.75,-43.75,0 25.25,-43.75,0 25.75,-43.75,0 26.25,-43.75,0 26.75,-43.75,0 27.25,-43.75,0 27.75,-43.75,0 28.25,-43.75,0 30.25,-43.25,0 30.75,-43.25,0 31.25,-43.25,0 33.25,-42.75,0 33.75,-42.75,0 34.25,-42.75,0 34.75,-42.75,0 36.75,-42.25,0 37.25,-42.25,0 37.75,-42.25,0 38.25,-42.25,0 38.75,-42.25,0 39.25,-42.25,0 39.75,-42.25,0 40.25,-42.25,0 40.75,-42.25,0 41.25,-42.25,0 41.75,-42.25,0 42.25,-42.25,0 42.75,-42.25,0 43.25,-42.25,0 43.75,-42.25,0 44.25,-42.25,0 44.75,-42.25,0 45.25,-42.25,0 45.75,-42.25,0 46.25,-42.25,0 48.25,-41.75,0 48.75,-41.75,0 49.25,-41.75,0 49.75,-41.75,0 50.25,-41.75,0 50.75,-41.75,0 52.25,-42.25,0 54.25,-42.75,0 54.75,-42.75,0 55.25,-42.75,0 55.75,-42.75,0 56.25,-43.25,0 58.25,-44.25,0 60.25,-44.75,0 60.75,-44.75,0 61.25,-44.75,0 62.75,-44.75,0 64.75,-44.25,0 65.75,-43.75,0 66.25,-43.75,0 66.75,-43.75,0 67.25,-43.75,0 69.25,-44.25,0 71.75,-44.25,0 72.25,-44.25,0 72.75,-44.25,0 73.25,-44.25,0 75.75,-43.25,0 76.25,-43.25,0 76.75,-43.25,0 77.25,-43.25,0 77.75,-43.25,0 78.25,-43.25,0 78.75,-43.25,0 79.25,-43.25,0 79.75,-43.25,0 80.25,-43.25,0 80.75,-43.25,0 81.25,-43.25,0 81.75,-43.25,0 82.25,-43.25,0 82.75,-43.25,0 83.25,-43.25,0 83.75,-43.25,0 85.75,-42.75,0 86.25,-42.75,0 86.75,-42.75,0 87.25,-42.75,0 87.75,-42.75,0 88.25,-42.75,0 88.75,-42.75,0 89.25,-42.75,0 89.75,-42.75,0 90.25,-42.75,0 90.75,-42.75,0 91.25,-42.75,0 91.75,-42.75,0 92.25,-42.75,0 92.75,-42.75,0 93.25,-42.75,0 93.75,-42.75,0 94.25,-42.75,0 94.75,-42.75,0 95.75,-42.75,0 97.75,-42.25,0 98.25,-42.25,0 98.75,-42.25,0 99.25,-42.25,0 99.75,-42.25,0 100.25,-42.25,0 100.75,-42.25,0 101.25,-42.25,0 101.75,-42.25,0 102.25,-42.25,0 102.75,-42.25,0 103.25,-42.25,0 103.75,-42.25,0 104.25,-42.25,0 104.75,-42.25,0 105.25,-42.25,0 105.75,-42.25,0 106.25,-42.25,0 106.75,-42.25,0 107.25,-42.25,0 107.75,-42.25,0 108.25,-42.25,0 108.75,-42.25,0 109.25,-42.25,0 109.75,-42.25,0 111.75,-42.75,0 112.25,-42.75,0 112.75,-42.75,0 113.25,-42.75,0 113.75,-42.75,0 114.25,-42.75,0 114.75,-42.75,0 115.25,-42.75,0 115.75,-42.75,0 116.25,-42.75,0 116.75,-42.75,0 117.25,-42.75,0 117.75,-42.75,0 118.25,-42.75,0 118.75,-42.75,0 119.25,-42.75,0 119.75,-42.75,0 120.25,-42.75,0 120.75,-42.75,0 121.25,-42.75,0 121.75,-42.75,0 122.25,-42.75,0 122.75,-42.75,0 123.25,-42.75,0 123.75,-42.75,0 124.25,-42.75,0 124.75,-42.75,0 126.75,-43.25,0 127.25,-43.25,0 127.75,-43.25,0 128.25,-43.25,0 128.75,-43.25,0 129.25,-43.25,0 129.75,-43.25,0 130.25,-43.25,0 130.75,-43.25,0 131.25,-43.25,0 131.75,-43.25,0 132.25,-43.25,0 132.75,-43.25,0 133.25,-43.25,0 133.75,-43.25,0 134.25,-43.25,0 134.75,-43.25,0 136.25,-43.75,0 138.25,-44.25,0 138.75,-44.25,0 140.25,-44.75,0 144.75,-40.75,0 140.25,-37.25,0 145.25,-37.75,0 150.25,-35.25,0 145.75,-38.25,0 146.75,-41.25,0 147.25,-43.25,0 151.75,-46.25,0 153.25,-45.75,0 153.75,-45.75,0 154.25,-45.75,0 154.75,-45.75,0 158.25,-45.75,0 158.75,-45.75,0 159.25,-45.75,0 160.75,-45.75,0 162.25,-46.25,0 163.25,-46.75,0 167.25,-46.25,0 169.25,-43.75,0 170.75,-42.75,0 171.25,-42.25,0 171.75,-41.75,0 174.75,-39.75,0</coordinates>
          </LinearRing>
        </outerBoundaryIs>
      </Polygon>
    </Placemark>
    <Placemark>
      <name>Albacore Tuna Range – High (0.66–1.00)</name>
      <Style>
        <PolygonStyle>
          <color>800000ff</color>
          <outline>0</outline>
        </PolygonStyle>
      </Style>
      <Polygon>
        <outerBoundaryIs>
          <LinearRing>
            <coordinates>-175.25,-47.75,0 -176.25,-47.25,0 -176.75,-46.75,0 -177.25,-46.25,0 -179.75,-44.25,0 -179.75,-43.75,0 -179.75,-43.25,0 -179.75,-42.75,0 -179.75,-42.25,0 -179.75,-41.75,0 -179.75,-41.25,0 -179.75,-40.75,0 -179.75,-40.25,0 -179.75,-39.75,0 -179.75,-39.25,0 -179.75,-38.75,0 -179.75,-38.25,0 -179.75,-37.75,0 -179.75,-37.25,0 -179.75,-36.75,0 -179.75,-36.25,0 -179.75,-35.75,0 -179.75,-35.25,0 -179.75,-34.75,0 -179.75,-34.25,0 -179.75,-33.75,0 -179.75,-33.25,0 -179.75,-32.75,0 -179.75,-32.25,0 -179.75,-31.75,0 -179.75,-31.25,0 -179.75,-30.75,0 -179.75,-30.25,0 -179.75,-29.75,0 -179.75,-29.25,0 -179.75,-28.75,0 -179.75,-28.25,0 -179.75,-27.75,0 -179.75,-27.25,0 -179.75,-26.75,0 -179.75,-26.25,0 -179.75,-25.75,0 -179.75,-25.25,0 -179.75,-24.75,0 -179.75,-24.25,0 -179.75,-23.75,0 -179.75,-23.25,0 -179.75,-22.75,0 -179.75,-22.25,0 -179.75,-21.75,0 -179.75,-21.25,0 -179.75,-20.75,0 -179.75,-20.25,0 -179.75,-19.75,0 -179.75,-19.25,0 -179.75,-18.75,0 -179.75,-18.25,0 -179.75,-17.75,0 -179.75,-17.25,0 -179.75,-16.75,0 -179.75,-16.25,0 -179.75,-15.75,0 -179.75,-15.25,0 -179.75,-14.75,0 -179.75,-14.25,0 -179.75,-13.75,0 -179.75,-13.25,0 -179.75,-12.75,0 -179.75,-12.25,0 -179.75,-11.75,0 -179.75,-11.25,0 -179.75,-10.75,0 -179.75,-10.25,0 -179.75,-9.75,0 -179.75,-9.25,0 -179.75,-6.25,0 -179.75,-5.75,0 -179.75,-5.25,0 -179.75,-4.75,0 -179.75,-4.25,0 -179.75,-3.75,0 -179.75,-3.25,0 -179.75,-2.75,0 -179.75,-2.25,0 -179.75,-1.75,0 -179.75,-1.25,0 -179.75,-0.75,0 -179.75,-0.25,0 -179.75,0.25,0 -179.75,0.75,0 -179.75,1.25,0 -179.75,1.75,0 -179.75,2.25,0 -179.75,2.75,0 -179.75,3.25,0 -179.75,3.75,0 -179.75,4.25,0 -179.75,4.75,0 -179.75,5.25,0 -179.75,5.75,0 -179.75,6.25,0 -179.75,6.75,0 -179.75,7.25,0 -179.75,7.75,0 -179.75,8.25,0 -179.75,8.75,0 -179.75,9.25,0 -179.75,9.75,0 -179.75,10.25,0 -179.75,10.75,0 -179.75,11.25,0 -179.75,11.75,0 -179.75,12.25,0 -179.75,12.75,0 -179.75,13.25,0 -179.75,13.75,0 -179.75,14.25,0 -179.75,14.75,0 -179.75,15.25,0 -179.75,15.75,0 -179.75,16.25,0 -179.75,16.75,0 -179.75,17.25,0 -179.75,17.75,0 -179.75,18.25,0 -179.75,18.75,0 -179.75,19.25,0 -179.75,19.75,0 -179.75,20.25,0 -179.75,20.75,0 -179.75,21.25,0 -179.75,21.75,0 -179.75,22.25,0 -179.75,22.75,0 -179.75,23.25,0 -179.75,23.75,0 -179.75,24.25,0 -179.75,24.75,0 -179.75,25.25,0 -179.75,25.75,0 -179.75,26.25,0 -179.75,26.75,0 -179.75,27.25,0 -179.75,27.75,0 -179.75,28.25,0 -179.75,28.75,0 -179.75,29.25,0 -179.75,29.75,0 -179.75,30.25,0 -179.75,30.75,0 -179.75,31.25,0 -179.75,31.75,0 -179.75,32.25,0 -179.75,32.75,0 -179.75,33.25,0 -179.75,33.75,0 -179.75,34.25,0 -179.75,34.75,0 -179.75,35.25,0 -179.75,35.75,0 -179.75,36.25,0 -179.75,36.75,0 -179.75,37.25,0 -179.75,37.75,0 -179.75,38.25,0 -179.75,38.75,0 -179.75,39.25,0 -179.75,39.75,0 -179.75,40.25,0 -179.75,40.75,0 -179.75,41.25,0 -179.75,41.75,0 -179.75,42.25,0 -179.25,42.25,0 -178.75,42.25,0 -178.25,42.25,0 -177.75,42.25,0 -177.25,42.25,0 -176.75,42.25,0 -176.25,42.25,0 -175.75,42.25,0 -175.25,42.25,0 -174.75,42.25,0 -174.25,42.25,0 -173.75,42.25,0 -173.25,42.25,0 -172.75,42.25,0 -172.25,42.25,0 -171.75,42.25,0 -171.25,42.25,0 -170.75,42.25,0 -170.25,42.25,0 -169.75,42.25,0 -169.25,42.25,0 -168.75,42.25,0 -168.25,42.25,0 -167.75,42.25,0 -167.25,42.25,0 -166.75,42.25,0 -166.25,42.25,0 -165.75,42.25,0 -163.75,42.75,0 -163.25,42.75,0 -162.75,42.75,0 -162.25,42.75,0 -161.75,42.75,0 -161.25,42.75,0 -160.75,42.75,0 -160.25,42.75,0 -159.75,42.75,0 -159.25,42.75,0 -158.75,42.75,0 -158.25,42.75,0 -157.75,42.75,0 -157.25,42.75,0 -156.75,42.75,0 -156.25,42.75,0 -155.75,42.75,0 -155.25,42.75,0 -154.75,42.75,0 -154.25,42.75,0 -153.75,42.75,0 -153.25,42.75,0 -151.25,43.25,0 -150.75,43.25,0 -150.25,43.25,0 -149.75,43.25,0 -149.25,43.25,0 -148.75,43.25,0 -148.25,43.25,0 -147.75,43.25,0 -147.25,43.25,0 -145.25,43.75,0 -144.75,43.75,0 -144.25,43.75,0 -143.75,43.75,0 -143.25,43.75,0 -142.75,43.75,0 -140.75,44.25,0 -140.25,44.25,0 -139.75,44.25,0 -139.25,44.25,0 -138.75,44.25,0 -138.25,44.25,0 -136.25,44.75,0 -135.75,44.75,0 -135.25,44.75,0 -134.75,44.75,0 -134.25,44.75,0 -132.25,45.25,0 -131.75,45.25,0 -131.25,45.25,0 -129.25,45.75,0 -128.75,45.75,0 -128.25,45.75,0 -127.75,45.75,0 -127.25,45.75,0 -126.75,45.75,0 -126.25,45.75,0 -125.75,45.25,0 -125.75,44.75,0 -125.75,44.25,0 -126.25,42.25,0 -125.25,39.75,0 -124.25,38.25,0 -123.75,37.25,0 -121.75,35.25,0 -121.25,34.75,0 -118.75,33.75,0 -117.75,33.75,0 -117.25,33.25,0 -113.75,31.75,0 -113.25,31.25,0 -112.25,29.75,0 -111.25,28.25,0 -110.75,27.75,0 -109.25,26.75,0 -108.25,25.25,0 -107.75,24.75,0 -107.25,24.25,0 -106.75,23.75,0 -106.25,23.25,0 -105.75,22.75,0 -105.25,21.75,0 -104.25,19.25,0 -102.75,18.25,0 -101.25,17.75,0 -97.75,22.25,0 -97.75,22.75,0 -97.75,23.25,0 -97.75,23.75,0 -97.25,25.75,0 -97.25,26.25,0 -97.25,26.75,0 -97.25,27.25,0 -97.25,27.75,0 -95.75,28.25,0 -93.75,28.75,0 -91.75,29.75,0 -88.25,30.25,0 -87.75,30.25,0 -87.25,30.25,0 -86.75,30.25,0 -86.25,30.25,0 -84.25,30.25,0 -80.75,32.25,0 -79.75,32.75,0 -78.75,33.75,0 -76.75,36.25,0 -75.75,37.75,0 -74.25,39.25,0 -73.25,40.75,0 -71.75,40.75,0 -71.25,40.75,0 -70.75,40.75,0 -70.25,40.75,0 -68.75,40.75,0 -68.25,40.75,0 -66.25,41.25,0 -65.25,41.75,0 -63.75,42.25,0 -63.25,42.25,0 -62.75,42.25,0 -60.75,42.75,0 -60.25,42.75,0 -59.75,42.75,0 -57.75,43.25,0 -57.25,43.25,0 -56.75,43.25,0 -56.25,43.25,0 -55.75,43.25,0 -55.25,43.25,0 -54.75,43.25,0 -54.25,43.25,0 -53.75,43.25,0 -53.25,43.25,0 -51.75,42.75,0 -47.75,43.75,0 -47.25,44.25,0 -46.75,44.75,0 -44.75,45.75,0 -43.25,50.25,0 -42.75,50.25,0 -42.25,50.25,0 -41.75,50.25,0 -41.25,50.25,0 -40.75,50.25,0 -40.25,50.25,0 -39.75,50.25,0 -39.25,50.25,0 -37.75,50.25,0 -37.25,50.25,0 -36.75,50.25,0 -36.25,50.25,0 -35.75,50.25,0 -35.25,50.25,0 -33.25,50.75,0 -32.75,50.75,0 -32.25,50.75,0 -29.75,51.25,0 -27.75,51.75,0 -27.25,51.75,0 -26.75,51.75,0 -26.25,51.75,0 -25.75,51.75,0 -23.25,52.75,0 -22.75,53.25,0 -22.25,53.75,0 -20.75,54.75,0 -20.25,55.25,0 -19.25,55.75,0 -18.75,55.75,0 -18.25,55.75,0 -17.75,55.75,0 -14.75,55.75,0 -13.75,56.25,0 -12.75,56.75,0 -12.25,56.75,0 -11.75,56.75,0 -11.25,56.75,0 -10.75,56.75,0 -10.25,56.75,0 -9.75,56.75,0 -9.25,56.25,0 -9.25,55.75,0 -4.75,52.75,0 -1.25,50.75,0 0.75,50.75,0 0.75,50.25,0 -1.25,45.75,0 3.75,43.75,0 4.25,43.75,0 9.75,44.25,0 10.25,44.25,0 13.25,45.75,0 13.75,45.75,0 14.75,45.25,0 19.25,42.25,0 14.25,42.75,0 11.75,37.75,0 11.75,37.25,0 11.75,36.75,0 11.25,36.25,0 10.25,36.75,0 8.25,36.75,0 7.75,36.75,0 7.25,36.75,0 6.75,36.75,0 6.25,36.75,0 5.75,36.75,0 5.25,36.75,0 4.75,36.75,0 4.25,36.75,0 3.75,36.75,0 3.25,36.75,0 2.75,36.75,0 0.75,36.25,0 -0.25,35.75,0 -1.25,35.25,0 -1.75,35.25,0 -2.25,35.25,0 -2.75,35.25,0 -3.25,35.25,0 -3.75,35.25,0 -6.75,33.75,0 -8.75,32.75,0 -9.75,30.25,0 -9.75,29.75,0 -10.25,29.25,0 -10.75,28.75,0 -11.75,28.25,0 -13.25,27.25,0 -13.75,26.75,0 -14.75,24.75,0 -15.25,24.25,0 -16.25,22.75,0 -16.25,20.25,0 -16.75,17.75,0 -17.25,15.75,0 -16.75,13.75,0 -15.25,11.75,0 -14.25,10.25,0 -13.75,9.75,0 -13.25,9.25,0 -12.75,8.25,0 -11.75,7.25,0 -10.25,6.25,0 -9.75,5.75,0 -8.25,4.75,0 -5.25,4.75,0 -3.25,5.25,0 -1.75,5.25,0 -0.25,5.75,0 1.25,6.25,0 1.75,6.25,0 2.25,6.25,0 2.75,6.25,0 3.25,6.25,0 3.75,6.25,0 4.25,6.25,0 4.75,6.25,0 5.25,5.75,0 7.75,4.75,0 8.25,4.75,0 9.25,4.25,0 9.25,3.25,0 9.75,1.75,0 9.75,1.25,0 9.75,0.75,0 9.75,0.25,0 10.75,-3.25,0 11.25,-3.75,0 11.25,-4.25,0 12.75,-7.25,0 13.25,-7.75,0 13.25,-8.25,0 13.25,-9.25,0 13.25,-9.75,0 13.25,-10.25,0 13.25,-10.75,0 13.25,-11.25,0 13.25,-11.75,0 13.25,-12.25,0 12.25,-13.75,0 11.75,-15.25,0 11.25,-17.75,0 11.75,-19.25,0 12.25,-20.25,0 12.75,-21.75,0 13.25,-22.75,0 13.25,-26.25,0 14.25,-27.75,0 15.25,-28.75,0 15.75,-29.25,0 16.25,-29.75,0 16.75,-30.75,0 17.25,-31.75,0 20.25,-34.25,0 20.75,-34.25,0 21.25,-34.25,0 21.75,-34.25,0 23.75,-33.75,0 24.75,-33.75,0 25.25,-33.75,0 27.25,-33.25,0 28.75,-32.25,0 29.25,-31.75,0 29.75,-31.25,0 30.25,-30.75,0 31.25,-29.25,0 31.75,-28.75,0 32.75,-26.25,0 32.75,-25.75,0 33.25,-25.25,0 35.25,-22.25,0 35.25,-21.75,0 35.25,-20.75,0 35.75,-19.75,0 36.25,-18.75,0 37.25,-17.75,0 37.75,-17.25,0 40.25,-12.75,0 40.25,-11.75,0 39.75,-10.25,0 39.25,-8.75,0 39.25,-7.75,0 38.75,-6.25,0 38.75,-5.75,0 39.25,-4.75,0 39.75,-3.75,0 40.25,-2.75,0 40.75,-2.25,0 41.25,-1.75,0 41.75,-1.25,0 42.75,0.25,0 44.25,1.25,0 44.75,1.75,0 45.25,2.25,0 46.75,3.25,0 47.25,3.75,0 48.25,5.25,0 44.75,10.25,0 44.25,10.25,0 43.75,10.75,0 42.25,13.25,0 41.75,14.25,0 38.75,18.25,0 38.25,18.75,0 37.25,20.25,0 37.25,19.75,0 37.25,19.25,0 37.75,18.75,0 38.75,18.25,0 42.75,14.75,0 46.75,13.75,0 48.25,14.25,0 49.25,14.75,0 50.75,15.25,0 52.25,16.25,0 52.75,16.75,0 54.25,17.25,0 55.25,17.75,0 58.25,19.75,0 57.75,23.75,0 57.25,24.25,0 56.75,24.75,0 50.75,25.25,0 50.25,25.75,0 49.25,27.75,0 48.75,28.25,0 48.25,28.75,0 47.75,29.25,0 47.75,29.75,0 49.25,30.25,0 49.75,30.25,0 50.25,30.25,0 54.75,26.75,0 56.25,27.25,0 57.25,26.75,0 60.25,25.25,0 60.75,25.25,0 61.25,25.25,0 62.25,25.25,0 62.75,25.25,0 63.25,25.25,0 63.75,25.25,0 64.25,25.25,0 66.25,25.75,0 66.75,25.25,0 67.25,24.75,0 68.25,23.75,0 70.25,22.75,0 72.25,21.75,0 72.75,20.75,0 72.75,20.25,0 72.75,19.75,0 73.25,17.75,0 73.75,15.75,0 74.25,14.75,0 80.25,15.25,0 82.25,17.25,0 83.75,18.25,0 84.25,18.75,0 84.75,19.25,0 85.25,19.75,0 86.75,20.75,0 87.25,20.75,0 87.75,20.75,0 88.25,20.75,0 88.75,20.75,0 89.25,20.75,0 89.75,20.75,0 90.25,20.75,0 90.75,20.75,0 91.25,20.75,0 91.75,20.75,0 92.75,20.25,0 93.25,19.75,0 93.75,19.25,0 94.25,18.75,0 94.75,18.25,0 97.75,14.75,0 98.25,13.25,0 98.75,11.25,0 103.25,8.25,0 108.25,11.25,0 108.75,14.75,0 107.75,16.25,0 107.25,16.75,0 106.75,17.25,0 106.25,17.75,0 105.75,18.75,0 105.75,19.25,0 105.75,19.75,0 106.75,20.75,0 108.25,21.75,0 110.75,21.25,0 112.25,21.75,0 115.25,22.75,0 117.75,23.75,0 118.25,24.25,0 119.75,26.25,0 120.25,27.25,0 120.75,27.75,0 121.25,28.25,0 122.75,29.75,0 119.75,34.75,0 119.25,34.75,0 119.25,35.25,0 120.25,36.25,0 121.75,38.75,0 123.25,39.25,0 123.75,39.25,0 127.75,39.75,0 128.25,40.25,0 129.25,40.75,0 129.75,40.75,0 130.25,40.75,0 130.75,40.75,0 131.25,40.75,0 131.75,40.75,0 132.25,40.75,0 132.75,40.75,0 133.25,40.75,0 133.75,40.75,0 138.25,43.25,0 139.25,43.75,0 140.75,44.75,0 141.25,44.75,0 141.25,44.25,0 144.75,40.75,0 145.25,40.75,0 148.75,40.75,0 149.25,40.75,0 151.25,41.25,0 152.25,41.75,0 153.75,42.25,0 154.25,42.25,0 154.75,42.25,0 155.25,42.25,0 155.75,42.25,0 157.75,41.75,0 158.25,41.75,0 159.25,41.75,0 159.75,41.75,0 160.25,41.75,0 160.75,41.75,0 162.75,41.25,0 163.25,41.25,0 163.75,41.25,0 164.25,41.25,0 166.25,41.75,0 166.75,41.75,0 167.25,41.75,0 167.75,41.75,0 169.75,42.25,0 170.75,42.75,0 171.25,42.75,0 172.25,42.25,0 174.25,42.25,0 175.25,42.75,0 175.75,42.75,0 176.25,42.75,0 178.25,42.25,0 178.75,42.25,0 179.25,42.25,0 179.75,42.25,0 179.75,41.75,0 179.75,41.25,0 179.75,40.75,0 179.75,40.25,0 179.75,39.75,0 179.75,39.25,0 179.75,38.75,0 179.75,38.25,0 179.75,37.75,0 179.75,37.25,0 179.75,36.75,0 179.75,36.25,0 179.75,35.75,0 179.75,35.25,0 179.75,34.75,0 179.75,34.25,0 179.75,33.75,0 179.75,33.25,0 179.75,32.75,0 179.75,32.25,0 179.75,31.75,0 179.75,31.25,0 179.75,30.75,0 179.75,30.25,0 179.75,29.75,0 179.75,29.25,0 179.75,28.75,0 179.75,28.25,0 179.75,27.75,0 179.75,27.25,0 179.75,26.75,0 179.75,26.25,0 179.75,25.75,0 179.75,25.25,0 179.75,24.75,0 179.75,24.25,0 179.75,23.75,0 179.75,23.25,0 179.75,22.75,0 179.75,22.25,0 179.75,21.75,0 179.75,21.25,0 179.75,20.75,0 179.75,20.25,0 179.75,19.75,0 179.75,19.25,0 179.75,18.75,0 179.75,18.25,0 179.75,17.75,0 179.75,17.25,0 179.75,16.75,0 179.75,16.25,0 179.75,15.75,0 179.75,15.25,0 179.75,14.75,0 179.75,14.25,0 179.75,13.75,0 179.75,13.25,0 179.75,12.75,0 179.75,12.25,0 179.75,11.75,0 179.75,11.25,0 179.75,10.75,0 179.75,10.25,0 179.75,9.75,0 179.75,9.25,0 179.75,8.75,0 179.75,8.25,0 179.75,7.75,0 179.75,7.25,0 179.75,6.75,0 179.75,6.25,0 179.75,5.75,0 179.75,5.25,0 179.75,4.75,0 179.75,4.25,0 179.75,3.75,0 179.75,3.25,0 179.75,2.75,0 179.75,2.25,0 179.75,1.75,0 179.75,1.25,0 179.75,0.75,0 179.75,0.25,0 179.75,-0.25,0 179.75,-0.75,0 179.75,-1.25,0 179.75,-1.75,0 179.75,-2.25,0 179.75,-2.75,0 179.75,-3.25,0 179.75,-3.75,0 179.75,-4.25,0 179.75,-4.75,0 179.75,-5.25,0 179.75,-5.75,0 179.75,-9.75,0 179.75,-10.25,0 179.75,-10.75,0 179.75,-11.25,0 179.75,-11.75,0 179.75,-12.25,0 179.75,-12.75,0 179.75,-13.25,0 179.75,-13.75,0 179.75,-14.25,0 179.75,-14.75,0 179.75,-15.25,0 179.75,-15.75,0 179.75,-16.25,0 179.75,-16.75,0 179.75,-17.25,0 179.75,-17.75,0 179.75,-18.25,0 179.75,-18.75,0 179.75,-19.25,0 179.75,-19.75,0 179.75,-20.25,0 179.75,-20.75,0 179.75,-21.25,0 179.75,-21.75,0 179.75,-22.25,0 179.75,-22.75,0 179.75,-23.25,0 179.75,-23.75,0 179.75,-24.25,0 179.75,-24.75,0 179.75,-25.25,0 179.75,-25.75,0 179.75,-26.25,0 179.75,-26.75,0 179.75,-27.25,0 179.75,-27.75,0 179.75,-28.25,0 179.75,-28.75,0 179.75,-29.25,0 179.75,-29.75,0 179.75,-30.25,0 179.75,-30.75,0 179.75,-31.25,0 179.75,-31.75,0 179.75,-32.25,0 179.75,-32.75,0 179.75,-33.25,0 179.75,-33.75,0 179.75,-34.25,0 179.75,-34.75,0 179.75,-35.25,0 179.75,-35.75,0 179.75,-36.25,0 179.75,-36.75,0 179.75,-37.25,0 179.75,-37.75,0 179.75,-38.25,0 179.75,-38.75,0 179.75,-39.25,0 179.75,-39.75,0 179.75,-40.25,0 179.75,-40.75,0 179.75,-41.25,0 179.75,-41.75,0 179.75,-42.25,0 179.75,-42.75,0 179.75,-43.25,0 179.75,-43.75,0 179.75,-44.25,0 177.75,-43.75,0 175.75,-44.25,0 175.25,-44.25,0 174.75,-43.75,0 174.25,-43.25,0 169.75,-43.25,0 168.25,-47.25,0 166.75,-47.75,0 166.25,-47.75,0 165.25,-47.25,0 163.75,-46.75,0 162.75,-46.25,0 161.25,-45.75,0 160.25,-45.75,0 159.75,-45.75,0 157.75,-45.75,0 157.25,-45.75,0 156.75,-45.75,0 156.25,-45.75,0 155.75,-45.75,0 155.25,-45.75,0 152.75,-45.75,0 151.25,-46.25,0 150.75,-46.25,0 150.25,-46.25,0 149.75,-46.25,0 149.25,-46.25,0 148.75,-46.25,0 148.25,-46.25,0 147.75,-46.25,0 147.25,-46.25,0 146.75,-46.25,0 144.75,-45.75,0 143.25,-45.25,0 141.25,-44.75,0 140.75,-44.75,0 139.25,-44.25,0 137.25,-43.75,0 136.75,-43.75,0 135.25,-43.25,0 133.25,-42.75,0 132.75,-42.75,0 132.25,-42.75,0 131.75,-42.75,0 131.25,-42.75,0 130.75,-42.75,0 130.25,-42.75,0 129.75,-42.75,0 129.25,-42.75,0 128.75,-42.75,0 128.25,-42.75,0 127.75,-42.75,0 127.25,-42.75,0 126.75,-42.75,0 126.25,-42.75,0 125.75,-42.75,0 125.25,-42.75,0 123.25,-42.25,0 122.75,-42.25,0 122.25,-42.25,0 121.75,-42.25,0 121.25,-42.25,0 120.75,-42.25,0 120.25,-42.25,0 119.75,-42.25,0 119.25,-42.25,0 118.75,-42.25,0 118.25,-42.25,0 117.75,-42.25,0 117.25,-42.25,0 116.75,-42.25,0 116.25,-42.25,0 115.75,-42.25,0 115.25,-42.25,0 114.75,-42.25,0 114.25,-42.25,0 113.75,-42.25,0 113.25,-42.25,0 112.75,-42.25,0 112.25,-42.25,0 111.75,-42.25,0 111.25,-42.25,0 110.75,-42.25,0 110.25,-42.25,0 108.25,-41.75,0 107.75,-41.75,0 107.25,-41.75,0 106.75,-41.75,0 106.25,-41.75,0 105.75,-41.75,0 105.25,-41.75,0 104.75,-41.75,0 104.25,-41.75,0 103.75,-41.75,0 103.25,-41.75,0 102.75,-41.75,0 102.25,-41.75,0 101.75,-41.75,0 101.25,-41.75,0 100.75,-41.75,0 100.25,-41.75,0 99.75,-41.75,0 99.25,-41.75,0 97.25,-42.25,0 95.25,-42.75,0 93.25,-42.25,0 92.75,-42.25,0 92.25,-42.25,0 91.75,-42.25,0 91.25,-42.25,0 90.75,-42.25,0 90.25,-42.25,0 89.75,-42.25,0 89.25,-42.25,0 88.75,-42.25,0 88.25,-42.25,0 87.75,-42.25,0 87.25,-42.25,0 85.25,-42.75,0 84.75,-42.75,0 84.25,-42.75,0 83.75,-42.75,0 83.25,-42.75,0 82.75,-42.75,0 82.25,-42.75,0 81.75,-42.75,0 81.25,-42.75,0 80.75,-42.75,0 80.25,-42.75,0 79.75,-42.75,0 79.25,-42.75,0 78.75,-42.75,0 78.25,-42.75,0 77.75,-42.75,0 77.25,-42.75,0 74.75,-43.75,0 74.25,-43.75,0 73.75,-43.75,0 73.25,-43.75,0 71.25,-44.25,0 70.75,-44.25,0 70.25,-44.25,0 69.75,-44.25,0 67.75,-43.75,0 65.25,-43.75,0 64.25,-44.25,0 62.25,-44.75,0 61.75,-44.75,0 59.75,-44.25,0 59.25,-44.25,0 58.75,-44.25,0 57.25,-43.75,0 56.75,-43.25,0 54.25,-42.25,0 53.75,-42.25,0 53.25,-42.25,0 52.75,-42.25,0 51.25,-41.75,0 47.75,-41.75,0 47.25,-41.75,0 46.75,-41.75,0 46.25,-41.75,0 45.75,-41.75,0 45.25,-41.75,0 44.75,-41.75,0 44.25,-41.75,0 43.75,-41.75,0 43.25,-41.75,0 42.75,-41.75,0 42.25,-41.75,0 41.75,-41.75,0 41.25,-41.75,0 40.75,-41.75,0 40.25,-41.75,0 39.75,-41.75,0 39.25,-41.75,0 38.75,-41.75,0 38.25,-41.75,0 36.25,-42.25,0 35.75,-42.25,0 35.25,-42.25,0 34.75,-42.25,0 32.75,-42.75,0 32.25,-42.75,0 31.75,-42.75,0 29.75,-43.25,0 29.25,-43.25,0 28.75,-43.25,0 28.25,-43.25,0 27.75,-43.25,0 27.25,-43.25,0 26.75,-43.25,0 26.25,-43.25,0 25.75,-43.25,0 25.25,-43.25,0 24.75,-43.25,0 24.25,-43.25,0 23.75,-43.25,0 23.25,-43.25,0 21.25,-43.75,0 20.75,-43.75,0 18.75,-43.25,0 18.25,-43.25,0 17.75,-43.25,0 17.25,-43.25,0 16.75,-43.25,0 14.75,-42.75,0 14.25,-42.75,0 13.75,-42.75,0 13.25,-42.75,0 12.25,-42.25,0 11.25,-41.75,0 9.25,-41.25,0 8.75,-41.25,0 8.25,-41.25,0 7.75,-41.25,0 5.75,-40.75,0 5.25,-40.75,0 4.75,-40.75,0 4.25,-40.75,0 3.75,-40.75,0 3.25,-40.75,0 2.75,-40.75,0 2.25,-40.75,0 1.75,-40.75,0 1.25,-40.75,0 0.75,-40.75,0 0.25,-40.75,0 -0.25,-40.75,0 -2.25,-41.25,0 -2.75,-41.25,0 -3.25,-41.25,0 -3.75,-41.25,0 -4.25,-41.25,0 -4.75,-41.25,0 -5.25,-41.25,0 -5.75,-41.25,0 -6.25,-41.25,0 -6.75,-41.25,0 -8.75,-41.75,0 -11.25,-42.75,0 -12.25,-43.25,0 -13.75,-42.75,0 -15.75,-42.25,0 -16.25,-42.25,0 -16.75,-42.25,0 -17.25,-42.25,0 -17.75,-42.25,0 -18.25,-42.25,0 -18.75,-42.25,0 -21.25,-43.25,0 -21.75,-43.25,0 -22.25,-43.25,0 -22.75,-43.25,0 -23.25,-43.25,0 -23.75,-43.25,0 -25.75,-43.25,0 -26.25,-43.25,0 -26.75,-43.25,0 -27.25,-43.25,0 -27.75,-43.25,0 -30.75,-43.25,0 -31.25,-43.25,0 -31.75,-43.25,0 -34.25,-42.75,0 -34.75,-42.75,0 -35.25,-42.75,0 -35.75,-42.75,0 -36.25,-42.75,0 -36.75,-42.75,0 -37.25,-42.75,0 -37.75,-42.75,0 -38.25,-42.75,0 -40.75,-42.75,0 -41.25,-42.75,0 -41.75,-42.75,0 -42.25,-42.75,0 -44.25,-43.25,0 -45.75,-43.75,0 -47.25,-45.25,0 -47.75,-45.75,0 -48.75,-46.25,0 -50.25,-46.75,0 -51.25,-47.25,0 -51.75,-47.25,0 -52.25,-47.25,0 -52.75,-46.75,0 -53.25,-46.25,0 -53.75,-45.75,0 -55.25,-44.75,0 -55.75,-44.25,0 -61.25,-43.25,0 -61.75,-43.75,0 -62.25,-44.25,0 -63.25,-44.75,0 -63.75,-44.75,0 -64.25,-44.75,0 -64.75,-44.75,0 -65.25,-44.75,0 -65.25,-44.25,0 -65.25,-43.75,0 -65.25,-43.25,0 -65.25,-41.25,0 -65.25,-40.75,0 -62.25,-38.75,0 -60.25,-38.75,0 -58.25,-38.25,0 -57.25,-37.75,0 -53.75,-34.25,0 -53.25,-33.75,0 -52.25,-32.25,0 -50.25,-29.75,0 -49.75,-29.25,0 -48.75,-26.75,0 -48.25,-25.25,0 -47.75,-24.75,0 -47.25,-24.25,0 -46.25,-23.75,0 -44.75,-23.25,0 -43.75,-22.75,0 -41.25,-21.25,0 -40.25,-19.75,0 -39.75,-18.25,0 -38.75,-15.75,0 -38.75,-15.25,0 -38.75,-14.75,0 -38.75,-14.25,0 -38.75,-13.75,0 -38.75,-13.25,0 -38.25,-12.75,0 -37.25,-11.25,0 -36.75,-10.75,0 -36.25,-10.25,0 -37.25,-4.75,0 -38.25,-4.25,0 -38.75,-3.75,0 -41.25,-2.75,0 -41.75,-2.75,0 -44.75,-2.75,0 -46.75,-0.75,0 -46.75,0.25,0 -47.75,2.25,0 -48.25,2.75,0 -50.25,3.75,0 -53.25,5.75,0 -53.75,5.75,0 -55.75,6.25,0 -56.25,6.25,0 -56.75,6.25,0 -58.25,6.75,0 -60.75,8.75,0 -64.25,10.25,0 -64.75,10.25,0 -65.25,10.25,0 -65.75,10.25,0 -67.75,10.75,0 -68.25,10.75,0 -70.25,11.25,0 -70.75,11.25,0 -73.25,11.25,0 -74.25,10.75,0 -76.25,9.25,0 -76.75,7.75,0 -77.25,5.75,0 -77.25,5.25,0 -77.25,4.75,0 -77.25,4.25,0 -77.25,3.75,0 -77.75,2.75,0 -79.25,1.75,0 -80.25,-0.25,0 -81.25,-2.75,0 -81.25,-3.25,0 -81.25,-3.75,0 -80.75,-7.25,0 -80.25,-7.75,0 -79.25,-9.25,0 -78.75,-10.25,0 -77.25,-12.75,0 -76.75,-13.75,0 -75.75,-15.25,0 -75.25,-15.75,0 -74.75,-16.25,0 -72.75,-17.25,0 -71.25,-18.25,0 -70.75,-19.75,0 -70.75,-20.25,0 -70.75,-20.75,0 -70.75,-21.25,0 -70.75,-21.75,0 -70.75,-22.25,0 -70.75,-22.75,0 -71.25,-24.75,0 -71.25,-25.25,0 -71.25,-25.75,0 -71.25,-26.25,0 -71.25,-26.75,0 -71.25,-27.25,0 -71.75,-28.25,0 -72.25,-30.25,0 -72.25,-30.75,0 -72.25,-31.25,0 -72.25,-31.75,0 -72.25,-32.25,0 -72.25,-32.75,0 -72.25,-33.25,0 -73.25,-34.75,0 -73.75,-35.75,0 -74.75,-38.25,0 -74.75,-38.75,0 -74.75,-39.25,0 -74.75,-39.75,0 -74.75,-40.25,0 -74.75,-40.75,0 -74.75,-41.25,0 -75.25,-43.25,0 -75.75,-43.75,0 -76.25,-44.25,0 -76.75,-44.25,0 -78.75,-43.75,0 -79.25,-43.75,0 -81.25,-43.25,0 -81.75,-43.25,0 -82.25,-43.25,0 -82.75,-43.25,0 -84.75,-42.75,0 -85.25,-42.75,0 -85.75,-42.75,0 -86.25,-42.75,0 -86.75,-42.75,0 -88.25,-42.75,0 -88.75,-42.75,0 -89.25,-42.75,0 -89.75,-42.75,0 -90.25,-42.75,0 -90.75,-42.75,0 -91.25,-42.75,0 -91.75,-42.75,0 -92.25,-42.75,0 -92.75,-42.75,0 -93.25,-42.75,0 -95.75,-42.75,0 -96.25,-42.75,0 -96.75,-42.75,0 -99.75,-42.75,0 -100.25,-42.75,0 -100.75,-42.75,0 -101.25,-42.75,0 -101.75,-42.75,0 -102.25,-42.75,0 -102.75,-42.75,0 -103.25,-42.75,0 -103.75,-42.75,0 -104.25,-42.75,0 -104.75,-42.75,0 -105.25,-42.75,0 -105.75,-42.75,0 -106.25,-42.75,0 -106.75,-42.75,0 -107.25,-42.75,0 -107.75,-42.75,0 -108.25,-42.75,0 -108.75,-42.75,0 -109.25,-42.75,0 -109.75,-42.75,0 -110.25,-42.75,0 -110.75,-42.75,0 -111.25,-42.75,0 -111.75,-42.75,0 -112.25,-42.75,0 -112.75,-42.75,0 -113.25,-42.75,0 -113.75,-42.75,0 -114.25,-42.75,0 -116.25,-43.25,0 -116.75,-43.25,0 -117.25,-43.25,0 -117.75,-43.25,0 -118.25,-43.25,0 -118.75,-43.25,0 -119.25,-43.25,0 -121.25,-42.75,0 -121.75,-42.75,0 -123.75,-43.25,0 -124.25,-43.25,0 -124.75,-43.25,0 -125.25,-43.25,0 -125.75,-43.25,0 -126.25,-43.25,0 -126.75,-43.25,0 -127.25,-43.25,0 -127.75,-43.25,0 -128.25,-43.25,0 -128.75,-43.25,0 -129.25,-43.25,0 -129.75,-43.25,0 -130.25,-43.25,0 -130.75,-43.25,0 -131.25,-43.25,0 -131.75,-43.25,0 -132.25,-43.25,0 -132.75,-43.25,0 -133.25,-43.25,0 -133.75,-43.25,0 -134.25,-43.25,0 -134.75,-43.25,0 -135.25,-43.25,0 -135.75,-43.25,0 -136.25,-43.25,0 -136.75,-43.25,0 -137.25,-43.25,0 -137.75,-43.25,0 -138.25,-43.25,0 -138.75,-43.25,0 -139.25,-43.25,0 -139.75,-43.25,0 -141.75,-43.75,0 -142.25,-43.75,0 -142.75,-43.75,0 -143.25,-43.75,0 -143.75,-43.75,0 -144.25,-43.75,0 -144.75,-43.75,0 -145.25,-43.75,0 -145.75,-43.75,0 -146.25,-43.75,0 -146.75,-43.75,0 -147.25,-43.75,0 -149.25,-44.25,0 -149.75,-44.25,0 -150.25,-44.25,0 -150.75,-44.25,0 -151.25,-44.25,0 -151.75,-44.25,0 -152.25,-44.25,0 -152.75,-44.25,0 -153.25,-44.25,0 -153.75,-44.25,0 -154.25,-44.25,0 -154.75,-44.25,0 -156.75,-44.75,0 -158.75,-45.25,0 -159.25,-45.25,0 -159.75,-45.25,0 -160.25,-45.25,0 -160.75,-45.25,0 -161.25,-45.25,0 -163.25,-45.75,0 -163.75,-45.75,0 -164.25,-45.75,0 -166.25,-46.25,0 -166.75,-46.25,0 -168.75,-46.75,0 -169.25,-46.75,0 -169.75,-46.75,0 -170.25,-46.75,0 -170.75,-46.75,0 -171.25,-46.75,0 -173.25,-47.25,0 -174.25,-47.75,0 -174.75,-47.75,0 -175.25,-47.75,0</coordinates>
          </LinearRing>
        </outerBoundaryIs>
      </Polygon>
    </Placemark>
  </Document>
</kml>