<?xml version="1.0" encoding="UTF-8"?>
<kml xmlns="http://www.opengis.net/kml/2.2">
  <Document>
    <name>Atlantic Cod Range</name>
    <Placemark>
      <name>Atlantic Cod Range – Low (0.00–0.33) (1)</name>
      <Style>
        <PolygonStyle>
          <color>80ff0000</color>
          <outline>0</outline>
        </PolygonStyle>
      </Style>
      <Polygon>
        <outerBoundaryIs>
          <LinearRing>
            <coordinates>-68.25,68.75,0 -71.25,71.25,0 -75.75,75.75,0 -73.75,77.25,0 -73.25,77.75,0 -72.75,77.75,0 -72.25,77.75,0 -71.75,77.75,0 -69.75,77.25,0 -68.25,76.75,0 -67.75,76.25,0 -67.25,75.75,0 -67.25,75.25,0 -67.25,69.75,0 -66.75,68.25,0 -68.25,68.75,0</coordinates>
          </LinearRing>
        </outerBoundaryIs>
      </Polygon>
    </Placemark>
    <Placemark>
      <name>Atlantic Cod Range – Low (0.00–0.33) (2)</name>
      <Style>
        <PolygonStyle>
          <color>80ff0000</color>
          <outline>0</outline>
        </PolygonStyle>
      </Style>
      <Polygon>
        <outerBoundaryIs>
          <LinearRing>
            <coordinates>-57.75,66.25,0 -59.25,67.75,0 -60.25,70.25,0 -65.75,74.75,0 -66.75,75.25,0 -66.75,75.75,0 -66.75,76.25,0 -66.25,76.25,0 -65.75,76.25,0 -64.75,76.25,0 -64.25,76.25,0 -63.75,76.25,0 -63.25,76.25,0 -62.75,76.25,0 -62.25,76.25,0 -61.75,76.25,0 -60.75,76.25,0 -60.25,76.25,0 -58.75,75.75,0 -56.75,74.75,0 -56.25,74.25,0 -55.75,73.75,0 -51.25,71.75,0 -50.25,70.25,0 -50.25,69.75,0 -50.25,69.25,0 -50.25,68.75,0 -50.75,66.75,0 -51.75,65.75,0 -52.25,65.25,0 -56.25,66.25,0 -56.75,66.25,0 -57.25,66.25,0 -57.75,66.25,0</coordinates>
          </LinearRing>
        </outerBoundaryIs>
      </Polygon>
    </Placemark>
    <Placemark>
      <name>Atlantic Cod Range – Low (0.00–0.33) (3)</name>
      <Style>
        <PolygonStyle>
          <color>80ff0000</color>
          <outline>0</outline>
        </PolygonStyle>
      </Style>
      <Polygon>
        <outerBoundaryIs>
          <LinearRing>
            <coordinates>-26.25,62.25,0 -32.25,65.25,0 -33.75,66.25,0 -34.25,66.75,0 -33.75,67.25,0 -31.75,67.75,0 -29.75,68.25,0 -27.75,68.75,0 -25.25,69.25,0 -23.25,70.25,0 -22.75,70.25,0 -22.25,70.25,0 -21.75,70.25,0 -21.25,69.75,0 -19.25,65.75,0 -21.75,64.25,0 -23.75,62.75,0 -25.25,62.25,0 -25.75,62.25,0 -26.25,62.25,0</coordinates>
          </LinearRing>
        </outerBoundaryIs>
      </Polygon>
    </Placemark>
    <Placemark>
      <name>Atlantic Cod Range – Low (0.00–0.33) (4)</name>
      <Style>
        <PolygonStyle>
          <color>80ff0000</color>
          <outline>0</outline>
        </PolygonStyle>
      </Style>
      <Polygon>
        <outerBoundaryIs>
          <LinearRing>
            <coordinates>-16.25,66.25,0 -18.25,68.25,0 -20.75,69.25,0 -20.75,69.75,0 -20.25,70.25,0 -19.75,70.75,0 -19.25,71.25,0 -18.75,71.75,0 -17.75,72.25,0 -16.75,72.75,0 -12.75,74.75,0 -9.25,75.75,0 -6.25,70.75,0 -7.75,70.25,0 -9.25,70.25,0 -11.75,69.75,0 -16.25,66.25,0</coordinates>
          </LinearRing>
        </outerBoundaryIs>
      </Polygon>
    </Placemark>
    <Placemark>
      <name>Atlantic Cod Range – Low (0.00–0.33) (5)</name>
      <Style>
        <PolygonStyle>
          <color>80ff0000</color>
          <outline>0</outline>
        </PolygonStyle>
      </Style>
      <Polygon>
        <outerBoundaryIs>
          <LinearRing>
            <coordinates>-59.75,57.75,0 -59.75,58.75,0 -57.75,65.25,0 -57.75,65.75,0 -58.25,66.25,0 -61.25,67.25,0 -65.25,66.25,0 -65.75,66.25,0 -66.25,66.25,0 -66.75,66.25,0 -67.25,66.25,0 -73.75,64.25,0 -74.25,64.25,0 -74.75,64.25,0 -75.25,64.25,0 -75.75,64.25,0 -75.75,63.75,0 -75.75,63.25,0 -75.75,62.75,0 -75.75,62.25,0 -69.75,58.75,0 -68.25,58.25,0 -67.75,58.25,0 -67.25,58.25,0 -66.75,58.25,0 -61.75,56.25,0 -60.25,55.25,0 -59.75,55.25,0 -59.75,56.25,0 -59.75,56.75,0 -59.75,57.25,0 -59.75,57.75,0</coordinates>
          </LinearRing>
        </outerBoundaryIs>
      </Polygon>
    </Placemark>
    <Placemark>
      <name>Atlantic Cod Range – Low (0.00–0.33) (6)</name>
      <Style>
        <PolygonStyle>
          <color>80ff0000</color>
          <outline>0</outline>
        </PolygonStyle>
      </Style>
      <Polygon>
        <outerBoundaryIs>
          <LinearRing>
            <coordinates>-53.75,63.75,0 -55.25,64.25,0 -51.75,64.75,0 -51.25,64.75,0 -50.75,64.75,0 -50.25,64.75,0 -41.25,64.75,0 -40.75,65.25,0 -39.75,65.75,0 -37.75,66.25,0 -37.25,66.25,0 -36.25,66.25,0 -35.75,66.25,0 -35.25,66.25,0 -34.75,66.25,0 -34.25,66.25,0 -34.25,64.75,0 -38.25,63.25,0 -43.25,60.25,0 -45.25,59.25,0 -45.75,59.25,0 -48.25,61.25,0 -49.75,62.25,0 -53.75,63.75,0</coordinates>
          </LinearRing>
        </outerBoundaryIs>
      </Polygon>
    </Placemark>
    <Placemark>
      <name>Atlantic Cod Range – Low (0.00–0.33) (7)</name>
      <Style>
        <PolygonStyle>
          <color>80ff0000</color>
          <outline>0</outline>
        </PolygonStyle>
      </Style>
      <Polygon>
        <outerBoundaryIs>
          <LinearRing>
            <coordinates>-12.75,63.75,0 -9.75,64.75,0 -9.25,64.75,0 -8.75,63.75,0 -7.25,59.75,0 -6.25,53.25,0 -9.25,51.75,0 -11.75,49.25,0 -14.75,51.25,0 -16.75,55.25,0 -17.25,55.75,0 -18.75,57.75,0 -18.25,58.75,0 -12.75,63.75,0</coordinates>
          </LinearRing>
        </outerBoundaryIs>
      </Polygon>
    </Placemark>
    <Placemark>
      <name>Atlantic Cod Range – Low (0.00–0.33) (8)</name>
      <Style>
        <PolygonStyle>
          <color>80ff0000</color>
          <outline>0</outline>
        </PolygonStyle>
      </Style>
      <Polygon>
        <outerBoundaryIs>
          <LinearRing>
            <coordinates>-4.25,43.25,0 -5.25,44.25,0 -4.75,49.25,0 -4.75,49.75,0 -4.25,51.25,0 -4.75,56.25,0 -5.25,57.25,0 -4.75,58.25,0 -3.25,62.25,0 -3.25,62.75,0 -2.75,62.75,0 1.75,62.75,0 2.25,51.75,0 2.75,51.25,0 1.75,50.25,0 1.25,49.75,0 -0.75,45.25,0 -1.25,43.75,0 -1.75,43.25,0 -2.25,43.25,0 -2.75,43.25,0 -3.25,43.25,0 -3.75,43.25,0 -4.25,43.25,0</coordinates>
          </LinearRing>
        </outerBoundaryIs>
      </Polygon>
    </Placemark>
    <Placemark>
      <name>Atlantic Cod Range – Low (0.00–0.33) (9)</name>
      <Style>
        <PolygonStyle>
          <color>80ff0000</color>
          <outline>0</outline>
        </PolygonStyle>
      </Style>
      <Polygon>
        <outerBoundaryIs>
          <LinearRing>
            <coordinates>-53.75,44.25,0 -46.75,45.75,0 -44.75,46.25,0 -46.25,47.75,0 -46.75,48.25,0 -49.75,49.75,0 -53.75,55.25,0 -58.25,54.75,0 -58.75,54.75,0 -60.25,53.75,0 -58.25,48.75,0 -58.25,48.25,0 -53.75,44.25,0</coordinates>
          </LinearRing>
        </outerBoundaryIs>
      </Polygon>
    </Placemark>
    <Placemark>
      <name>Atlantic Cod Range – Low (0.00–0.33) (10)</name>
      <Style>
        <PolygonStyle>
          <color>80ff0000</color>
          <outline>0</outline>
        </PolygonStyle>
      </Style>
      <Polygon>
        <outerBoundaryIs>
          <LinearRing>
            <coordinates>0.25,52.75,0 -0.75,54.25,0 5.75,60.75,0 5.75,61.75,0 5.75,66.25,0 8.75,62.75,0 10.25,59.75,0 11.25,58.75,0 11.75,58.25,0 16.25,56.25,0 17.25,54.75,0 16.25,54.25,0 14.75,53.75,0 14.25,53.75,0 13.75,53.75,0 11.25,53.75,0 8.25,53.25,0 5.75,52.25,0 4.25,51.25,0 3.75,51.25,0 3.25,51.25,0 1.25,52.25,0 0.25,52.75,0</coordinates>
          </LinearRing>
        </outerBoundaryIs>
      </Polygon>
    </Placemark>
    <Placemark>
      <name>Atlantic Cod Range – Low (0.00–0.33) (11)</name>
      <Style>
        <PolygonStyle>
          <color>80ff0000</color>
          <outline>0</outline>
        </PolygonStyle>
      </Style>
      <Polygon>
        <outerBoundaryIs>
          <LinearRing>
            <coordinates>-69.25,39.75,0 -59.75,43.25,0 -60.75,46.25,0 -63.75,50.25,0 -68.25,49.25,0 -68.75,49.25,0 -69.25,48.75,0 -69.75,48.25,0 -70.25,47.75,0 -70.75,47.25,0 -70.75,46.75,0 -73.75,41.25,0 -74.25,40.75,0 -75.75,38.25,0 -75.75,37.75,0 -75.75,37.25,0 -75.75,36.75,0 -75.75,36.25,0 -75.25,36.25,0 -74.75,36.75,0 -74.25,37.25,0 -73.75,37.75,0 -69.25,39.75,0</coordinates>
          </LinearRing>
        </outerBoundaryIs>
      </Polygon>
    </Placemark>
    <Placemark>
      <name>Atlantic Cod Range – Low (0.00–0.33) (12)</name>
      <Style>
        <PolygonStyle>
          <color>80ff0000</color>
          <outline>0</outline>
        </PolygonStyle>
      </Style>
      <Polygon>
        <outerBoundaryIs>
          <LinearRing>
            <coordinates>-8.25,43.25,0 -8.25,47.75,0 -9.75,42.75,0 -10.25,39.25,0 -10.25,38.75,0 -9.25,36.75,0 -6.75,36.25,0 -6.25,36.25,0 -5.75,36.25,0 -6.25,36.75,0 -8.25,43.25,0</coordinates>
          </LinearRing>
        </outerBoundaryIs>
      </Polygon>
    </Placemark>
    <Placemark>
      <name>Atlantic Cod Range – Low (0.00–0.33) (13)</name>
      <Style>
        <PolygonStyle>
          <color>80ff0000</color>
          <outline>0</outline>
        </PolygonStyle>
      </Style>
      <Polygon>
        <outerBoundaryIs>
          <LinearRing>
            <coordinates>-31.25,39.25,0 -31.25,39.75,0 -28.75,39.25,0 -28.25,39.25,0 -27.75,39.25,0 -26.75,38.75,0 -24.75,37.75,0 -25.25,37.75,0 -25.75,37.75,0 -28.25,38.25,0 -28.75,38.25,0 -29.25,38.25,0 -31.25,39.25,0</coordinates>
          </LinearRing>
        </outerBoundaryIs>
      </Polygon>
    </Placemark>
    <Placemark>
      <name>Atlantic Cod Range – Low (0.00–0.33) (14)</name>
      <Style>
        <PolygonStyle>
          <color>80ff0000</color>
          <outline>0</outline>
        </PolygonStyle>
      </Style>
      <Polygon>
        <outerBoundaryIs>
          <LinearRing>
            <coordinates>12.25,76.75,0 8.25,78.75,0 7.75,79.25,0 7.25,80.25,0 7.75,80.25,0 8.25,80.25,0 8.75,80.25,0 9.25,80.25,0 9.75,80.25,0 10.25,80.25,0 10.75,80.25,0 11.25,80.25,0 13.75,80.75,0 14.25,80.75,0 14.75,80.75,0 15.25,80.75,0 15.75,80.75,0 16.25,80.75,0 16.75,80.75,0 17.25,80.75,0 17.75,80.75,0 18.25,80.75,0 18.75,80.75,0 19.25,80.75,0 25.25,77.75,0 25.75,77.75,0 26.25,77.75,0 26.75,77.75,0 27.25,77.75,0 27.75,77.75,0 30.25,78.25,0 30.75,78.25,0 31.25,78.25,0 31.75,78.25,0 32.25,78.25,0 32.75,78.25,0 33.25,78.25,0 33.75,78.25,0 34.25,78.25,0 34.75,78.25,0 35.25,78.25,0 34.75,76.75,0 34.25,76.75,0 33.75,76.75,0 33.25,76.75,0 32.75,76.75,0 32.25,76.75,0 31.75,76.75,0 31.25,76.75,0 30.75,76.75,0 30.25,76.75,0 27.75,76.25,0 25.75,75.75,0 23.75,75.25,0 23.25,75.25,0 22.75,75.25,0 22.25,75.25,0 19.75,74.75,0 14.75,72.25,0 12.25,76.75,0</coordinates>
          </LinearRing>
        </outerBoundaryIs>
      </Polygon>
    </Placemark>
    <Placemark>
      <name>Atlantic Cod Range – Low (0.00–0.33) (15)</name>
      <Style>
        <PolygonStyle>
          <color>80ff0000</color>
          <outline>0</outline>
        </PolygonStyle>
      </Style>
      <Polygon>
        <outerBoundaryIs>
          <LinearRing>
            <coordinates>73.75,69.75,0 80.75,73.75,0 81.25,73.75,0 81.75,73.75,0 82.25,73.75,0 82.75,73.75,0 83.25,73.75,0 77.75,68.75,0 74.75,67.75,0 72.75,66.75,0 72.75,68.75,0 72.75,69.25,0 73.75,69.75,0</coordinates>
          </LinearRing>
        </outerBoundaryIs>
      </Polygon>
    </Placemark>
    <Placemark>
      <name>Atlantic Cod Range – Low (0.00–0.33) (16)</name>
      <Style>
        <PolygonStyle>
          <color>80ff0000</color>
          <outline>0</outline>
        </PolygonStyle>
      </Style>
      <Polygon>
        <outerBoundaryIs>
          <LinearRing>
            <coordinates>45.75,66.75,0 45.25,67.25,0 45.25,67.75,0 45.25,68.75,0 46.25,69.25,0 50.25,75.75,0 50.25,76.25,0 50.25,76.75,0 50.25,77.25,0 50.25,77.75,0 50.25,78.25,0 50.25,78.75,0 50.75,78.75,0 51.25,78.75,0 51.75,78.75,0 52.25,78.75,0 52.75,78.75,0 53.25,78.75,0 55.75,78.25,0 56.25,78.25,0 56.75,78.25,0 57.25,78.25,0 57.75,78.25,0 58.25,78.25,0 58.75,78.25,0 59.25,78.25,0 61.75,77.75,0 62.25,77.75,0 62.75,77.75,0 63.25,77.75,0 63.75,77.75,0 64.25,77.75,0 64.75,77.75,0 65.25,77.75,0 65.75,77.75,0 66.25,77.75,0 66.75,77.75,0 67.25,77.75,0 67.75,77.75,0 68.25,77.75,0 68.75,77.75,0 69.25,77.75,0 69.75,77.75,0 70.25,77.75,0 70.75,77.75,0 71.25,77.75,0 71.75,77.75,0 72.25,77.75,0 72.75,77.75,0 73.25,77.75,0 73.75,77.75,0 74.25,77.75,0 74.25,77.25,0 72.75,72.75,0 66.75,68.75,0 64.75,69.25,0 60.75,68.75,0 59.75,68.25,0 59.25,68.25,0 54.75,68.25,0 54.25,68.25,0 52.75,68.25,0 52.25,68.25,0 47.75,66.75,0 47.25,66.75,0 46.75,66.75,0 46.25,66.75,0 45.75,66.75,0</coordinates>
          </LinearRing>
        </outerBoundaryIs>
      </Polygon>
    </Placemark>
    <Placemark>
      <name>Atlantic Cod Range – Low (0.00–0.33) (17)</name>
      <Style>
        <PolygonStyle>
          <color>80ff0000</color>
          <outline>0</outline>
        </PolygonStyle>
      </Style>
      <Polygon>
        <outerBoundaryIs>
          <LinearRing>
            <coordinates>35.25,77.75,0 35.75,78.25,0 36.25,78.25,0 36.75,78.25,0 37.25,78.25,0 37.75,78.25,0 38.25,78.25,0 38.75,78.25,0 39.25,78.25,0 39.75,78.25,0 40.25,78.25,0 40.75,78.25,0 41.25,78.25,0 41.75,78.25,0 44.25,78.75,0 44.75,78.75,0 45.25,78.75,0 45.75,78.75,0 46.25,78.75,0 46.75,78.75,0 47.25,78.75,0 47.75,78.75,0 48.25,78.75,0 48.75,78.75,0 49.25,78.75,0 49.75,78.75,0 49.75,78.25,0 49.75,77.75,0 49.75,77.25,0 49.75,76.75,0 49.75,76.25,0 49.25,76.25,0 48.75,76.25,0 48.25,76.25,0 47.75,76.25,0 47.25,76.25,0 46.75,76.25,0 46.25,76.25,0 45.75,76.25,0 45.25,76.25,0 44.75,76.25,0 44.25,76.25,0 43.75,76.25,0 43.25,76.25,0 42.75,76.25,0 42.25,76.25,0 41.75,76.25,0 41.25,76.25,0 40.75,76.25,0 40.25,76.25,0 39.75,76.25,0 39.25,76.25,0 38.75,76.25,0 38.25,76.25,0 37.75,76.25,0 35.25,76.75,0 35.25,77.25,0 35.25,77.75,0</coordinates>
          </LinearRing>
        </outerBoundaryIs>
      </Polygon>
    </Placemark>
    <Placemark>
      <name>Atlantic Cod Range – Low (0.00–0.33) (18)</name>
      <Style>
        <PolygonStyle>
          <color>80ff0000</color>
          <outline>0</outline>
        </PolygonStyle>
      </Style>
      <Polygon>
        <outerBoundaryIs>
          <LinearRing>
            <coordinates>16.25,56.75,0 11.75,64.75,0 11.75,65.25,0 12.25,65.75,0 13.75,66.75,0 15.25,67.75,0 17.75,69.25,0 18.75,69.75,0 19.25,69.75,0 20.75,69.75,0 23.25,70.25,0 24.75,70.75,0 26.75,70.25,0 30.25,60.25,0 30.25,59.75,0 29.75,59.75,0 23.75,57.75,0 21.25,54.75,0 19.75,54.25,0 19.25,54.25,0 18.75,54.25,0 17.75,54.75,0 17.25,55.25,0 16.75,55.75,0 16.25,56.75,0</coordinates>
          </LinearRing>
        </outerBoundaryIs>
      </Polygon>
    </Placemark>
    <Placemark>
      <name>Atlantic Cod Range – Low (0.00–0.33) (19)</name>
      <Style>
        <PolygonStyle>
          <color>80ff0000</color>
          <outline>0</outline>
        </PolygonStyle>
      </Style>
      <Polygon>
        <outerBoundaryIs>
          <LinearRing>
            <coordinates>40.75,67.75,0 32.75,69.25,0 31.75,67.25,0 34.25,65.25,0 34.75,64.75,0 35.25,64.25,0 36.75,63.75,0 37.25,63.75,0 37.75,63.75,0 38.25,63.75,0 39.75,64.75,0 43.75,66.25,0 44.25,66.25,0 44.75,67.25,0 44.75,68.75,0 44.25,68.75,0 43.75,68.75,0 43.25,68.75,0 42.75,68.75,0 41.75,68.25,0 40.75,67.75,0</coordinates>
          </LinearRing>
        </outerBoundaryIs>
      </Polygon>
    </Placemark>
    <Placemark>
      <name>Atlantic Cod Range – Mid (0.34–0.65) (1)</name>
      <Style>
        <PolygonStyle>
          <color>8000ffff</color>
          <outline>0</outline>
        </PolygonStyle>
      </Style>
      <Polygon>
        <outerBoundaryIs>
          <LinearRing>
            <coordinates>-12.75,70.75,0 -9.75,71.25,0 -9.25,71.25,0 -8.75,71.25,0 -8.25,71.25,0 -7.75,71.25,0 -6.75,70.75,0 -8.25,63.25,0 -8.75,58.75,0 -8.75,51.75,0 -11.25,50.25,0 -14.75,51.75,0 -16.75,56.25,0 -17.75,57.75,0 -17.75,58.25,0 -13.25,63.75,0 -13.25,70.75,0 -12.75,70.75,0</coordinates>
          </LinearRing>
        </outerBoundaryIs>
      </Polygon>
    </Placemark>
    <Placemark>
      <name>Atlantic Cod Range – Mid (0.34–0.65) (2)</name>
      <Style>
        <PolygonStyle>
          <color>8000ffff</color>
          <outline>0</outline>
        </PolygonStyle>
      </Style>
      <Polygon>
        <outerBoundaryIs>
          <LinearRing>
            <coordinates>-55.75,66.75,0 -55.25,69.25,0 -54.75,69.25,0 -54.25,69.25,0 -53.75,69.25,0 -53.25,69.25,0 -52.75,69.25,0 -52.25,69.25,0 -51.75,69.25,0 -51.25,68.75,0 -41.25,63.75,0 -40.75,63.75,0 -41.25,62.75,0 -41.75,61.75,0 -42.75,60.25,0 -43.25,59.75,0 -44.75,59.25,0 -46.25,59.75,0 -48.75,60.25,0 -50.25,61.25,0 -52.25,62.75,0 -54.75,64.25,0 -55.25,64.75,0 -56.25,65.75,0 -55.75,66.75,0</coordinates>
          </LinearRing>
        </outerBoundaryIs>
      </Polygon>
    </Placemark>
    <Placemark>
      <name>Atlantic Cod Range – Mid (0.34–0.65) (3)</name>
      <Style>
        <PolygonStyle>
          <color>8000ffff</color>
          <outline>0</outline>
        </PolygonStyle>
      </Style>
      <Polygon>
        <outerBoundaryIs>
          <LinearRing>
            <coordinates>-33.25,65.75,0 -32.75,65.75,0 -34.75,64.75,0 -37.75,64.25,0 -38.25,64.25,0 -38.75,64.25,0 -39.25,64.25,0 -39.75,64.25,0 -38.25,65.25,0 -37.75,65.25,0 -37.25,65.25,0 -36.75,65.25,0 -34.25,65.75,0 -33.75,65.75,0 -33.25,65.75,0</coordinates>
          </LinearRing>
        </outerBoundaryIs>
      </Polygon>
    </Placemark>
    <Placemark>
      <name>Atlantic Cod Range – Mid (0.34–0.65) (4)</name>
      <Style>
        <PolygonStyle>
          <color>8000ffff</color>
          <outline>0</outline>
        </PolygonStyle>
      </Style>
      <Polygon>
        <outerBoundaryIs>
          <LinearRing>
            <coordinates>-25.25,62.75,0 -24.75,62.75,0 -24.25,62.75,0 -20.25,63.75,0 -18.25,63.75,0 -18.25,65.75,0 -18.25,67.75,0 -19.25,67.75,0 -19.75,67.75,0 -20.25,67.75,0 -20.75,67.75,0 -24.25,67.25,0 -27.75,66.25,0 -28.25,66.25,0 -29.75,66.25,0 -30.25,66.25,0 -30.75,65.75,0 -31.25,65.25,0 -26.25,63.25,0 -25.25,62.75,0</coordinates>
          </LinearRing>
        </outerBoundaryIs>
      </Polygon>
    </Placemark>
    <Placemark>
      <name>Atlantic Cod Range – Mid (0.34–0.65) (5)</name>
      <Style>
        <PolygonStyle>
          <color>8000ffff</color>
          <outline>0</outline>
        </PolygonStyle>
      </Style>
      <Polygon>
        <outerBoundaryIs>
          <LinearRing>
            <coordinates>-5.75,53.25,0 -8.75,54.25,0 -9.75,55.75,0 -7.25,60.75,0 -6.75,61.75,0 -4.75,62.75,0 -4.25,62.75,0 -0.25,62.25,0 2.25,62.75,0 5.75,65.25,0 6.75,66.75,0 7.25,66.75,0 11.25,64.75,0 11.25,64.25,0 11.25,59.25,0 12.75,56.75,0 12.75,56.25,0 9.75,55.75,0 2.25,52.25,0 1.25,50.75,0 0.75,50.25,0 0.25,50.25,0 -0.25,50.75,0 -4.25,52.75,0 -5.75,53.25,0</coordinates>
          </LinearRing>
        </outerBoundaryIs>
      </Polygon>
    </Placemark>
    <Placemark>
      <name>Atlantic Cod Range – Mid (0.34–0.65) (6)</name>
      <Style>
        <PolygonStyle>
          <color>8000ffff</color>
          <outline>0</outline>
        </PolygonStyle>
      </Style>
      <Polygon>
        <outerBoundaryIs>
          <LinearRing>
            <coordinates>-74.25,38.25,0 -74.25,39.25,0 -73.25,40.75,0 -70.75,43.25,0 -70.25,43.75,0 -67.75,49.25,0 -67.25,49.75,0 -66.75,50.25,0 -66.25,50.25,0 -65.75,50.25,0 -65.25,50.25,0 -64.75,50.25,0 -64.25,50.25,0 -63.25,50.25,0 -62.75,50.25,0 -62.25,50.25,0 -61.75,50.25,0 -60.25,48.25,0 -57.75,46.25,0 -60.75,43.75,0 -66.25,40.75,0 -67.25,40.25,0 -67.75,40.25,0 -68.25,40.25,0 -68.75,40.25,0 -71.25,39.75,0 -73.25,38.75,0 -74.25,38.25,0</coordinates>
          </LinearRing>
        </outerBoundaryIs>
      </Polygon>
    </Placemark>
    <Placemark>
      <name>Atlantic Cod Range – Mid (0.34–0.65) (7)</name>
      <Style>
        <PolygonStyle>
          <color>8000ffff</color>
          <outline>0</outline>
        </PolygonStyle>
      </Style>
      <Polygon>
        <outerBoundaryIs>
          <LinearRing>
            <coordinates>-50.75,43.75,0 -49.75,43.75,0 -45.25,46.25,0 -43.75,46.75,0 -43.75,47.25,0 -43.75,47.75,0 -44.25,48.25,0 -51.25,52.75,0 -51.75,53.25,0 -52.25,53.75,0 -52.75,54.25,0 -53.25,54.75,0 -54.25,55.25,0 -57.25,56.25,0 -59.25,57.75,0 -59.75,58.25,0 -59.75,55.75,0 -60.25,53.25,0 -59.75,50.75,0 -56.75,44.75,0 -55.25,44.75,0 -50.75,43.75,0</coordinates>
          </LinearRing>
        </outerBoundaryIs>
      </Polygon>
    </Placemark>
    <Placemark>
      <name>Atlantic Cod Range – Mid (0.34–0.65) (8)</name>
      <Style>
        <PolygonStyle>
          <color>8000ffff</color>
          <outline>0</outline>
        </PolygonStyle>
      </Style>
      <Polygon>
        <outerBoundaryIs>
          <LinearRing>
            <coordinates>-3.75,51.75,0 -2.75,51.75,0 -1.25,50.75,0 -1.25,50.25,0 -1.25,49.25,0 -1.75,45.75,0 -1.75,45.25,0 -1.75,44.75,0 -1.75,44.25,0 -1.75,43.75,0 -2.25,43.75,0 -4.75,43.25,0 -9.25,38.75,0 -9.25,39.75,0 -9.25,40.25,0 -9.25,40.75,0 -9.75,43.25,0 -9.75,48.25,0 -6.75,52.25,0 -3.75,51.75,0</coordinates>
          </LinearRing>
        </outerBoundaryIs>
      </Polygon>
    </Placemark>
    <Placemark>
      <name>Atlantic Cod Range – Mid (0.34–0.65) (9)</name>
      <Style>
        <PolygonStyle>
          <color>8000ffff</color>
          <outline>0</outline>
        </PolygonStyle>
      </Style>
      <Polygon>
        <outerBoundaryIs>
          <LinearRing>
            <coordinates>36.25,65.25,0 33.25,66.75,0 34.75,75.25,0 34.75,75.75,0 34.75,76.25,0 35.25,76.25,0 35.75,76.25,0 36.25,76.25,0 36.75,76.25,0 37.25,76.25,0 39.75,75.75,0 40.25,75.75,0 40.75,75.75,0 41.25,75.75,0 41.75,75.75,0 42.25,75.75,0 42.75,75.75,0 43.25,75.75,0 43.75,75.75,0 44.25,75.75,0 44.75,75.75,0 45.25,75.75,0 45.75,75.75,0 46.25,75.75,0 46.75,75.75,0 47.25,75.75,0 47.75,75.75,0 48.25,75.75,0 48.75,75.75,0 49.25,75.75,0 49.75,75.75,0 50.75,75.75,0 51.25,75.75,0 54.75,74.75,0 55.25,74.75,0 55.25,70.25,0 54.75,70.25,0 54.25,70.25,0 52.75,70.25,0 52.25,70.25,0 50.25,70.25,0 47.25,69.75,0 45.75,69.25,0 39.25,64.75,0 38.75,64.75,0 36.25,65.25,0</coordinates>
          </LinearRing>
        </outerBoundaryIs>
      </Polygon>
    </Placemark>
    <Placemark>
      <name>Atlantic Cod Range – Mid (0.34–0.65) (10)</name>
      <Style>
        <PolygonStyle>
          <color>8000ffff</color>
          <outline>0</outline>
        </PolygonStyle>
      </Style>
      <Polygon>
        <outerBoundaryIs>
          <LinearRing>
            <coordinates>29.25,70.25,0 34.25,76.25,0 33.75,76.25,0 33.25,76.25,0 32.75,76.25,0 32.25,76.25,0 29.75,76.75,0 28.25,76.25,0 26.25,75.75,0 26.25,73.75,0 28.75,70.25,0 29.25,70.25,0</coordinates>
          </LinearRing>
        </outerBoundaryIs>
      </Polygon>
    </Placemark>
    <Placemark>
      <name>Atlantic Cod Range – Mid (0.34–0.65) (11)</name>
      <Style>
        <PolygonStyle>
          <color>8000ffff</color>
          <outline>0</outline>
        </PolygonStyle>
      </Style>
      <Polygon>
        <outerBoundaryIs>
          <LinearRing>
            <coordinates>20.25,69.25,0 24.25,70.75,0 25.25,70.75,0 25.75,73.75,0 25.75,75.25,0 25.25,75.25,0 21.75,76.25,0 21.25,76.25,0 20.75,76.25,0 20.25,76.25,0 15.25,78.25,0 14.75,78.75,0 11.25,79.75,0 10.75,79.75,0 10.25,79.75,0 9.75,79.75,0 9.25,79.75,0 8.75,79.75,0 8.25,79.75,0 9.25,79.25,0 10.25,78.75,0 11.25,78.25,0 15.25,72.25,0 15.25,68.75,0 14.75,67.25,0 17.25,68.25,0 20.25,69.25,0</coordinates>
          </LinearRing>
        </outerBoundaryIs>
      </Polygon>
    </Placemark>
    <Placemark>
      <name>Atlantic Cod Range – High (0.66–1.00) (1)</name>
      <Style>
        <PolygonStyle>
          <color>800000ff</color>
          <outline>0</outline>
        </PolygonStyle>
      </Style>
      <Polygon>
        <outerBoundaryIs>
          <LinearRing>
            <coordinates>-10.25,63.25,0 -7.25,70.75,0 -7.75,70.75,0 -8.25,70.75,0 -8.75,70.75,0 -9.25,70.75,0 -15.25,67.25,0 -15.75,67.25,0 -16.25,67.25,0 -18.75,67.75,0 -21.25,67.25,0 -21.75,67.25,0 -22.25,67.25,0 -22.75,67.25,0 -23.25,67.25,0 -23.75,67.25,0 -25.25,66.75,0 -26.75,66.25,0 -27.25,65.25,0 -27.25,64.75,0 -26.75,63.75,0 -25.75,63.25,0 -25.25,63.25,0 -24.75,63.25,0 -24.25,63.25,0 -23.75,63.25,0 -23.25,63.25,0 -22.75,63.25,0 -22.25,63.25,0 -21.75,63.25,0 -21.25,63.25,0 -20.75,63.25,0 -20.25,63.25,0 -19.75,63.25,0 -19.25,63.25,0 -18.75,63.25,0 -18.25,63.25,0 -17.75,63.25,0 -17.25,63.25,0 -16.75,63.25,0 -16.25,63.25,0 -15.75,63.25,0 -11.25,63.25,0 -10.25,63.25,0</coordinates>
          </LinearRing>
        </outerBoundaryIs>
      </Polygon>
    </Placemark>
    <Placemark>
      <name>Atlantic Cod Range – High (0.66–1.00) (2)</name>
      <Style>
        <PolygonStyle>
          <color>800000ff</color>
          <outline>0</outline>
        </PolygonStyle>
      </Style>
      <Polygon>
        <outerBoundaryIs>
          <LinearRing>
            <coordinates>-44.25,59.25,0 -48.25,60.25,0 -40.75,63.25,0 -40.25,63.75,0 -37.75,64.75,0 -35.25,65.25,0 -34.75,65.25,0 -32.25,65.75,0 -31.75,65.75,0 -29.25,66.25,0 -28.75,66.25,0 -28.75,65.75,0 -29.25,65.75,0 -29.75,65.75,0 -30.25,65.75,0 -32.75,65.25,0 -35.25,64.25,0 -36.25,63.75,0 -41.75,60.25,0 -42.25,59.75,0 -43.25,59.25,0 -43.75,59.25,0 -44.25,59.25,0</coordinates>
          </LinearRing>
        </outerBoundaryIs>
      </Polygon>
    </Placemark>
    <Placemark>
      <name>Atlantic Cod Range – High (0.66–1.00) (3)</name>
      <Style>
        <PolygonStyle>
          <color>800000ff</color>
          <outline>0</outline>
        </PolygonStyle>
      </Style>
      <Polygon>
        <outerBoundaryIs>
          <LinearRing>
            <coordinates>-14.25,58.25,0 -12.75,60.25,0 -11.25,60.75,0 -8.75,62.25,0 -8.25,62.75,0 -7.75,62.75,0 -7.25,62.75,0 -6.75,62.75,0 -6.25,62.75,0 -5.75,62.75,0 -5.25,62.75,0 -4.25,62.25,0 -3.25,60.25,0 -2.75,58.75,0 -3.25,54.25,0 -1.75,49.25,0 -3.25,47.25,0 -5.75,47.75,0 -6.25,47.75,0 -6.75,47.75,0 -7.25,47.75,0 -9.25,48.25,0 -10.75,48.75,0 -11.25,49.25,0 -14.25,51.75,0 -16.75,55.75,0 -16.25,56.25,0 -14.75,57.75,0 -14.25,58.25,0</coordinates>
          </LinearRing>
        </outerBoundaryIs>
      </Polygon>
    </Placemark>
    <Placemark>
      <name>Atlantic Cod Range – High (0.66–1.00) (4)</name>
      <Style>
        <PolygonStyle>
          <color>800000ff</color>
          <outline>0</outline>
        </PolygonStyle>
      </Style>
      <Polygon>
        <outerBoundaryIs>
          <LinearRing>
            <coordinates>15.75,68.25,0 16.25,68.75,0 16.75,69.25,0 16.25,69.75,0 15.75,69.75,0 13.75,69.25,0 11.75,68.75,0 10.25,68.25,0 9.25,67.75,0 8.25,67.25,0 6.25,66.25,0 5.75,65.75,0 0.25,62.25,0 -1.25,61.75,0 -2.25,61.25,0 -3.25,60.75,0 -2.75,56.75,0 -2.25,55.75,0 -1.25,54.75,0 -0.75,54.75,0 -0.25,54.75,0 6.75,57.25,0 7.25,57.25,0 7.75,57.25,0 8.25,57.25,0 10.75,57.75,0 11.25,57.75,0 11.25,58.25,0 11.25,63.75,0 14.25,67.25,0 15.75,68.25,0</coordinates>
          </LinearRing>
        </outerBoundaryIs>
      </Polygon>
    </Placemark>
    <Placemark>
      <name>Atlantic Cod Range – High (0.66–1.00) (5)</name>
      <Style>
        <PolygonStyle>
          <color>800000ff</color>
          <outline>0</outline>
        </PolygonStyle>
      </Style>
      <Polygon>
        <outerBoundaryIs>
          <LinearRing>
            <coordinates>-54.75,55.25,0 -56.75,55.75,0 -59.75,53.75,0 -63.75,49.25,0 -64.25,48.75,0 -64.75,48.25,0 -65.25,47.25,0 -69.75,43.75,0 -70.25,43.25,0 -71.75,40.25,0 -70.25,40.25,0 -69.75,40.25,0 -69.25,40.25,0 -66.75,40.75,0 -65.75,41.25,0 -61.75,42.75,0 -60.25,43.25,0 -58.75,43.75,0 -57.25,44.25,0 -52.75,43.75,0 -51.75,43.25,0 -50.75,42.75,0 -50.25,42.75,0 -49.75,42.75,0 -49.25,43.25,0 -48.75,43.75,0 -44.25,46.75,0 -44.25,47.25,0 -44.25,47.75,0 -44.75,48.25,0 -50.25,51.75,0 -50.75,52.25,0 -52.75,53.75,0 -53.25,54.25,0 -53.75,54.75,0 -54.75,55.25,0</coordinates>
          </LinearRing>
        </outerBoundaryIs>
      </Polygon>
    </Placemark>
    <Placemark>
      <name>Atlantic Cod Range – High (0.66–1.00) (6)</name>
      <Style>
        <PolygonStyle>
          <color>800000ff</color>
          <outline>0</outline>
        </PolygonStyle>
      </Style>
      <Polygon>
        <outerBoundaryIs>
          <LinearRing>
            <coordinates>31.25,75.25,0 32.75,75.75,0 33.25,75.75,0 33.75,75.75,0 34.25,75.75,0 36.25,74.75,0 37.25,74.25,0 38.25,73.75,0 46.25,74.75,0 47.75,74.25,0 49.75,73.75,0 50.75,73.25,0 50.75,72.75,0 48.75,70.75,0 48.25,70.75,0 47.75,70.75,0 47.25,70.75,0 43.75,69.75,0 42.25,69.25,0 40.25,68.25,0 36.75,66.25,0 35.25,65.75,0 34.75,65.75,0 33.75,66.25,0 31.75,70.25,0 31.25,71.75,0 31.25,72.25,0 31.25,72.75,0 31.25,74.25,0 31.25,74.75,0 31.25,75.25,0</coordinates>
          </LinearRing>
        </outerBoundaryIs>
      </Polygon>
    </Placemark>
    <Placemark>
      <name>Atlantic Cod Range – High (0.66–1.00) (7)</name>
      <Style>
        <PolygonStyle>
          <color>800000ff</color>
          <outline>0</outline>
        </PolygonStyle>
      </Style>
      <Polygon>
        <outerBoundaryIs>
          <LinearRing>
            <coordinates>12.75,76.75,0 12.25,77.25,0 12.75,77.25,0 13.25,77.25,0 14.25,76.75,0 15.75,76.25,0 17.75,75.75,0 24.25,74.75,0 26.25,75.25,0 28.25,75.75,0 28.75,75.75,0 29.25,75.75,0 30.75,74.75,0 31.75,73.75,0 31.75,73.25,0 31.75,70.75,0 31.75,69.75,0 31.25,69.75,0 30.75,69.75,0 30.25,69.75,0 29.75,69.75,0 25.75,70.25,0 25.25,70.25,0 22.75,70.25,0 20.25,69.75,0 19.75,69.75,0 18.25,69.75,0 17.75,69.75,0 17.25,69.75,0 16.75,69.75,0 16.75,70.25,0 14.75,75.25,0 12.75,76.75,0</coordinates>
          </LinearRing>
        </outerBoundaryIs>
      </Polygon>
    </Placemark>
    <Placemark>
      <name>Atlantic Cod Range – High (0.66–1.00) (8)</name>
      <Style>
        <PolygonStyle>
          <color>800000ff</color>
          <outline>0</outline>
        </PolygonStyle>
      </Style>
      <Polygon>
        <outerBoundaryIs>
          <LinearRing>
            <coordinates>11.75,77.75,0 10.75,78.25,0 9.75,78.75,0 8.75,79.25,0 8.25,79.25,0 8.75,78.75,0 9.25,78.25,0 9.75,77.75,0 11.25,77.25,0 11.75,77.25,0 11.75,77.75,0</coordinates>
          </LinearRing>
        </outerBoundaryIs>
      </Polygon>
    </Placemark>
  </Document>
</kml>