<?xml version="1.0" encoding="UTF-8"?>
<kml xmlns="http://www.opengis.net/kml/2.2">
  <Document>
    <name>Range</name>
    <Placemark>
      <name>Range – Low (0.00–0.33) (1)</name>
      <Style>
        <PolygonStyle>
          <color>80ff0000</color>
          <outline>0</outline>
        </PolygonStyle>
      </Style>
      <Polygon>
        <outerBoundaryIs>
          <LinearRing>
            <coordinates>-8.75,37.25,0 -7.75,37.25,0 -8.75,38.25,0 -9.25,39.25,0 -8.75,40.25,0 -8.75,40.75,0 -8.75,41.25,0 -8.75,41.75,0 -8.75,42.25,0 -8.25,43.25,0 -7.25,43.75,0 -6.75,43.75,0 -6.25,43.75,0 -5.75,43.75,0 -4.75,43.25,0 -4.25,43.25,0 -3.25,43.25,0 -2.75,43.25,0 -2.25,43.25,0 -1.75,43.25,0 -1.25,43.75,0 -1.25,44.25,0 -1.25,44.75,0 -1.25,45.25,0 -1.25,45.75,0 -1.75,46.25,0 -2.25,46.75,0 -1.75,48.75,0 -0.25,49.25,0 0.25,49.25,0 1.25,49.75,0 1.75,50.25,0 1.75,50.75,0 2.25,52.25,0 2.75,53.75,0 4.75,53.25,0 2.75,54.25,0 3.75,55.75,0 4.25,55.75,0 5.25,56.25,0 5.75,56.25,0 6.75,56.75,0 7.25,56.75,0 7.75,56.75,0 9.75,55.75,0 10.75,54.75,0 10.75,54.25,0 11.25,54.25,0 12.25,55.25,0 14.25,54.25,0 14.75,54.25,0 14.25,55.75,0 12.75,56.75,0 12.25,57.25,0 11.25,59.25,0 10.75,59.25,0 10.25,59.25,0 8.75,58.75,0 7.75,58.25,0 5.75,58.75,0 5.25,59.75,0 4.25,57.75,0 3.25,58.25,0 2.75,59.75,0 2.75,60.25,0 2.25,60.75,0 1.75,60.75,0 -0.25,60.25,0 -0.75,60.75,0 -1.25,60.75,0 -2.25,60.25,0 -2.75,59.75,0 -3.25,59.25,0 -4.25,58.75,0 -5.25,59.25,0 -5.75,59.25,0 -6.25,58.75,0 -7.25,58.25,0 -7.75,57.25,0 -8.75,55.25,0 -10.25,55.75,0 -10.75,56.75,0 -10.75,55.25,0 -10.25,54.25,0 -10.75,53.25,0 -11.25,52.75,0 -12.75,51.25,0 -13.25,50.75,0 -13.25,49.75,0 -13.25,49.25,0 -12.75,48.75,0 -12.25,50.25,0 -10.25,49.75,0 -10.75,48.25,0 -8.75,47.75,0 -7.25,47.25,0 -5.25,46.25,0 -6.25,44.25,0 -6.75,44.25,0 -7.25,44.25,0 -7.75,44.25,0 -8.25,44.25,0 -8.75,44.25,0 -9.25,44.25,0 -9.75,43.75,0 -11.75,43.25,0 -12.25,43.25,0 -12.25,42.75,0 -11.75,42.25,0 -11.25,42.25,0 -10.75,42.25,0 -9.75,41.25,0 -9.75,40.75,0 -9.75,40.25,0 -10.25,39.25,0 -9.75,38.75,0 -9.25,37.75,0 -9.25,37.25,0 -8.75,37.25,0</coordinates>
          </LinearRing>
        </outerBoundaryIs>
      </Polygon>
    </Placemark>
    <Placemark>
      <name>Range – Low (0.00–0.33) (2)</name>
      <Style>
        <PolygonStyle>
          <color>80ff0000</color>
          <outline>0</outline>
        </PolygonStyle>
      </Style>
      <Polygon>
        <outerBoundaryIs>
          <LinearRing>
            <coordinates>30.75,77.75,0 31.25,78.25,0 31.75,78.25,0 32.25,78.25,0 33.25,78.75,0 33.75,78.75,0 34.25,78.75,0 34.75,78.75,0 35.25,78.75,0 35.75,78.75,0 36.25,78.75,0 36.75,78.75,0 37.25,78.75,0 37.75,78.75,0 38.25,78.75,0 38.75,78.75,0 39.25,78.75,0 39.75,78.75,0 40.25,78.75,0 40.75,78.75,0 41.25,78.75,0 41.75,78.75,0 42.25,78.75,0 42.75,78.75,0 43.25,78.75,0 43.75,78.75,0 44.25,78.75,0 44.75,78.75,0 45.25,78.75,0 45.75,78.75,0 46.25,78.75,0 46.75,78.75,0 47.25,78.75,0 47.75,78.75,0 48.25,78.75,0 48.75,78.75,0 49.25,78.75,0 49.75,78.75,0 50.25,78.75,0 50.75,78.75,0 51.25,78.75,0 51.75,78.75,0 52.25,78.75,0 52.75,78.75,0 53.25,78.75,0 53.75,78.75,0 54.25,78.75,0 54.75,78.75,0 54.75,78.25,0 54.75,77.75,0 54.75,76.25,0 54.75,75.75,0 54.75,74.25,0 54.25,73.75,0 53.75,73.25,0 52.75,71.25,0 53.75,70.75,0 54.25,70.75,0 54.75,70.75,0 54.75,70.25,0 54.75,69.75,0 54.25,69.75,0 53.75,69.75,0 53.25,69.75,0 52.75,69.75,0 51.75,69.25,0 51.25,69.25,0 50.75,69.25,0 49.75,69.75,0 49.25,69.75,0 48.25,68.75,0 47.75,68.75,0 46.75,68.25,0 46.25,68.25,0 45.25,68.75,0 44.75,68.75,0 44.25,68.75,0 43.75,68.75,0 43.25,68.75,0 42.25,67.75,0 42.25,67.25,0 41.75,66.75,0 41.25,66.25,0 40.75,66.25,0 39.75,65.25,0 39.25,64.75,0 38.25,63.75,0 37.75,63.75,0 37.25,63.75,0 36.75,63.75,0 35.75,65.25,0 35.25,65.25,0 34.75,66.75,0 36.75,66.25,0 37.25,66.25,0 38.25,68.25,0 38.75,68.25,0 39.25,68.25,0 39.75,68.25,0 40.75,68.75,0 41.75,70.75,0 42.25,70.75,0 42.75,70.75,0 43.25,70.75,0 43.75,70.75,0 44.75,70.25,0 45.25,70.25,0 45.75,70.25,0 46.25,70.25,0 46.75,70.25,0 47.75,71.75,0 49.75,72.25,0 51.25,72.25,0 51.75,72.75,0 52.25,73.25,0 52.25,75.25,0 52.25,75.75,0 51.25,76.75,0 50.75,76.75,0 50.25,76.75,0 49.75,76.75,0 49.25,76.75,0 48.75,76.75,0 48.25,76.75,0 46.75,76.75,0 45.75,77.25,0 45.25,77.25,0 44.25,76.75,0 43.75,76.75,0 43.25,76.75,0 42.75,76.75,0 42.25,76.75,0 41.75,76.75,0 41.25,76.75,0 40.75,76.75,0 40.25,76.75,0 39.75,76.75,0 39.25,76.75,0 38.75,76.75,0 38.25,76.75,0 37.75,76.75,0 37.25,76.75,0 36.75,76.75,0 36.25,76.75,0 35.75,76.75,0 35.25,76.75,0 34.75,76.75,0 34.25,76.75,0 33.75,76.75,0 33.25,76.75,0 32.75,76.75,0 31.75,77.25,0 31.25,77.25,0 30.75,77.75,0</coordinates>
          </LinearRing>
        </outerBoundaryIs>
      </Polygon>
    </Placemark>
    <Placemark>
      <name>Range – Low (0.00–0.33) (3)</name>
      <Style>
        <PolygonStyle>
          <color>80ff0000</color>
          <outline>0</outline>
        </PolygonStyle>
      </Style>
      <Polygon>
        <outerBoundaryIs>
          <LinearRing>
            <coordinates>14.25,77.25,0 14.75,78.75,0 15.25,78.75,0 16.25,78.75,0 16.75,78.25,0 18.75,78.25,0 19.25,78.25,0 19.75,78.25,0 20.25,78.25,0 20.75,78.25,0 21.25,77.25,0 22.75,77.25,0 23.75,78.75,0 24.25,78.75,0 24.75,78.75,0 25.25,78.75,0 26.25,78.25,0 26.75,78.25,0 27.25,78.25,0 27.75,78.25,0 28.25,78.25,0 28.75,78.25,0 29.25,78.25,0 29.75,78.25,0 30.25,78.25,0 30.75,78.25,0 30.75,77.25,0 30.25,77.25,0 29.75,77.25,0 29.25,77.25,0 28.25,76.75,0 27.75,76.75,0 26.75,76.25,0 25.75,75.75,0 25.25,75.75,0 24.25,75.25,0 23.75,75.25,0 22.75,74.75,0 21.25,74.75,0 20.75,74.75,0 20.25,74.75,0 19.75,74.75,0 18.75,74.25,0 18.75,75.25,0 17.75,76.75,0 17.25,76.75,0 16.75,76.75,0 15.75,76.75,0 14.75,77.25,0 14.25,77.25,0</coordinates>
          </LinearRing>
        </outerBoundaryIs>
      </Polygon>
    </Placemark>
    <Placemark>
      <name>Range – Low (0.00–0.33) (4)</name>
      <Style>
        <PolygonStyle>
          <color>80ff0000</color>
          <outline>0</outline>
        </PolygonStyle>
      </Style>
      <Polygon>
        <outerBoundaryIs>
          <LinearRing>
            <coordinates>-0.25,68.75,0 -1.25,69.25,0 -2.25,71.25,0 -1.25,71.75,0 -0.75,71.75,0 -0.25,71.75,0 0.25,71.75,0 1.25,71.25,0 1.75,71.25,0 2.75,71.75,0 3.75,72.25,0 4.75,72.75,0 5.25,72.75,0 5.75,72.75,0 6.25,72.75,0 7.25,73.25,0 8.25,73.75,0 8.75,75.75,0 10.25,76.75,0 9.25,77.25,0 8.25,77.75,0 6.75,78.25,0 5.75,78.75,0 5.25,78.75,0 5.25,78.25,0 4.25,77.25,0 4.25,75.75,0 6.25,74.75,0 6.25,74.25,0 5.25,73.25,0 4.75,73.25,0 4.25,73.25,0 3.75,73.25,0 2.75,72.25,0 2.25,72.25,0 0.75,72.75,0 -1.25,72.25,0 -1.75,72.25,0 -2.25,72.25,0 -2.75,72.25,0 -3.25,72.25,0 -4.25,70.25,0 -4.75,70.25,0 -3.75,69.25,0 -1.75,69.25,0 -1.25,68.75,0 -0.25,68.75,0</coordinates>
          </LinearRing>
        </outerBoundaryIs>
      </Polygon>
    </Placemark>
    <Placemark>
      <name>Range – Low (0.00–0.33) (5)</name>
      <Style>
        <PolygonStyle>
          <color>80ff0000</color>
          <outline>0</outline>
        </PolygonStyle>
      </Style>
      <Polygon>
        <outerBoundaryIs>
          <LinearRing>
            <coordinates>-22.75,43.75,0 -21.75,44.25,0 -22.25,43.75,0 -23.25,43.25,0 -24.75,43.25,0 -25.75,43.25,0 -27.75,43.75,0 -28.25,42.25,0 -28.25,41.75,0 -27.25,40.75,0 -26.75,40.75,0 -26.75,40.25,0 -26.75,39.75,0 -25.75,38.75,0 -25.75,38.25,0 -26.25,38.25,0 -26.75,38.25,0 -27.75,38.75,0 -28.25,38.75,0 -28.75,38.75,0 -29.75,39.25,0 -30.75,39.75,0 -31.25,39.75,0 -31.25,41.25,0 -31.25,41.75,0 -30.75,41.75,0 -29.75,42.75,0 -29.75,43.25,0 -29.25,43.75,0 -28.75,44.75,0 -28.75,45.25,0 -28.75,45.75,0 -28.25,47.75,0 -28.75,48.75,0 -28.75,49.25,0 -29.75,50.25,0 -29.75,51.25,0 -30.25,52.25,0 -29.75,52.25,0 -29.25,51.75,0 -29.25,51.25,0 -28.25,50.25,0 -27.25,50.25,0 -26.75,50.25,0 -27.25,48.75,0 -26.75,47.75,0 -26.75,46.75,0 -26.75,46.25,0 -25.25,44.75,0 -24.25,44.75,0 -22.75,43.75,0</coordinates>
          </LinearRing>
        </outerBoundaryIs>
      </Polygon>
    </Placemark>
    <Placemark>
      <name>Range – Low (0.00–0.33) (6)</name>
      <Style>
        <PolygonStyle>
          <color>80ff0000</color>
          <outline>0</outline>
        </PolygonStyle>
      </Style>
      <Polygon>
        <outerBoundaryIs>
          <LinearRing>
            <coordinates>-76.25,36.25,0 -75.25,36.25,0 -74.75,36.75,0 -74.25,37.25,0 -73.75,37.75,0 -73.25,38.25,0 -72.25,38.75,0 -71.75,39.25,0 -70.75,39.75,0 -70.25,39.75,0 -69.75,39.75,0 -69.25,39.75,0 -68.75,39.75,0 -67.25,39.75,0 -66.75,40.25,0 -66.75,41.75,0 -65.25,43.25,0 -64.75,43.25,0 -64.25,43.25,0 -63.25,42.25,0 -62.75,42.25,0 -62.25,42.25,0 -61.25,43.75,0 -60.75,43.75,0 -60.75,45.75,0 -59.75,46.25,0 -60.75,46.75,0 -61.25,47.75,0 -61.75,47.75,0 -62.25,47.75,0 -63.25,49.75,0 -62.25,50.25,0 -62.75,50.25,0 -63.25,50.25,0 -63.75,50.25,0 -64.25,50.25,0 -64.75,50.25,0 -65.25,50.25,0 -65.75,50.25,0 -66.25,50.25,0 -66.75,50.25,0 -67.25,49.75,0 -68.25,49.25,0 -68.75,49.25,0 -69.25,48.75,0 -69.75,48.25,0 -70.25,47.75,0 -70.75,47.25,0 -70.75,46.75,0 -70.25,47.25,0 -68.75,48.25,0 -67.75,48.75,0 -67.25,48.75,0 -66.25,47.75,0 -65.25,47.25,0 -65.25,45.75,0 -66.25,45.25,0 -66.75,45.25,0 -67.25,45.25,0 -68.25,44.25,0 -66.25,43.25,0 -67.25,41.75,0 -68.25,41.25,0 -70.25,42.25,0 -69.75,43.75,0 -70.25,43.75,0 -70.75,43.25,0 -70.75,42.75,0 -70.75,42.25,0 -71.75,41.25,0 -72.25,41.25,0 -72.75,41.25,0 -73.25,41.25,0 -73.75,41.25,0 -73.75,40.75,0 -73.75,40.25,0 -74.25,39.25,0 -74.25,38.75,0 -75.75,37.75,0 -76.75,37.25,0 -76.75,36.25,0 -76.25,36.25,0</coordinates>
          </LinearRing>
        </outerBoundaryIs>
      </Polygon>
    </Placemark>
    <Placemark>
      <name>Range – Low (0.00–0.33) (7)</name>
      <Style>
        <PolygonStyle>
          <color>80ff0000</color>
          <outline>0</outline>
        </PolygonStyle>
      </Style>
      <Polygon>
        <outerBoundaryIs>
          <LinearRing>
            <coordinates>-14.75,62.75,0 -14.25,64.75,0 -13.75,65.25,0 -14.75,65.75,0 -15.25,64.25,0 -16.25,62.75,0 -17.75,63.75,0 -18.25,65.75,0 -18.25,63.75,0 -20.25,63.75,0 -19.75,65.75,0 -20.25,65.75,0 -21.25,63.75,0 -22.25,61.75,0 -22.75,61.75,0 -23.75,61.25,0 -24.25,61.25,0 -25.25,60.75,0 -25.75,60.75,0 -26.75,60.25,0 -27.75,59.75,0 -28.25,59.25,0 -28.75,58.75,0 -29.75,58.25,0 -30.75,57.75,0 -31.75,57.25,0 -32.75,59.25,0 -32.25,59.75,0 -31.75,60.25,0 -31.25,60.75,0 -30.75,61.25,0 -30.25,62.25,0 -29.75,63.25,0 -29.75,63.75,0 -30.75,64.75,0 -31.75,66.75,0 -30.75,67.25,0 -30.25,67.25,0 -29.75,67.25,0 -29.25,67.25,0 -28.75,67.25,0 -28.25,67.25,0 -27.75,67.25,0 -27.25,67.25,0 -26.75,67.25,0 -25.75,67.75,0 -24.75,65.75,0 -24.25,65.75,0 -23.25,65.25,0 -22.75,64.25,0 -22.25,64.25,0 -21.75,66.25,0 -22.25,66.25,0 -23.25,68.25,0 -22.25,68.75,0 -21.75,68.75,0 -21.25,68.75,0 -20.25,69.25,0 -19.25,69.75,0 -18.75,69.75,0 -18.25,69.75,0 -17.25,70.25,0 -15.75,69.25,0 -15.25,68.75,0 -14.75,68.75,0 -14.25,68.75,0 -13.25,68.25,0 -12.75,67.75,0 -12.25,67.75,0 -11.75,67.75,0 -10.75,67.75,0 -9.75,69.25,0 -9.75,69.75,0 -9.75,71.75,0 -9.75,72.75,0 -11.25,72.75,0 -11.75,74.75,0 -10.75,75.25,0 -10.25,75.25,0 -9.75,75.75,0 -10.25,75.75,0 -11.25,75.25,0 -11.75,75.25,0 -12.25,75.25,0 -13.25,74.75,0 -14.25,74.25,0 -14.75,74.25,0 -15.75,73.75,0 -16.75,73.25,0 -17.75,72.75,0 -18.25,72.75,0 -19.25,72.25,0 -20.25,74.25,0 -22.25,74.25,0 -24.25,73.75,0 -24.75,73.75,0 -25.25,73.75,0 -26.25,73.25,0 -27.25,73.75,0 -27.75,73.25,0 -28.75,72.25,0 -28.75,71.75,0 -28.75,70.75,0 -28.25,70.25,0 -29.25,68.25,0 -29.75,68.25,0 -30.25,68.25,0 -30.75,68.25,0 -31.25,68.25,0 -31.75,68.25,0 -32.75,67.75,0 -33.75,67.25,0 -34.25,66.75,0 -35.25,66.25,0 -34.75,66.25,0 -33.75,64.25,0 -33.25,64.25,0 -32.25,64.75,0 -30.75,64.75,0 -30.25,64.75,0 -29.75,64.75,0 -29.25,63.75,0 -29.25,62.75,0 -29.25,62.25,0 -29.75,61.75,0 -30.25,61.25,0 -30.75,60.75,0 -31.25,60.25,0 -32.25,59.75,0 -33.25,59.25,0 -34.25,58.25,0 -33.25,58.75,0 -32.25,56.75,0 -33.25,56.25,0 -34.25,58.25,0 -35.25,57.75,0 -35.75,57.25,0 -37.25,56.25,0 -36.75,55.25,0 -36.75,54.75,0 -36.25,54.25,0 -35.25,52.75,0 -34.25,52.75,0 -34.25,53.25,0 -34.25,53.75,0 -34.25,54.25,0 -36.25,54.25,0 -35.75,56.25,0 -33.75,55.25,0 -33.25,55.75,0 -32.25,56.25,0 -31.25,56.25,0 -31.25,56.75,0 -30.25,57.75,0 -29.25,58.25,0 -28.25,58.75,0 -26.75,57.75,0 -25.25,59.25,0 -23.75,60.25,0 -23.25,60.25,0 -22.25,60.75,0 -21.25,61.25,0 -20.25,61.75,0 -19.75,61.75,0 -18.75,61.75,0 -17.75,59.75,0 -17.75,61.75,0 -17.25,62.25,0 -16.25,62.75,0 -15.25,62.25,0 -15.25,60.75,0 -15.25,60.25,0 -14.75,60.25,0 -14.25,60.75,0 -13.75,61.25,0 -14.25,61.75,0 -14.75,62.75,0</coordinates>
          </LinearRing>
        </outerBoundaryIs>
      </Polygon>
    </Placemark>
    <Placemark>
      <name>Range – Low (0.00–0.33) (8)</name>
      <Style>
        <PolygonStyle>
          <color>80ff0000</color>
          <outline>0</outline>
        </PolygonStyle>
      </Style>
      <Polygon>
        <outerBoundaryIs>
          <LinearRing>
            <coordinates>-61.25,56.25,0 -61.75,56.75,0 -61.75,57.25,0 -62.75,58.25,0 -63.25,58.75,0 -63.75,59.25,0 -64.25,59.75,0 -64.25,60.25,0 -65.25,61.25,0 -65.75,61.75,0 -66.25,62.25,0 -67.25,62.75,0 -68.25,63.25,0 -68.75,63.75,0 -68.25,63.75,0 -67.25,65.75,0 -67.25,66.25,0 -66.75,68.25,0 -64.75,67.75,0 -64.25,67.75,0 -62.75,68.25,0 -62.25,68.25,0 -61.25,70.25,0 -61.75,70.75,0 -61.75,72.25,0 -62.25,72.75,0 -63.25,73.25,0 -63.75,73.75,0 -64.75,74.25,0 -65.75,74.75,0 -66.25,74.75,0 -66.75,74.75,0 -67.25,74.75,0 -67.75,74.75,0 -68.25,74.75,0 -68.75,74.75,0 -69.25,74.75,0 -69.75,74.75,0 -70.25,74.75,0 -71.25,74.25,0 -71.75,74.25,0 -72.25,74.25,0 -72.75,74.25,0 -73.25,74.25,0 -73.75,74.25,0 -74.25,74.25,0 -74.75,74.25,0 -75.75,72.75,0 -76.25,72.75,0 -76.75,72.75,0 -76.75,73.25,0 -76.75,74.75,0 -76.75,75.25,0 -76.75,75.75,0 -76.25,76.25,0 -75.75,76.75,0 -75.25,77.25,0 -74.25,77.75,0 -73.75,77.75,0 -73.25,77.75,0 -72.75,77.75,0 -72.25,77.75,0 -71.75,77.75,0 -71.25,77.75,0 -69.75,77.75,0 -69.25,77.75,0 -68.75,77.75,0 -68.25,77.75,0 -67.25,77.25,0 -66.75,77.25,0 -65.75,76.25,0 -64.75,76.25,0 -64.25,76.25,0 -63.75,76.25,0 -63.25,76.25,0 -62.75,76.25,0 -62.25,76.25,0 -61.75,76.25,0 -60.75,76.25,0 -60.25,76.25,0 -59.25,75.75,0 -58.75,75.75,0 -58.25,75.25,0 -57.75,74.75,0 -57.25,74.25,0 -56.75,73.75,0 -56.25,73.25,0 -55.75,72.75,0 -55.25,72.25,0 -54.25,71.75,0 -53.75,71.75,0 -53.25,71.75,0 -52.75,71.75,0 -52.25,71.75,0 -51.75,71.75,0 -51.25,71.75,0 -50.75,70.75,0 -50.25,70.25,0 -50.25,69.75,0 -50.75,68.25,0 -50.75,69.75,0 -51.75,70.75,0 -52.25,70.75,0 -52.75,70.75,0 -54.25,69.75,0 -53.25,68.25,0 -52.25,66.75,0 -50.75,68.25,0 -51.75,66.25,0 -50.75,64.75,0 -50.25,64.75,0 -50.25,64.25,0 -50.75,63.25,0 -50.25,62.25,0 -49.75,61.75,0 -48.75,61.75,0 -48.75,62.25,0 -50.25,62.25,0 -50.75,62.75,0 -52.75,62.75,0 -51.75,63.75,0 -52.75,65.75,0 -54.25,65.75,0 -54.75,65.75,0 -55.75,66.75,0 -57.25,66.75,0 -57.75,66.25,0 -58.25,65.75,0 -58.75,65.25,0 -59.25,64.75,0 -59.75,64.25,0 -60.25,63.75,0 -61.25,63.25,0 -61.75,62.75,0 -62.25,62.25,0 -62.25,60.75,0 -61.75,60.25,0 -59.75,61.25,0 -59.25,61.75,0 -59.75,60.75,0 -59.25,59.75,0 -58.75,58.75,0 -58.75,58.25,0 -60.75,58.25,0 -61.25,57.25,0 -60.75,56.25,0 -60.25,55.75,0 -61.25,56.25,0</coordinates>
          </LinearRing>
        </outerBoundaryIs>
      </Polygon>
    </Placemark>
    <Placemark>
      <name>Range – Mid (0.34–0.65) (1)</name>
      <Style>
        <PolygonStyle>
          <color>8000ffff</color>
          <outline>0</outline>
        </PolygonStyle>
      </Style>
      <Polygon>
        <outerBoundaryIs>
          <LinearRing>
            <coordinates>6.75,68.25,0 7.25,68.25,0 8.25,67.75,0 7.25,67.75,0 5.75,67.25,0 5.25,67.25,0 4.75,67.25,0 3.75,66.25,0 4.25,64.25,0 5.75,62.75,0 6.25,62.75,0 7.25,62.75,0 6.75,62.25,0 5.25,61.25,0 5.75,62.75,0 3.75,63.75,0 3.25,63.75,0 2.75,63.75,0 2.25,63.75,0 1.75,63.75,0 2.75,65.75,0 2.25,66.25,0 1.75,66.75,0 1.75,67.25,0 2.25,67.75,0 2.75,68.25,0 3.25,68.25,0 3.75,68.25,0 4.25,68.25,0 4.75,68.25,0 5.25,68.25,0 5.75,68.25,0 6.25,68.25,0 6.75,68.25,0</coordinates>
          </LinearRing>
        </outerBoundaryIs>
      </Polygon>
    </Placemark>
    <Placemark>
      <name>Range – Mid (0.34–0.65) (2)</name>
      <Style>
        <PolygonStyle>
          <color>8000ffff</color>
          <outline>0</outline>
        </PolygonStyle>
      </Style>
      <Polygon>
        <outerBoundaryIs>
          <LinearRing>
            <coordinates>54.25,74.25,0 54.75,74.75,0 54.75,75.25,0 54.75,76.75,0 54.75,77.25,0 54.25,77.25,0 53.75,77.25,0 53.25,77.25,0 52.25,76.75,0 51.75,76.75,0 50.75,76.25,0 50.25,76.25,0 49.75,76.25,0 49.25,76.25,0 48.75,76.25,0 47.75,76.75,0 47.25,76.75,0 46.25,76.75,0 45.75,76.75,0 45.25,76.75,0 44.75,76.75,0 43.75,76.25,0 44.25,76.25,0 44.75,76.25,0 45.25,76.25,0 45.75,76.25,0 46.25,76.25,0 46.75,76.25,0 47.75,75.75,0 48.25,75.75,0 49.25,74.25,0 48.25,72.25,0 47.25,71.75,0 46.75,71.75,0 45.75,71.75,0 45.25,71.75,0 44.75,71.75,0 44.25,70.75,0 42.25,69.75,0 41.75,69.25,0 41.25,69.25,0 40.25,68.75,0 39.75,68.75,0 39.25,68.75,0 38.75,68.75,0 38.25,68.75,0 37.75,68.75,0 36.75,69.25,0 36.25,69.25,0 35.75,69.25,0 35.25,69.25,0 34.75,69.25,0 34.75,71.25,0 35.75,70.75,0 36.25,70.75,0 36.75,70.75,0 37.25,70.75,0 38.25,70.25,0 39.25,70.25,0 39.75,70.25,0 40.75,70.75,0 41.25,70.75,0 42.25,71.25,0 44.25,70.75,0 44.75,70.75,0 45.25,70.75,0 45.75,70.75,0 46.25,70.75,0 46.75,70.75,0 47.25,70.75,0 47.75,70.75,0 48.25,70.75,0 49.25,71.75,0 50.25,72.25,0 50.75,72.25,0 51.25,72.75,0 51.75,73.25,0 52.75,73.75,0 53.75,74.25,0 54.25,74.25,0</coordinates>
          </LinearRing>
        </outerBoundaryIs>
      </Polygon>
    </Placemark>
    <Placemark>
      <name>Range – Mid (0.34–0.65) (3)</name>
      <Style>
        <PolygonStyle>
          <color>8000ffff</color>
          <outline>0</outline>
        </PolygonStyle>
      </Style>
      <Polygon>
        <outerBoundaryIs>
          <LinearRing>
            <coordinates>-56.75,68.75,0 -56.25,69.25,0 -55.75,70.75,0 -55.75,71.25,0 -55.25,71.25,0 -54.75,71.25,0 -54.25,71.25,0 -53.75,71.25,0 -53.25,70.75,0 -52.25,70.25,0 -51.75,70.25,0 -51.25,70.25,0 -50.25,69.25,0 -50.75,69.25,0 -51.25,69.25,0 -52.25,69.75,0 -52.75,69.75,0 -53.75,67.75,0 -53.25,65.75,0 -52.25,64.75,0 -51.75,64.25,0 -53.25,62.75,0 -53.75,62.75,0 -53.75,64.75,0 -54.25,65.25,0 -55.25,66.25,0 -55.75,66.25,0 -56.75,65.75,0 -57.25,65.25,0 -56.75,63.25,0 -57.75,63.25,0 -58.75,62.25,0 -59.75,61.75,0 -60.25,60.75,0 -59.75,59.75,0 -59.25,58.75,0 -58.75,57.75,0 -59.25,56.75,0 -59.75,55.75,0 -58.75,54.25,0 -57.25,54.75,0 -55.75,55.75,0 -54.75,54.25,0 -53.25,55.25,0 -52.25,54.25,0 -51.75,53.75,0 -53.75,53.75,0 -54.25,53.75,0 -55.75,52.75,0 -55.75,53.25,0 -56.75,54.25,0 -58.75,53.75,0 -59.25,53.75,0 -59.75,53.75,0 -59.75,55.75,0 -60.25,56.25,0 -61.75,56.25,0 -61.75,58.25,0 -61.25,60.25,0 -61.75,60.75,0 -62.25,61.25,0 -62.75,61.75,0 -61.75,62.25,0 -61.25,62.75,0 -60.75,63.25,0 -59.75,63.75,0 -59.25,64.25,0 -58.75,64.75,0 -58.25,65.25,0 -57.75,65.75,0 -57.25,66.25,0 -56.75,67.25,0 -56.75,68.25,0 -56.75,68.75,0</coordinates>
          </LinearRing>
        </outerBoundaryIs>
      </Polygon>
    </Placemark>
    <Placemark>
      <name>Range – Mid (0.34–0.65) (4)</name>
      <Style>
        <PolygonStyle>
          <color>8000ffff</color>
          <outline>0</outline>
        </PolygonStyle>
      </Style>
      <Polygon>
        <outerBoundaryIs>
          <LinearRing>
            <coordinates>-16.75,70.25,0 -16.25,70.75,0 -15.75,70.75,0 -15.25,70.75,0 -14.75,70.75,0 -14.25,70.75,0 -13.25,71.75,0 -13.25,72.25,0 -11.75,72.25,0 -11.25,72.25,0 -11.25,71.25,0 -11.25,70.75,0 -10.75,69.75,0 -9.25,69.75,0 -7.75,68.75,0 -7.25,69.75,0 -8.25,71.75,0 -7.25,71.75,0 -6.75,71.75,0 -6.25,71.75,0 -7.25,69.75,0 -9.25,69.75,0 -10.25,68.75,0 -10.25,68.25,0 -9.25,67.25,0 -8.75,67.25,0 -7.75,68.25,0 -7.75,67.75,0 -7.75,67.25,0 -7.75,66.75,0 -7.75,66.25,0 -8.75,66.75,0 -9.25,66.75,0 -9.75,66.75,0 -10.25,66.75,0 -10.75,66.75,0 -11.25,66.75,0 -12.25,67.25,0 -13.25,65.25,0 -12.75,64.75,0 -13.75,64.25,0 -14.25,63.25,0 -13.75,62.25,0 -12.75,61.75,0 -12.25,61.75,0 -12.25,61.25,0 -11.75,59.25,0 -10.25,58.75,0 -12.25,58.75,0 -12.75,58.75,0 -12.75,59.25,0 -14.25,60.25,0 -14.25,62.25,0 -14.25,62.75,0 -16.25,63.75,0 -16.75,62.75,0 -17.75,62.25,0 -18.25,62.25,0 -19.25,61.75,0 -20.25,62.25,0 -21.25,61.75,0 -21.75,61.75,0 -23.25,61.75,0 -23.75,61.75,0 -24.75,61.25,0 -25.25,61.25,0 -26.25,60.75,0 -27.25,60.25,0 -27.75,60.25,0 -28.75,61.25,0 -29.75,61.25,0 -29.25,61.75,0 -29.25,63.25,0 -29.25,64.25,0 -28.75,64.25,0 -28.25,63.75,0 -27.75,62.75,0 -27.75,62.25,0 -26.25,61.25,0 -25.25,61.75,0 -24.25,62.25,0 -23.25,64.25,0 -23.75,64.75,0 -24.75,65.25,0 -25.25,65.25,0 -25.75,65.25,0 -26.25,65.25,0 -27.75,66.75,0 -26.25,67.25,0 -25.75,67.25,0 -25.25,67.25,0 -24.25,67.75,0 -22.75,68.25,0 -22.25,68.25,0 -20.75,68.75,0 -21.75,66.75,0 -21.25,66.25,0 -20.75,65.75,0 -21.75,63.75,0 -19.75,63.75,0 -19.25,62.75,0 -17.25,63.75,0 -15.75,64.25,0 -16.75,66.25,0 -15.75,66.25,0 -14.75,66.75,0 -14.75,68.25,0 -15.75,68.75,0 -16.25,68.75,0 -17.25,69.25,0 -17.75,69.25,0 -18.25,69.25,0 -19.25,68.75,0 -19.75,68.75,0 -20.25,68.75,0 -20.75,68.75,0 -19.75,69.25,0 -19.25,69.25,0 -18.75,69.25,0 -17.75,69.75,0 -16.75,70.25,0</coordinates>
          </LinearRing>
        </outerBoundaryIs>
      </Polygon>
    </Placemark>
    <Placemark>
      <name>Range – Mid (0.34–0.65) (5)</name>
      <Style>
        <PolygonStyle>
          <color>8000ffff</color>
          <outline>0</outline>
        </PolygonStyle>
      </Style>
      <Polygon>
        <outerBoundaryIs>
          <LinearRing>
            <coordinates>-33.75,52.75,0 -35.75,53.25,0 -35.75,53.75,0 -36.25,54.75,0 -36.25,55.25,0 -36.25,55.75,0 -35.75,55.75,0 -34.75,56.75,0 -34.25,57.75,0 -33.75,58.25,0 -32.75,58.75,0 -32.25,59.25,0 -31.75,59.75,0 -30.75,60.25,0 -30.25,60.75,0 -28.75,59.75,0 -28.25,59.75,0 -28.75,59.25,0 -29.25,58.75,0 -30.25,58.25,0 -31.25,57.75,0 -32.25,57.25,0 -32.75,56.75,0 -33.75,56.25,0 -34.25,55.25,0 -34.25,54.75,0 -33.75,52.75,0</coordinates>
          </LinearRing>
        </outerBoundaryIs>
      </Polygon>
    </Placemark>
    <Placemark>
      <name>Range – High (0.66–1.00) (1)</name>
      <Style>
        <PolygonStyle>
          <color>800000ff</color>
          <outline>0</outline>
        </PolygonStyle>
      </Style>
      <Polygon>
        <outerBoundaryIs>
          <LinearRing>
            <coordinates>-2.25,61.75,0 -1.25,62.25,0 -0.25,62.75,0 0.75,63.25,0 1.25,63.25,0 1.75,63.25,0 2.25,63.25,0 3.25,65.25,0 3.75,65.75,0 4.25,66.75,0 4.25,67.75,0 4.75,67.75,0 5.25,67.75,0 6.25,67.75,0 6.75,67.75,0 7.75,67.25,0 8.75,67.75,0 9.75,68.25,0 10.25,68.25,0 11.25,68.75,0 11.75,68.75,0 12.25,68.75,0 13.25,69.25,0 13.75,69.25,0 14.25,69.25,0 15.25,69.75,0 15.25,71.25,0 14.75,71.75,0 13.75,72.25,0 13.75,72.75,0 13.75,73.25,0 13.25,75.25,0 13.25,75.75,0 12.25,76.75,0 11.75,76.75,0 11.25,76.75,0 10.75,77.25,0 9.75,77.75,0 9.25,77.75,0 8.75,77.75,0 6.75,77.75,0 6.75,78.75,0 7.25,78.75,0 7.75,78.75,0 8.25,78.75,0 8.75,78.75,0 9.25,78.75,0 9.75,78.75,0 10.25,78.75,0 11.25,78.25,0 11.75,78.25,0 12.25,78.25,0 12.75,78.25,0 13.25,78.25,0 13.75,78.25,0 14.25,78.25,0 15.25,78.25,0 16.25,76.25,0 16.75,76.25,0 17.25,76.25,0 17.75,76.25,0 18.25,76.25,0 18.75,76.25,0 19.25,76.25,0 18.25,74.75,0 19.25,73.75,0 19.75,73.75,0 20.75,74.25,0 21.25,74.25,0 21.25,73.75,0 21.25,73.25,0 21.25,71.25,0 21.25,70.75,0 21.25,70.25,0 20.75,70.25,0 20.25,70.25,0 19.75,70.25,0 18.25,70.25,0 17.75,69.75,0 16.75,69.25,0 15.75,68.25,0 14.75,67.75,0 14.25,67.25,0 13.75,67.25,0 12.75,66.75,0 12.25,66.25,0 11.75,65.75,0 11.25,63.75,0 10.75,63.75,0 9.75,63.25,0 7.75,63.25,0 7.25,61.25,0 6.75,60.25,0 6.25,59.25,0 6.75,58.25,0 8.25,58.25,0 9.25,58.75,0 9.75,58.75,0 10.75,59.75,0 10.75,58.25,0 10.25,58.25,0 9.25,57.75,0 8.75,57.75,0 8.25,57.75,0 7.75,57.75,0 7.25,57.75,0 6.75,57.75,0 6.25,57.75,0 5.75,57.75,0 4.75,58.25,0 4.25,58.25,0 3.75,58.75,0 3.25,59.75,0 2.75,60.75,0 1.75,61.25,0 0.75,61.75,0 0.25,61.75,0 -0.25,61.75,0 -1.25,61.25,0 -1.75,61.25,0 -2.25,61.75,0</coordinates>
          </LinearRing>
        </outerBoundaryIs>
      </Polygon>
    </Placemark>
    <Placemark>
      <name>Range – High (0.66–1.00) (2)</name>
      <Style>
        <PolygonStyle>
          <color>800000ff</color>
          <outline>0</outline>
        </PolygonStyle>
      </Style>
      <Polygon>
        <outerBoundaryIs>
          <LinearRing>
            <coordinates>36.75,74.75,0 35.75,76.25,0 35.25,76.25,0 34.75,76.25,0 34.25,76.25,0 33.75,76.25,0 33.25,76.25,0 32.75,76.25,0 32.25,76.25,0 31.75,76.25,0 31.25,76.25,0 30.75,76.25,0 30.25,76.25,0 29.75,76.25,0 29.25,76.25,0 28.25,75.75,0 27.75,75.75,0 27.25,75.75,0 26.25,75.25,0 25.25,74.75,0 24.75,74.75,0 24.25,74.75,0 23.25,74.25,0 22.75,74.25,0 22.25,74.25,0 21.75,74.25,0 21.75,73.75,0 21.25,72.75,0 20.75,72.25,0 21.25,71.75,0 21.75,70.75,0 21.75,70.25,0 22.25,70.25,0 23.75,70.75,0 24.75,71.25,0 25.25,71.25,0 26.25,70.75,0 27.25,71.25,0 27.75,71.25,0 28.25,71.25,0 29.25,70.75,0 29.75,69.75,0 30.25,69.75,0 30.75,69.75,0 31.25,69.75,0 32.75,69.75,0 33.75,69.25,0 34.75,69.75,0 35.25,69.75,0 35.25,70.25,0 36.25,71.25,0 36.75,71.25,0 37.75,70.75,0 38.75,69.25,0 39.75,70.75,0 40.25,70.75,0 41.25,71.25,0 41.75,71.25,0 42.75,71.25,0 43.25,71.25,0 43.75,71.25,0 44.25,71.25,0 44.75,71.25,0 45.25,71.25,0 45.75,71.25,0 46.25,71.75,0 47.25,72.25,0 47.75,72.25,0 48.75,72.75,0 49.25,72.75,0 49.75,72.75,0 50.75,73.25,0 51.25,73.25,0 52.25,73.75,0 52.25,74.25,0 51.75,74.25,0 50.25,75.25,0 49.75,75.25,0 49.25,75.25,0 48.75,75.25,0 48.25,75.25,0 47.25,75.75,0 46.75,75.75,0 46.25,75.75,0 45.75,75.75,0 45.25,75.75,0 44.75,75.75,0 44.25,75.75,0 43.75,75.75,0 43.25,75.75,0 42.75,75.75,0 42.25,75.75,0 41.75,75.75,0 41.25,75.75,0 40.75,75.75,0 40.25,75.75,0 39.75,75.75,0 39.25,75.75,0 37.25,74.75,0 36.75,74.75,0</coordinates>
          </LinearRing>
        </outerBoundaryIs>
      </Polygon>
    </Placemark>
    <Placemark>
      <name>Range – High (0.66–1.00) (3)</name>
      <Style>
        <PolygonStyle>
          <color>800000ff</color>
          <outline>0</outline>
        </PolygonStyle>
      </Style>
      <Polygon>
        <outerBoundaryIs>
          <LinearRing>
            <coordinates>-51.25,68.75,0 -51.75,69.25,0 -52.25,69.25,0 -52.75,69.25,0 -53.25,69.25,0 -53.75,69.25,0 -54.25,69.25,0 -54.75,68.75,0 -54.75,68.25,0 -54.75,66.75,0 -55.75,65.75,0 -56.25,65.75,0 -56.75,65.25,0 -57.25,64.75,0 -58.25,64.25,0 -58.75,63.75,0 -59.75,63.25,0 -60.25,62.75,0 -60.75,62.25,0 -60.75,61.75,0 -60.75,61.25,0 -60.75,60.75,0 -60.75,60.25,0 -60.25,59.75,0 -59.75,58.75,0 -59.75,58.25,0 -59.25,57.25,0 -59.25,56.25,0 -59.25,55.75,0 -58.75,55.25,0 -58.25,55.25,0 -57.75,55.25,0 -56.75,54.75,0 -56.25,54.25,0 -55.25,53.25,0 -55.25,52.75,0 -55.25,52.25,0 -57.25,51.25,0 -58.25,51.25,0 -58.75,50.75,0 -59.25,50.25,0 -60.25,49.75,0 -60.75,49.75,0 -61.25,49.75,0 -61.75,49.75,0 -62.75,49.25,0 -63.25,49.25,0 -63.75,48.75,0 -62.75,48.25,0 -62.25,48.25,0 -61.75,48.25,0 -60.75,47.75,0 -60.25,47.25,0 -59.75,46.75,0 -60.75,44.75,0 -62.25,44.25,0 -63.25,42.75,0 -62.75,42.75,0 -62.25,42.75,0 -61.75,42.75,0 -61.25,42.75,0 -60.25,43.25,0 -59.75,43.25,0 -58.75,43.75,0 -58.25,43.75,0 -57.25,44.25,0 -56.75,44.25,0 -55.75,44.75,0 -55.25,44.75,0 -54.75,44.75,0 -53.75,44.25,0 -52.75,43.75,0 -52.25,43.25,0 -51.25,42.75,0 -50.75,42.75,0 -50.25,42.75,0 -49.75,42.75,0 -49.25,43.25,0 -48.75,43.75,0 -48.75,44.25,0 -48.25,45.25,0 -47.25,45.75,0 -46.75,45.75,0 -46.25,45.75,0 -45.25,46.25,0 -44.75,46.25,0 -44.25,46.25,0 -43.25,46.75,0 -43.25,47.25,0 -43.75,48.25,0 -44.25,48.75,0 -44.75,48.75,0 -45.25,48.75,0 -45.75,48.75,0 -46.25,48.75,0 -47.25,48.25,0 -47.75,48.25,0 -48.25,48.25,0 -49.25,49.25,0 -49.25,49.75,0 -49.75,50.75,0 -49.75,51.25,0 -50.25,51.75,0 -50.75,52.25,0 -51.25,52.75,0 -51.75,53.25,0 -52.25,53.75,0 -52.75,54.75,0 -53.75,55.25,0 -54.25,55.25,0 -54.75,55.25,0 -55.25,55.25,0 -56.25,55.75,0 -57.25,56.25,0 -57.75,56.75,0 -58.25,57.25,0 -59.25,58.25,0 -59.75,59.25,0 -60.25,59.75,0 -60.25,61.25,0 -60.25,61.75,0 -59.25,62.75,0 -58.75,62.75,0 -58.25,62.75,0 -56.25,63.25,0 -55.75,63.25,0 -55.25,63.25,0 -54.75,63.25,0 -54.25,63.25,0 -53.75,63.25,0 -53.25,63.25,0 -52.25,62.75,0 -51.75,62.25,0 -51.25,62.25,0 -51.25,62.75,0 -51.75,63.25,0 -52.25,64.25,0 -52.75,65.25,0 -53.75,66.75,0 -53.75,68.25,0 -52.75,68.75,0 -52.25,68.75,0 -51.75,68.75,0 -51.25,68.75,0</coordinates>
          </LinearRing>
        </outerBoundaryIs>
      </Polygon>
    </Placemark>
    <Placemark>
      <name>Range – High (0.66–1.00) (4)</name>
      <Style>
        <PolygonStyle>
          <color>800000ff</color>
          <outline>0</outline>
        </PolygonStyle>
      </Style>
      <Polygon>
        <outerBoundaryIs>
          <LinearRing>
            <coordinates>-20.25,55.25,0 -20.25,56.75,0 -20.25,57.25,0 -19.75,57.75,0 -19.25,58.25,0 -18.75,58.75,0 -18.25,59.25,0 -17.75,59.25,0 -16.75,59.75,0 -15.75,59.25,0 -14.75,59.75,0 -14.75,61.75,0 -15.75,63.25,0 -16.25,63.25,0 -16.75,63.25,0 -17.75,62.75,0 -18.25,62.75,0 -18.75,62.75,0 -19.75,62.75,0 -20.25,62.75,0 -20.75,62.75,0 -21.25,62.75,0 -20.75,63.25,0 -20.25,63.25,0 -19.75,63.25,0 -19.25,63.25,0 -18.75,63.25,0 -18.25,63.25,0 -17.75,63.25,0 -16.75,63.75,0 -16.25,64.25,0 -15.25,63.75,0 -14.75,63.75,0 -13.75,65.75,0 -14.25,66.25,0 -15.25,66.75,0 -15.75,66.75,0 -16.25,66.75,0 -17.25,66.25,0 -17.75,66.25,0 -18.25,66.25,0 -18.75,66.25,0 -19.25,66.25,0 -19.75,66.25,0 -20.25,66.25,0 -20.75,66.25,0 -21.25,66.75,0 -22.75,66.75,0 -23.25,66.75,0 -23.75,66.75,0 -24.25,66.75,0 -24.75,66.75,0 -24.75,67.25,0 -23.75,67.75,0 -23.25,67.75,0 -22.75,67.75,0 -21.75,68.25,0 -21.25,68.25,0 -20.75,68.25,0 -20.25,68.25,0 -19.75,68.25,0 -18.75,68.75,0 -18.25,68.75,0 -17.75,68.75,0 -17.25,68.75,0 -16.75,68.75,0 -15.75,68.25,0 -15.25,68.25,0 -14.25,67.75,0 -13.25,67.25,0 -12.25,66.75,0 -11.75,66.75,0 -9.75,67.75,0 -9.75,68.25,0 -9.75,68.75,0 -10.75,70.25,0 -10.75,70.75,0 -10.75,71.25,0 -10.25,71.25,0 -9.25,71.75,0 -8.75,71.75,0 -7.75,71.25,0 -7.25,71.25,0 -6.75,71.25,0 -6.25,71.25,0 -5.75,71.25,0 -5.25,71.25,0 -4.25,71.75,0 -4.25,70.75,0 -4.75,70.75,0 -5.25,70.75,0 -5.75,70.75,0 -6.25,70.75,0 -7.25,70.25,0 -7.75,69.25,0 -8.25,68.25,0 -8.25,67.75,0 -8.25,66.25,0 -7.75,65.75,0 -6.75,64.75,0 -6.25,63.25,0 -5.25,62.75,0 -4.75,62.75,0 -4.25,62.75,0 -3.75,62.75,0 -3.25,62.75,0 -2.75,62.75,0 -2.25,62.75,0 -2.25,62.25,0 -2.25,61.25,0 -2.25,60.75,0 -3.25,60.25,0 -3.25,58.25,0 -4.25,57.75,0 -5.25,59.75,0 -6.25,59.25,0 -6.75,58.75,0 -7.25,57.25,0 -5.75,56.25,0 -7.25,55.75,0 -8.25,56.25,0 -9.25,55.75,0 -9.75,55.25,0 -10.25,54.75,0 -10.75,54.25,0 -11.75,53.75,0 -12.25,53.25,0 -12.75,53.25,0 -13.25,53.25,0 -13.75,53.25,0 -13.75,53.75,0 -14.75,55.75,0 -15.75,55.25,0 -16.25,55.25,0 -17.25,54.75,0 -17.75,54.75,0 -18.25,55.25,0 -20.25,55.25,0</coordinates>
          </LinearRing>
        </outerBoundaryIs>
      </Polygon>
    </Placemark>
    <Placemark>
      <name>Range – High (0.66–1.00) (5)</name>
      <Style>
        <PolygonStyle>
          <color>800000ff</color>
          <outline>0</outline>
        </PolygonStyle>
      </Style>
      <Polygon>
        <outerBoundaryIs>
          <LinearRing>
            <coordinates>-42.75,60.75,0 -43.25,62.75,0 -42.25,63.25,0 -41.25,63.75,0 -39.75,64.25,0 -38.75,64.75,0 -38.25,65.25,0 -37.75,65.25,0 -37.25,65.25,0 -36.75,65.25,0 -36.25,65.25,0 -35.75,65.25,0 -35.25,65.25,0 -34.25,65.75,0 -33.75,65.75,0 -33.25,65.75,0 -32.75,65.75,0 -32.25,65.75,0 -31.25,66.25,0 -30.25,66.75,0 -29.75,66.75,0 -29.25,66.75,0 -28.25,66.25,0 -27.25,66.75,0 -26.75,66.75,0 -26.25,66.75,0 -25.75,66.75,0 -25.25,66.75,0 -25.25,66.25,0 -24.25,64.75,0 -23.75,64.25,0 -22.75,63.75,0 -22.25,63.75,0 -21.25,63.25,0 -21.75,62.75,0 -22.75,62.25,0 -23.75,62.75,0 -24.75,62.25,0 -25.75,61.75,0 -26.75,61.25,0 -27.75,60.75,0 -28.25,60.25,0 -29.25,59.75,0 -29.75,59.25,0 -30.25,58.75,0 -30.75,58.25,0 -31.75,57.75,0 -32.75,57.25,0 -33.75,55.75,0 -35.25,54.75,0 -35.25,54.25,0 -34.75,53.25,0 -35.25,53.25,0 -35.75,54.75,0 -35.25,56.25,0 -34.75,57.25,0 -34.25,57.25,0 -33.25,57.75,0 -32.75,58.25,0 -32.25,58.75,0 -31.25,59.25,0 -30.25,59.75,0 -29.75,60.75,0 -29.25,61.25,0 -28.25,61.75,0 -27.75,63.25,0 -28.25,64.25,0 -29.25,64.75,0 -30.25,65.25,0 -30.75,65.25,0 -31.25,65.25,0 -31.75,65.25,0 -32.25,65.25,0 -33.25,64.75,0 -33.75,64.75,0 -34.75,64.25,0 -35.25,64.25,0 -36.25,63.75,0 -36.75,63.75,0 -37.75,63.25,0 -38.25,63.25,0 -38.75,63.25,0 -39.75,62.25,0 -39.75,61.75,0 -40.25,61.75,0 -41.25,60.75,0 -41.75,60.25,0 -42.25,59.75,0 -42.75,59.25,0 -43.25,59.25,0 -43.75,59.25,0 -44.25,59.25,0 -44.75,59.25,0 -45.25,59.25,0 -45.75,59.25,0 -46.75,59.75,0 -47.75,60.25,0 -48.25,60.25,0 -48.75,60.25,0 -49.75,60.75,0 -50.25,61.25,0 -50.75,61.75,0 -50.75,62.25,0 -50.25,61.75,0 -49.25,61.25,0 -48.25,60.75,0 -47.75,60.75,0 -47.25,60.75,0 -46.25,60.25,0 -45.25,59.75,0 -44.75,59.75,0 -44.25,59.75,0 -43.75,59.75,0 -42.75,60.75,0</coordinates>
          </LinearRing>
        </outerBoundaryIs>
      </Polygon>
    </Placemark>
  </Document>
</kml>