<?xml version="1.0" encoding="UTF-8"?>
<kml xmlns="http://www.opengis.net/kml/2.2">
  <Document>
    <name>Atlantic Sailfish Range</name>
    <Placemark>
      <name>Atlantic Sailfish Range – Low (0.00–0.33) (1)</name>
      <Style>
        <PolygonStyle>
          <color>80ff0000</color>
          <outline>0</outline>
        </PolygonStyle>
      </Style>
      <Polygon>
        <outerBoundaryIs>
          <LinearRing>
            <coordinates>-30.75,46.25,0 -29.75,46.25,0 -29.25,46.25,0 -28.75,46.25,0 -28.25,46.25,0 -27.75,46.25,0 -27.25,46.25,0 -26.75,46.25,0 -26.25,46.25,0 -25.75,46.25,0 -25.25,46.25,0 -24.75,46.25,0 -24.25,46.25,0 -23.75,46.25,0 -23.25,46.25,0 -22.75,46.25,0 -22.25,46.25,0 -21.75,46.25,0 -21.25,46.25,0 -20.75,46.25,0 -20.25,46.25,0 -19.25,45.75,0 -18.75,45.75,0 -18.25,45.75,0 -17.75,45.75,0 -17.25,45.75,0 -16.75,45.75,0 -15.75,45.25,0 -15.25,45.25,0 -14.75,45.25,0 -14.25,45.25,0 -13.75,45.25,0 -13.25,45.25,0 -12.75,45.25,0 -12.25,45.25,0 -11.75,45.25,0 -11.25,45.25,0 -10.75,45.25,0 -10.25,45.25,0 -9.25,43.25,0 -9.25,42.75,0 -8.75,41.75,0 -8.75,42.25,0 -8.75,42.75,0 -8.25,43.75,0 -7.25,45.75,0 -6.75,45.75,0 -5.75,46.25,0 -5.25,46.25,0 -4.75,46.25,0 -3.75,46.75,0 -3.25,46.75,0 -2.25,46.25,0 -1.25,45.25,0 -1.25,44.75,0 -0.75,45.25,0 -0.75,45.75,0 -1.25,46.25,0 -1.75,47.25,0 -1.25,48.75,0 -0.25,49.25,0 0.25,49.25,0 1.25,49.75,0 1.75,50.25,0 2.75,51.25,0 3.25,51.25,0 3.75,51.25,0 4.25,51.25,0 4.75,51.75,0 5.25,52.25,0 5.25,52.75,0 5.25,53.25,0 4.75,53.25,0 4.25,53.25,0 3.25,52.75,0 2.75,52.75,0 1.75,52.25,0 0.75,51.75,0 -0.25,50.75,0 -0.75,50.75,0 -1.25,50.75,0 -1.75,50.75,0 -2.75,51.75,0 -3.25,51.75,0 -4.25,52.75,0 -4.75,52.75,0 -5.75,52.25,0 -6.75,52.25,0 -7.25,52.25,0 -7.75,52.25,0 -8.75,53.25,0 -9.25,54.25,0 -8.75,55.25,0 -8.25,55.75,0 -8.75,55.75,0 -9.25,55.75,0 -9.75,55.75,0 -10.25,55.75,0 -10.75,55.75,0 -11.25,55.75,0 -11.75,55.75,0 -12.25,55.75,0 -12.75,55.75,0 -13.25,55.75,0 -13.75,55.75,0 -14.25,55.75,0 -14.75,55.75,0 -15.75,55.25,0 -16.25,55.25,0 -17.25,55.75,0 -17.75,55.75,0 -18.25,55.75,0 -18.75,55.75,0 -19.25,55.75,0 -19.75,55.75,0 -20.25,55.25,0 -20.75,54.75,0 -21.25,54.25,0 -22.25,53.75,0 -22.75,53.25,0 -23.25,52.75,0 -23.75,52.25,0 -24.75,51.75,0 -25.25,51.75,0 -25.75,51.75,0 -26.25,51.75,0 -26.75,51.75,0 -27.25,51.75,0 -27.75,51.75,0 -28.75,51.25,0 -29.25,51.25,0 -29.75,51.25,0 -30.75,50.75,0 -31.25,50.75,0 -31.75,50.75,0 -32.25,50.75,0 -32.75,50.75,0 -33.25,50.75,0 -34.25,50.25,0 -34.75,50.25,0 -35.25,50.25,0 -35.75,50.25,0 -36.25,50.25,0 -36.75,50.25,0 -37.25,50.25,0 -37.75,50.25,0 -38.25,50.25,0 -39.25,50.25,0 -39.75,50.25,0 -40.25,50.25,0 -40.75,50.25,0 -41.25,50.25,0 -41.75,50.25,0 -42.25,50.25,0 -42.75,50.25,0 -43.25,50.25,0 -42.75,49.75,0 -42.25,48.75,0 -42.25,48.25,0 -42.25,47.75,0 -42.75,46.75,0 -43.75,46.25,0 -43.75,45.75,0 -43.25,45.75,0 -42.25,46.25,0 -41.75,46.25,0 -41.25,46.25,0 -40.25,46.75,0 -39.25,47.25,0 -38.75,47.25,0 -37.75,46.75,0 -37.25,46.25,0 -36.75,46.25,0 -36.25,46.25,0 -35.75,46.25,0 -35.25,46.25,0 -34.75,46.25,0 -34.25,46.25,0 -33.75,46.25,0 -33.25,46.25,0 -32.75,46.25,0 -32.25,46.25,0 -31.75,46.25,0 -31.25,46.25,0 -30.75,46.25,0</coordinates>
          </LinearRing>
        </outerBoundaryIs>
      </Polygon>
    </Placemark>
    <Placemark>
      <name>Atlantic Sailfish Range – Low (0.00–0.33) (2)</name>
      <Style>
        <PolygonStyle>
          <color>80ff0000</color>
          <outline>0</outline>
        </PolygonStyle>
      </Style>
      <Polygon>
        <outerBoundaryIs>
          <LinearRing>
            <coordinates>-50.25,42.25,0 -51.25,42.75,0 -51.75,42.75,0 -52.75,43.25,0 -53.25,43.25,0 -54.25,43.75,0 -54.75,43.75,0 -55.25,43.75,0 -55.75,43.75,0 -56.75,43.25,0 -57.25,43.25,0 -57.75,43.25,0 -58.25,43.25,0 -58.75,43.25,0 -59.75,42.75,0 -60.25,42.75,0 -60.75,42.75,0 -61.25,42.75,0 -61.75,42.75,0 -62.25,42.75,0 -63.25,42.25,0 -63.75,42.25,0 -64.25,42.25,0 -65.25,41.75,0 -65.75,41.75,0 -66.25,41.25,0 -67.25,40.75,0 -66.75,40.75,0 -66.25,40.75,0 -65.25,41.25,0 -64.25,41.75,0 -63.75,41.75,0 -63.25,41.75,0 -62.75,41.75,0 -62.25,41.75,0 -61.25,42.25,0 -60.75,42.25,0 -60.25,42.25,0 -59.75,42.25,0 -58.75,42.75,0 -58.25,42.75,0 -57.75,42.75,0 -57.25,42.75,0 -56.75,42.75,0 -56.25,42.75,0 -55.75,42.75,0 -55.25,42.75,0 -54.75,42.75,0 -54.25,42.75,0 -53.75,42.75,0 -52.75,42.25,0 -52.25,42.25,0 -51.75,42.25,0 -51.25,42.25,0 -50.75,42.25,0 -50.25,42.25,0</coordinates>
          </LinearRing>
        </outerBoundaryIs>
      </Polygon>
    </Placemark>
    <Placemark>
      <name>Atlantic Sailfish Range – Low (0.00–0.33) (3)</name>
      <Style>
        <PolygonStyle>
          <color>80ff0000</color>
          <outline>0</outline>
        </PolygonStyle>
      </Style>
      <Polygon>
        <outerBoundaryIs>
          <LinearRing>
            <coordinates>-16.75,19.25,0 -17.25,19.75,0 -17.75,20.75,0 -17.75,21.25,0 -17.25,22.25,0 -16.75,22.75,0 -16.75,22.25,0 -16.75,21.75,0 -16.75,21.25,0 -16.25,19.25,0 -16.25,18.75,0 -16.25,18.25,0 -16.75,19.25,0</coordinates>
          </LinearRing>
        </outerBoundaryIs>
      </Polygon>
    </Placemark>
    <Placemark>
      <name>Atlantic Sailfish Range – Low (0.00–0.33) (4)</name>
      <Style>
        <PolygonStyle>
          <color>80ff0000</color>
          <outline>0</outline>
        </PolygonStyle>
      </Style>
      <Polygon>
        <outerBoundaryIs>
          <LinearRing>
            <coordinates>-46.25,-1.25,0 -47.75,-0.75,0 -47.75,1.25,0 -48.25,1.75,0 -48.75,2.25,0 -49.75,2.75,0 -49.25,1.75,0 -49.25,1.25,0 -49.25,0.75,0 -48.75,-0.25,0 -48.75,-0.75,0 -48.75,-1.25,0 -48.75,-1.75,0 -48.25,-1.75,0 -46.25,-1.25,0</coordinates>
          </LinearRing>
        </outerBoundaryIs>
      </Polygon>
    </Placemark>
    <Placemark>
      <name>Atlantic Sailfish Range – Low (0.00–0.33) (5)</name>
      <Style>
        <PolygonStyle>
          <color>80ff0000</color>
          <outline>0</outline>
        </PolygonStyle>
      </Style>
      <Polygon>
        <outerBoundaryIs>
          <LinearRing>
            <coordinates>-53.25,-46.25,0 -53.75,-45.75,0 -54.25,-45.25,0 -55.25,-44.75,0 -55.75,-44.25,0 -55.75,-43.75,0 -55.75,-43.25,0 -55.75,-42.75,0 -55.25,-41.75,0 -54.75,-40.75,0 -56.75,-39.75,0 -57.75,-40.25,0 -58.75,-41.25,0 -59.25,-41.75,0 -59.75,-42.25,0 -60.75,-42.75,0 -61.25,-43.25,0 -61.75,-43.75,0 -62.25,-44.25,0 -63.25,-44.75,0 -63.75,-44.75,0 -64.25,-44.75,0 -64.75,-44.75,0 -65.25,-44.75,0 -65.25,-44.25,0 -65.25,-43.75,0 -65.25,-43.25,0 -65.25,-42.75,0 -65.25,-42.25,0 -65.25,-41.75,0 -65.25,-41.25,0 -65.25,-40.75,0 -64.75,-40.75,0 -64.25,-40.75,0 -62.75,-40.75,0 -62.25,-39.75,0 -62.25,-39.25,0 -62.25,-38.75,0 -61.75,-38.75,0 -61.25,-38.75,0 -60.75,-38.75,0 -60.25,-38.75,0 -59.75,-38.75,0 -59.25,-38.75,0 -58.25,-38.25,0 -57.75,-37.75,0 -57.25,-37.25,0 -56.75,-36.75,0 -56.25,-35.75,0 -55.75,-35.25,0 -55.25,-34.75,0 -54.75,-34.75,0 -53.75,-33.75,0 -52.75,-34.25,0 -53.25,-35.25,0 -53.25,-35.75,0 -53.75,-36.25,0 -54.25,-37.25,0 -54.25,-38.75,0 -53.75,-39.75,0 -53.75,-40.25,0 -53.75,-40.75,0 -53.75,-41.25,0 -53.75,-41.75,0 -52.75,-42.75,0 -52.25,-42.75,0 -51.25,-42.25,0 -50.75,-42.25,0 -50.25,-42.25,0 -49.75,-42.25,0 -49.25,-42.25,0 -48.25,-41.75,0 -47.75,-41.25,0 -47.25,-40.75,0 -46.75,-40.75,0 -46.25,-40.75,0 -45.25,-40.25,0 -44.75,-40.25,0 -44.25,-40.25,0 -43.75,-40.25,0 -43.25,-40.25,0 -42.75,-40.25,0 -42.75,-40.75,0 -42.75,-41.25,0 -41.75,-42.25,0 -42.25,-42.75,0 -42.75,-42.75,0 -43.25,-42.75,0 -44.25,-43.25,0 -44.75,-43.25,0 -45.75,-43.75,0 -46.75,-44.25,0 -47.25,-45.25,0 -47.75,-45.75,0 -48.75,-46.25,0 -49.25,-46.25,0 -50.25,-46.75,0 -51.25,-47.25,0 -51.75,-47.25,0 -52.25,-47.25,0 -52.75,-46.75,0 -53.25,-46.25,0</coordinates>
          </LinearRing>
        </outerBoundaryIs>
      </Polygon>
    </Placemark>
    <Placemark>
      <name>Atlantic Sailfish Range – Low (0.00–0.33) (6)</name>
      <Style>
        <PolygonStyle>
          <color>80ff0000</color>
          <outline>0</outline>
        </PolygonStyle>
      </Style>
      <Polygon>
        <outerBoundaryIs>
          <LinearRing>
            <coordinates>-41.75,-42.75,0 -42.25,-41.75,0 -42.25,-41.25,0 -42.25,-40.75,0 -41.75,-40.75,0 -41.25,-40.75,0 -40.75,-40.75,0 -40.25,-40.75,0 -39.75,-40.75,0 -39.25,-40.75,0 -38.75,-40.75,0 -37.75,-40.25,0 -37.25,-40.25,0 -36.75,-40.25,0 -35.75,-39.75,0 -35.25,-39.75,0 -34.75,-39.75,0 -34.25,-39.75,0 -33.25,-40.25,0 -32.75,-40.25,0 -32.25,-40.25,0 -31.75,-40.25,0 -31.25,-40.25,0 -30.25,-39.75,0 -29.75,-39.75,0 -29.25,-39.75,0 -28.25,-39.25,0 -27.75,-39.25,0 -27.25,-39.25,0 -26.75,-39.25,0 -25.75,-38.75,0 -25.25,-38.75,0 -24.75,-38.75,0 -24.25,-38.75,0 -23.75,-38.75,0 -22.75,-38.25,0 -22.25,-38.25,0 -21.75,-38.25,0 -21.25,-38.25,0 -20.75,-38.25,0 -20.25,-38.25,0 -19.75,-38.25,0 -19.25,-38.25,0 -18.25,-37.75,0 -17.75,-37.75,0 -17.25,-37.75,0 -16.75,-37.75,0 -16.25,-37.75,0 -15.75,-37.75,0 -15.25,-37.75,0 -14.75,-37.75,0 -14.25,-37.75,0 -13.75,-37.75,0 -13.25,-37.75,0 -12.75,-37.75,0 -12.25,-37.75,0 -11.75,-37.75,0 -10.75,-37.25,0 -10.25,-37.25,0 -9.75,-37.25,0 -9.25,-37.25,0 -8.75,-37.25,0 -8.25,-37.25,0 -7.75,-37.25,0 -7.25,-37.25,0 -6.75,-37.25,0 -6.25,-37.25,0 -5.75,-37.25,0 -5.25,-37.25,0 -4.75,-37.25,0 -4.25,-37.25,0 -3.75,-37.25,0 -3.25,-37.25,0 -2.25,-37.75,0 -1.75,-37.75,0 -1.25,-37.75,0 -0.75,-37.75,0 -0.25,-37.75,0 0.25,-37.75,0 0.75,-37.75,0 1.25,-37.75,0 1.75,-37.75,0 2.25,-37.75,0 2.75,-37.75,0 3.25,-37.75,0 4.25,-37.25,0 4.75,-37.25,0 5.25,-37.25,0 6.25,-37.75,0 6.75,-37.75,0 7.25,-37.75,0 7.75,-37.75,0 8.25,-37.75,0 9.25,-38.25,0 10.25,-38.75,0 11.25,-39.25,0 12.25,-39.75,0 12.75,-40.25,0 13.75,-40.75,0 14.75,-41.25,0 15.25,-41.25,0 15.75,-41.25,0 16.75,-41.75,0 17.25,-41.75,0 17.75,-41.75,0 17.75,-42.25,0 17.75,-42.75,0 17.75,-43.25,0 17.25,-43.25,0 16.75,-43.25,0 15.75,-42.75,0 15.25,-42.75,0 14.75,-42.75,0 14.25,-42.75,0 13.75,-42.75,0 13.25,-42.75,0 12.25,-42.25,0 11.25,-41.75,0 10.25,-41.25,0 9.75,-41.25,0 9.25,-41.25,0 8.75,-41.25,0 8.25,-41.25,0 7.75,-41.25,0 6.75,-40.75,0 6.25,-40.75,0 5.75,-40.75,0 5.25,-40.75,0 4.75,-40.75,0 4.25,-40.75,0 3.75,-40.75,0 3.25,-40.75,0 2.75,-40.75,0 2.25,-40.75,0 1.75,-40.75,0 1.25,-40.75,0 0.75,-40.75,0 0.25,-40.75,0 -0.25,-40.75,0 -0.75,-40.75,0 -1.25,-40.75,0 -2.25,-41.25,0 -2.75,-41.25,0 -3.25,-41.25,0 -3.75,-41.25,0 -4.25,-41.25,0 -4.75,-41.25,0 -5.25,-41.25,0 -5.75,-41.25,0 -6.25,-41.25,0 -6.75,-41.25,0 -7.25,-41.25,0 -7.75,-41.25,0 -8.75,-41.75,0 -9.25,-41.75,0 -9.75,-41.75,0 -10.75,-42.25,0 -11.25,-42.75,0 -12.25,-43.25,0 -12.75,-43.25,0 -13.75,-42.75,0 -14.75,-42.25,0 -15.25,-42.25,0 -15.75,-42.25,0 -16.25,-42.25,0 -16.75,-42.25,0 -17.25,-42.25,0 -17.75,-42.25,0 -18.25,-42.25,0 -18.75,-42.25,0 -19.25,-42.25,0 -19.75,-42.25,0 -20.75,-42.75,0 -21.25,-43.25,0 -21.75,-43.25,0 -22.25,-43.25,0 -22.75,-43.25,0 -23.25,-43.25,0 -23.75,-43.25,0 -24.75,-42.75,0 -25.75,-43.25,0 -26.25,-43.25,0 -26.75,-43.25,0 -27.25,-43.25,0 -27.75,-43.25,0 -28.75,-42.75,0 -29.25,-42.75,0 -29.75,-42.75,0 -30.75,-43.25,0 -31.25,-43.25,0 -31.75,-43.25,0 -32.75,-42.75,0 -34.25,-42.75,0 -34.75,-42.75,0 -35.25,-42.75,0 -35.75,-42.75,0 -36.25,-42.75,0 -36.75,-42.75,0 -37.25,-42.75,0 -37.75,-42.75,0 -38.25,-42.75,0 -39.25,-42.25,0 -39.75,-42.25,0 -40.75,-42.75,0 -41.25,-42.75,0 -41.75,-42.75,0</coordinates>
          </LinearRing>
        </outerBoundaryIs>
      </Polygon>
    </Placemark>
    <Placemark>
      <name>Atlantic Sailfish Range – Mid (0.34–0.65) (1)</name>
      <Style>
        <PolygonStyle>
          <color>8000ffff</color>
          <outline>0</outline>
        </PolygonStyle>
      </Style>
      <Polygon>
        <outerBoundaryIs>
          <LinearRing>
            <coordinates>-16.75,14.25,0 -16.75,15.25,0 -16.75,15.75,0 -16.75,16.25,0 -16.75,16.75,0 -16.75,17.25,0 -16.75,17.75,0 -16.75,18.25,0 -17.25,19.25,0 -17.75,19.75,0 -18.25,20.25,0 -18.25,20.75,0 -18.25,21.25,0 -18.25,21.75,0 -18.25,22.25,0 -17.75,22.75,0 -17.25,23.75,0 -19.25,24.75,0 -19.75,24.75,0 -20.25,24.75,0 -20.75,24.75,0 -21.75,24.25,0 -22.75,23.75,0 -23.75,23.25,0 -24.75,22.75,0 -25.75,22.25,0 -26.75,21.75,0 -27.75,21.25,0 -28.25,21.25,0 -28.75,21.25,0 -29.25,21.25,0 -29.75,21.25,0 -30.25,21.25,0 -30.75,21.25,0 -31.75,21.75,0 -32.25,21.75,0 -32.75,21.75,0 -33.25,21.75,0 -34.25,22.25,0 -35.25,21.75,0 -35.75,21.75,0 -36.25,21.75,0 -36.75,21.75,0 -37.25,21.75,0 -37.75,21.75,0 -38.25,21.75,0 -38.75,21.75,0 -39.25,21.75,0 -39.75,21.75,0 -40.25,21.75,0 -40.75,21.75,0 -41.25,21.75,0 -41.75,21.75,0 -42.25,21.75,0 -43.25,21.25,0 -43.75,21.25,0 -44.25,21.25,0 -44.75,21.25,0 -45.25,21.25,0 -45.75,21.25,0 -46.25,21.25,0 -46.75,21.25,0 -47.25,21.25,0 -48.25,21.75,0 -48.75,21.75,0 -49.75,21.25,0 -50.25,21.25,0 -50.75,21.25,0 -51.25,21.25,0 -51.75,21.25,0 -52.25,21.25,0 -52.75,21.25,0 -53.25,21.75,0 -53.75,22.25,0 -54.25,22.75,0 -55.25,23.25,0 -56.25,23.75,0 -56.75,23.75,0 -57.75,24.25,0 -58.75,24.75,0 -59.25,24.75,0 -59.75,24.75,0 -60.75,25.25,0 -61.25,25.25,0 -61.75,25.25,0 -62.25,25.25,0 -62.75,25.25,0 -63.25,25.25,0 -63.75,25.25,0 -64.25,25.25,0 -65.25,25.75,0 -65.75,25.75,0 -66.75,25.75,0 -66.75,26.25,0 -66.25,26.75,0 -65.75,26.75,0 -65.25,26.75,0 -64.75,26.75,0 -63.75,27.25,0 -63.25,27.25,0 -62.25,27.75,0 -61.25,28.25,0 -60.75,28.25,0 -60.25,28.25,0 -59.75,28.25,0 -58.75,28.75,0 -58.25,28.75,0 -57.75,28.75,0 -57.25,28.75,0 -56.75,28.75,0 -56.25,28.75,0 -55.25,29.25,0 -54.75,29.25,0 -54.25,29.25,0 -53.75,29.25,0 -52.75,29.75,0 -52.25,29.75,0 -51.75,29.75,0 -51.25,29.75,0 -50.75,29.75,0 -50.25,29.75,0 -49.75,29.75,0 -49.25,29.75,0 -48.75,29.75,0 -48.25,29.75,0 -47.75,29.75,0 -47.25,29.75,0 -46.75,29.75,0 -46.25,29.75,0 -45.75,29.75,0 -45.25,29.75,0 -44.75,29.75,0 -44.25,29.75,0 -43.75,29.75,0 -43.25,29.75,0 -42.25,29.75,0 -41.75,29.75,0 -41.25,29.75,0 -40.75,29.75,0 -40.25,29.75,0 -39.75,29.75,0 -39.25,29.75,0 -38.75,29.75,0 -38.25,29.75,0 -37.75,29.75,0 -37.25,29.75,0 -36.75,29.75,0 -35.75,30.25,0 -35.25,30.25,0 -34.75,30.25,0 -34.25,30.25,0 -33.75,30.25,0 -33.25,30.25,0 -32.25,30.75,0 -31.75,30.75,0 -31.25,30.75,0 -30.25,31.25,0 -29.75,31.25,0 -28.75,31.75,0 -28.25,32.25,0 -27.25,32.75,0 -26.75,33.25,0 -26.25,33.75,0 -25.25,34.25,0 -24.75,34.25,0 -24.25,34.25,0 -23.25,33.75,0 -22.75,33.75,0 -21.75,34.75,0 -21.25,36.25,0 -22.25,37.25,0 -23.25,37.75,0 -23.75,37.75,0 -24.75,38.25,0 -25.25,38.25,0 -25.75,38.25,0 -26.25,38.25,0 -26.75,38.25,0 -27.25,38.25,0 -27.75,38.25,0 -28.75,38.75,0 -29.25,38.75,0 -29.75,38.75,0 -30.75,39.25,0 -31.75,39.75,0 -32.25,39.75,0 -33.25,40.25,0 -33.75,40.25,0 -34.25,40.25,0 -34.75,40.25,0 -35.75,40.75,0 -36.25,40.75,0 -36.75,40.75,0 -37.25,40.75,0 -37.75,40.75,0 -38.25,40.75,0 -38.75,40.75,0 -39.25,40.75,0 -39.75,40.75,0 -40.75,41.25,0 -41.25,41.25,0 -41.75,41.75,0 -42.75,42.25,0 -43.75,42.75,0 -44.25,42.75,0 -44.75,42.75,0 -45.25,42.75,0 -46.25,42.25,0 -46.75,41.75,0 -47.25,41.25,0 -48.25,40.75,0 -49.25,41.25,0 -49.75,41.25,0 -50.25,41.25,0 -50.75,41.25,0 -51.25,41.25,0 -51.75,41.25,0 -52.25,41.25,0 -52.75,41.25,0 -53.25,41.25,0 -53.75,41.25,0 -54.25,41.25,0 -54.75,41.25,0 -55.25,41.25,0 -55.75,41.25,0 -56.75,41.75,0 -57.25,41.75,0 -57.75,41.75,0 -58.25,41.75,0 -58.75,41.75,0 -59.75,41.25,0 -60.25,41.25,0 -60.75,41.25,0 -61.25,41.25,0 -61.75,41.25,0 -62.25,41.25,0 -63.25,40.75,0 -63.75,40.75,0 -64.25,40.75,0 -64.75,40.75,0 -65.75,40.25,0 -66.25,40.25,0 -67.25,39.75,0 -67.75,39.75,0 -68.25,39.75,0 -69.25,39.25,0 -69.75,39.25,0 -70.25,39.25,0 -70.75,39.25,0 -71.75,38.75,0 -72.75,38.25,0 -73.75,37.75,0 -74.25,37.25,0 -74.75,36.75,0 -75.25,36.25,0 -75.75,36.25,0 -76.75,35.75,0 -76.75,36.25,0 -75.75,36.75,0 -75.25,37.25,0 -74.75,37.75,0 -74.25,38.25,0 -73.75,38.75,0 -72.75,39.25,0 -71.75,39.75,0 -71.25,39.75,0 -70.75,39.75,0 -70.25,39.75,0 -69.75,39.75,0 -69.25,39.75,0 -68.75,39.75,0 -67.75,40.25,0 -67.25,40.25,0 -66.75,40.25,0 -65.75,40.75,0 -64.75,41.25,0 -64.25,41.25,0 -63.75,41.25,0 -63.25,41.25,0 -62.75,41.25,0 -61.75,41.75,0 -61.25,41.75,0 -60.75,41.75,0 -60.25,41.75,0 -59.25,42.25,0 -58.75,42.25,0 -58.25,42.25,0 -57.75,42.25,0 -57.25,42.25,0 -56.75,42.25,0 -56.25,42.25,0 -55.75,42.25,0 -55.25,42.25,0 -54.75,42.25,0 -54.25,42.25,0 -53.75,42.25,0 -53.25,42.25,0 -52.25,41.75,0 -51.75,41.75,0 -51.25,41.75,0 -50.75,41.75,0 -50.25,41.75,0 -49.75,41.75,0 -49.25,41.75,0 -48.75,41.75,0 -47.75,42.25,0 -47.25,42.75,0 -46.75,43.25,0 -46.25,43.75,0 -45.75,43.75,0 -44.75,44.25,0 -44.25,44.75,0 -43.75,45.25,0 -42.75,45.75,0 -42.25,45.75,0 -41.75,45.75,0 -40.75,46.25,0 -39.75,46.75,0 -39.25,46.75,0 -38.75,46.75,0 -38.25,46.75,0 -37.75,46.25,0 -36.75,45.75,0 -36.25,45.75,0 -35.75,45.75,0 -35.25,45.75,0 -34.75,45.75,0 -34.25,45.75,0 -33.75,45.75,0 -33.25,45.75,0 -32.75,45.75,0 -32.25,45.75,0 -31.75,45.75,0 -31.25,45.75,0 -30.25,46.25,0 -29.25,45.75,0 -28.75,45.75,0 -28.25,45.75,0 -27.75,45.75,0 -27.25,45.75,0 -26.75,45.75,0 -26.25,45.75,0 -25.75,45.75,0 -25.25,45.75,0 -24.75,45.75,0 -24.25,45.75,0 -23.75,45.75,0 -23.25,45.75,0 -22.75,45.75,0 -22.25,45.75,0 -21.75,45.75,0 -21.25,45.75,0 -20.75,45.75,0 -20.25,45.75,0 -19.75,45.75,0 -18.75,45.25,0 -18.25,45.25,0 -17.75,45.25,0 -17.25,45.25,0 -16.75,45.25,0 -16.25,45.25,0 -15.25,44.75,0 -14.75,44.75,0 -14.25,44.75,0 -13.75,44.75,0 -13.25,44.75,0 -12.75,44.75,0 -12.25,44.75,0 -11.75,44.75,0 -11.25,44.75,0 -10.75,44.75,0 -10.25,44.75,0 -9.25,45.25,0 -8.75,45.25,0 -8.25,45.25,0 -7.75,45.25,0 -7.25,45.25,0 -6.25,45.75,0 -5.75,45.75,0 -5.25,45.75,0 -4.25,46.25,0 -3.75,46.25,0 -3.25,46.25,0 -2.75,46.25,0 -1.75,45.75,0 -1.75,45.25,0 -1.25,44.25,0 -1.25,43.75,0 -1.75,43.25,0 -2.25,43.25,0 -2.75,43.25,0 -3.25,43.25,0 -4.25,43.25,0 -4.75,43.25,0 -5.75,43.75,0 -6.25,43.75,0 -6.75,43.75,0 -7.25,43.75,0 -8.25,43.25,0 -9.25,42.25,0 -9.25,41.75,0 -9.25,41.25,0 -8.75,40.25,0 -8.75,39.75,0 -8.75,38.75,0 -8.75,38.25,0 -7.75,37.25,0 -7.25,37.25,0 -6.75,37.25,0 -6.25,36.75,0 -4.75,36.75,0 -4.25,36.75,0 -3.75,36.75,0 -3.25,36.75,0 -2.75,36.75,0 -1.75,37.25,0 -1.25,37.75,0 -0.75,38.25,0 -0.25,39.25,0 -0.25,39.75,0 0.25,40.25,0 0.75,41.25,0 1.25,41.25,0 2.25,40.25,0 2.75,40.25,0 3.25,40.25,0 3.75,40.25,0 4.75,40.25,0 5.25,40.25,0 5.75,40.25,0 6.75,39.75,0 7.25,39.25,0 7.75,38.75,0 8.25,38.25,0 9.25,37.75,0 9.75,37.75,0 10.25,37.75,0 10.75,37.75,0 11.75,38.25,0 11.75,37.75,0 11.75,37.25,0 11.75,36.75,0 12.25,35.75,0 12.25,35.25,0 11.75,35.25,0 10.75,35.75,0 10.25,36.75,0 8.75,36.75,0 8.25,36.75,0 7.75,36.75,0 7.25,36.75,0 6.75,36.75,0 6.25,36.75,0 5.75,36.75,0 5.25,36.75,0 4.75,36.75,0 4.25,36.75,0 3.75,36.75,0 3.25,36.75,0 2.75,36.75,0 2.25,36.75,0 1.75,36.75,0 1.25,36.75,0 -0.25,36.75,0 -1.75,36.75,0 -2.25,36.75,0 -3.25,35.75,0 -4.75,35.25,0 -5.25,35.25,0 -6.25,35.25,0 -6.75,35.25,0 -7.75,33.75,0 -8.25,33.25,0 -8.75,32.75,0 -9.25,31.75,0 -9.75,30.75,0 -9.75,30.25,0 -9.75,29.75,0 -10.25,29.25,0 -10.75,28.75,0 -11.25,28.25,0 -11.75,28.25,0 -12.75,27.75,0 -13.25,26.75,0 -14.25,26.25,0 -14.75,25.25,0 -14.75,24.75,0 -15.25,24.25,0 -15.75,23.25,0 -16.25,22.25,0 -16.25,20.75,0 -16.25,19.75,0 -16.75,18.75,0 -16.25,17.75,0 -16.25,17.25,0 -16.25,16.75,0 -16.25,16.25,0 -16.25,15.75,0 -16.75,14.25,0</coordinates>
          </LinearRing>
        </outerBoundaryIs>
      </Polygon>
    </Placemark>
    <Placemark>
      <name>Atlantic Sailfish Range – Mid (0.34–0.65) (2)</name>
      <Style>
        <PolygonStyle>
          <color>8000ffff</color>
          <outline>0</outline>
        </PolygonStyle>
      </Style>
      <Polygon>
        <outerBoundaryIs>
          <LinearRing>
            <coordinates>-47.25,0.75,0 -47.25,1.25,0 -47.75,1.75,0 -48.25,2.25,0 -48.75,2.75,0 -49.25,3.25,0 -50.25,4.25,0 -50.75,4.75,0 -50.25,3.75,0 -49.75,3.25,0 -49.25,2.75,0 -48.25,2.25,0 -48.25,0.25,0 -48.25,-0.25,0 -47.25,-0.75,0 -47.25,0.75,0</coordinates>
          </LinearRing>
        </outerBoundaryIs>
      </Polygon>
    </Placemark>
    <Placemark>
      <name>Atlantic Sailfish Range – Mid (0.34–0.65) (3)</name>
      <Style>
        <PolygonStyle>
          <color>8000ffff</color>
          <outline>0</outline>
        </PolygonStyle>
      </Style>
      <Polygon>
        <outerBoundaryIs>
          <LinearRing>
            <coordinates>-50.75,-30.25,0 -50.25,-29.75,0 -50.25,-30.25,0 -50.25,-30.75,0 -50.75,-31.75,0 -50.75,-32.25,0 -51.25,-33.25,0 -51.75,-34.25,0 -52.25,-35.25,0 -50.25,-36.25,0 -49.75,-36.25,0 -49.25,-36.25,0 -48.75,-36.25,0 -47.75,-35.75,0 -47.25,-35.75,0 -46.25,-35.25,0 -45.75,-35.25,0 -45.25,-35.25,0 -44.75,-35.25,0 -43.75,-34.75,0 -43.25,-34.75,0 -42.75,-34.75,0 -42.25,-34.75,0 -41.75,-34.75,0 -41.25,-34.75,0 -40.25,-34.25,0 -39.75,-34.25,0 -39.25,-34.25,0 -38.75,-34.25,0 -38.25,-34.25,0 -37.75,-34.25,0 -37.25,-34.25,0 -36.75,-34.25,0 -36.25,-34.25,0 -35.75,-34.25,0 -35.25,-34.25,0 -34.75,-34.25,0 -34.25,-34.25,0 -33.75,-34.25,0 -32.75,-33.75,0 -32.25,-33.75,0 -31.75,-33.75,0 -31.25,-33.75,0 -30.75,-33.75,0 -30.25,-33.75,0 -29.75,-33.75,0 -29.25,-33.75,0 -28.75,-33.75,0 -28.25,-33.75,0 -27.75,-33.75,0 -27.25,-33.75,0 -26.75,-33.75,0 -26.25,-33.75,0 -25.75,-33.75,0 -25.25,-33.75,0 -24.75,-33.75,0 -24.25,-33.75,0 -23.75,-33.75,0 -23.25,-33.75,0 -22.75,-33.75,0 -22.25,-34.25,0 -22.25,-34.75,0 -22.25,-35.75,0 -21.75,-36.75,0 -21.25,-37.25,0 -21.25,-37.75,0 -21.75,-37.75,0 -22.25,-37.75,0 -23.25,-38.25,0 -23.75,-38.25,0 -24.25,-38.25,0 -24.75,-38.25,0 -25.25,-38.25,0 -26.25,-38.75,0 -26.75,-38.75,0 -27.25,-38.75,0 -27.75,-38.75,0 -28.75,-39.25,0 -29.25,-39.25,0 -29.75,-39.25,0 -30.75,-39.75,0 -31.25,-39.75,0 -31.75,-39.75,0 -32.25,-39.75,0 -32.75,-39.75,0 -33.25,-39.75,0 -33.75,-39.75,0 -34.75,-39.25,0 -35.25,-39.25,0 -36.25,-39.75,0 -36.75,-39.75,0 -37.25,-39.75,0 -38.25,-40.25,0 -38.75,-40.25,0 -39.25,-40.25,0 -39.75,-40.25,0 -40.25,-40.25,0 -40.75,-40.25,0 -41.25,-40.25,0 -41.75,-40.25,0 -42.25,-40.25,0 -43.25,-39.75,0 -43.75,-39.75,0 -44.25,-39.75,0 -44.75,-39.75,0 -45.75,-40.25,0 -46.25,-40.25,0 -46.75,-40.25,0 -47.75,-40.75,0 -48.25,-41.25,0 -48.75,-41.75,0 -49.25,-41.75,0 -49.75,-41.75,0 -50.25,-41.75,0 -50.75,-41.75,0 -51.75,-42.25,0 -52.25,-42.25,0 -52.75,-42.25,0 -53.25,-42.25,0 -53.25,-41.75,0 -53.25,-41.25,0 -53.25,-40.75,0 -53.25,-40.25,0 -53.75,-39.25,0 -54.25,-38.25,0 -54.25,-37.75,0 -53.75,-36.75,0 -53.25,-36.25,0 -52.75,-35.25,0 -52.75,-34.75,0 -53.25,-33.75,0 -53.25,-33.25,0 -52.75,-32.75,0 -52.25,-31.75,0 -51.75,-31.25,0 -51.25,-30.75,0 -50.75,-30.25,0</coordinates>
          </LinearRing>
        </outerBoundaryIs>
      </Polygon>
    </Placemark>
    <Placemark>
      <name>Atlantic Sailfish Range – Mid (0.34–0.65) (4)</name>
      <Style>
        <PolygonStyle>
          <color>8000ffff</color>
          <outline>0</outline>
        </PolygonStyle>
      </Style>
      <Polygon>
        <outerBoundaryIs>
          <LinearRing>
            <coordinates>-20.75,-37.75,0 -21.25,-36.75,0 -21.75,-36.25,0 -22.25,-35.25,0 -22.25,-33.75,0 -21.75,-33.75,0 -21.25,-33.75,0 -20.75,-33.75,0 -20.25,-33.75,0 -19.75,-33.75,0 -19.25,-33.75,0 -18.75,-33.75,0 -18.25,-33.75,0 -17.75,-33.75,0 -17.25,-33.75,0 -16.75,-33.75,0 -16.25,-33.75,0 -15.75,-33.75,0 -15.25,-33.75,0 -14.75,-33.75,0 -13.75,-33.25,0 -13.25,-33.25,0 -11.75,-33.25,0 -11.25,-33.25,0 -10.75,-33.25,0 -10.25,-33.25,0 -9.75,-33.25,0 -9.25,-33.25,0 -8.75,-33.25,0 -8.25,-33.25,0 -7.75,-33.25,0 -7.25,-33.25,0 -6.75,-33.25,0 -6.25,-33.25,0 -5.75,-33.25,0 -5.25,-33.25,0 -4.75,-33.25,0 -4.25,-33.25,0 -3.25,-32.75,0 -2.75,-32.75,0 -2.25,-32.75,0 -1.75,-32.75,0 -1.25,-32.75,0 -0.75,-32.75,0 0.25,-32.25,0 0.75,-32.25,0 1.25,-32.25,0 1.75,-32.25,0 2.25,-32.25,0 3.25,-31.75,0 3.75,-31.75,0 4.25,-31.75,0 5.25,-31.25,0 6.25,-30.75,0 7.25,-30.25,0 7.75,-29.75,0 8.25,-29.25,0 8.75,-28.25,0 9.25,-27.75,0 9.75,-26.75,0 9.75,-26.25,0 9.75,-25.75,0 9.75,-25.25,0 9.75,-24.75,0 10.25,-23.75,0 10.25,-23.25,0 10.25,-22.75,0 9.75,-21.75,0 8.75,-21.25,0 8.25,-20.75,0 8.25,-20.25,0 8.25,-19.75,0 8.75,-19.25,0 9.25,-18.75,0 9.75,-17.75,0 10.25,-17.25,0 10.75,-16.75,0 11.25,-16.25,0 11.75,-15.25,0 12.25,-14.25,0 12.25,-13.75,0 12.75,-12.75,0 13.75,-11.75,0 13.75,-12.25,0 13.25,-12.75,0 12.75,-13.75,0 12.25,-14.75,0 12.25,-15.25,0 12.25,-15.75,0 11.25,-16.75,0 11.25,-17.25,0 11.25,-17.75,0 11.25,-18.25,0 11.75,-19.25,0 11.75,-19.75,0 12.25,-20.75,0 12.75,-21.75,0 12.75,-22.25,0 12.75,-22.75,0 12.75,-23.25,0 12.75,-23.75,0 12.75,-24.25,0 12.75,-24.75,0 12.75,-25.25,0 12.75,-25.75,0 13.25,-26.75,0 13.75,-27.25,0 14.25,-27.75,0 14.75,-28.75,0 15.25,-29.25,0 15.75,-29.75,0 16.25,-30.25,0 16.75,-31.25,0 16.75,-31.75,0 16.75,-32.25,0 17.25,-33.25,0 17.75,-33.75,0 17.75,-34.25,0 17.75,-34.75,0 17.75,-35.25,0 17.75,-35.75,0 17.75,-36.25,0 17.75,-36.75,0 17.75,-37.25,0 17.25,-37.75,0 17.25,-39.25,0 17.75,-39.75,0 17.75,-40.25,0 17.75,-40.75,0 17.75,-41.25,0 17.25,-41.25,0 16.75,-41.25,0 16.25,-41.25,0 15.25,-40.75,0 14.75,-40.75,0 14.25,-40.75,0 13.25,-40.25,0 12.75,-39.75,0 11.75,-39.25,0 10.75,-38.75,0 9.75,-38.25,0 8.75,-37.75,0 7.75,-37.25,0 7.25,-37.25,0 6.75,-37.25,0 6.25,-37.25,0 5.75,-37.25,0 4.75,-36.75,0 3.75,-37.25,0 3.25,-37.25,0 2.75,-37.25,0 2.25,-37.25,0 1.75,-37.25,0 1.25,-37.25,0 0.75,-37.25,0 0.25,-37.25,0 -0.25,-37.25,0 -0.75,-37.25,0 -1.25,-37.25,0 -1.75,-37.25,0 -2.25,-37.25,0 -2.75,-37.25,0 -3.75,-36.75,0 -4.25,-36.75,0 -4.75,-36.75,0 -5.25,-36.75,0 -5.75,-36.75,0 -6.25,-36.75,0 -6.75,-36.75,0 -7.25,-36.75,0 -7.75,-36.75,0 -8.25,-36.75,0 -8.75,-36.75,0 -9.25,-36.75,0 -9.75,-36.75,0 -10.25,-36.75,0 -11.25,-37.25,0 -11.75,-37.25,0 -12.25,-37.25,0 -12.75,-37.25,0 -13.25,-37.25,0 -13.75,-37.25,0 -14.25,-37.25,0 -14.75,-37.25,0 -15.25,-37.25,0 -15.75,-37.25,0 -16.25,-37.25,0 -16.75,-37.25,0 -17.25,-37.25,0 -17.75,-37.25,0 -18.75,-37.75,0 -19.25,-37.75,0 -19.75,-37.75,0 -20.25,-37.75,0 -20.75,-37.75,0</coordinates>
          </LinearRing>
        </outerBoundaryIs>
      </Polygon>
    </Placemark>
    <Placemark>
      <name>Atlantic Sailfish Range – High (0.66–1.00)</name>
      <Style>
        <PolygonStyle>
          <color>800000ff</color>
          <outline>0</outline>
        </PolygonStyle>
      </Style>
      <Polygon>
        <outerBoundaryIs>
          <LinearRing>
            <coordinates>-51.75,-36.25,0 -52.25,-35.75,0 -51.75,-34.75,0 -51.25,-33.75,0 -50.75,-32.75,0 -50.25,-31.75,0 -50.25,-31.25,0 -49.75,-30.25,0 -49.75,-29.75,0 -49.75,-29.25,0 -49.25,-28.75,0 -48.75,-27.75,0 -48.75,-27.25,0 -48.75,-26.75,0 -48.75,-26.25,0 -48.75,-25.75,0 -48.25,-25.25,0 -47.75,-24.75,0 -47.25,-24.25,0 -46.25,-23.75,0 -45.25,-23.25,0 -44.75,-23.25,0 -43.75,-22.75,0 -43.25,-22.75,0 -42.75,-22.75,0 -41.75,-22.25,0 -41.25,-21.25,0 -40.75,-20.75,0 -40.25,-19.75,0 -39.75,-18.75,0 -39.75,-19.25,0 -39.75,-19.75,0 -40.25,-20.75,0 -40.75,-21.75,0 -40.75,-22.25,0 -41.25,-23.25,0 -40.25,-24.75,0 -39.75,-24.75,0 -38.75,-24.25,0 -37.75,-23.75,0 -37.25,-23.75,0 -36.25,-23.25,0 -35.75,-23.25,0 -35.25,-23.25,0 -34.25,-23.75,0 -33.75,-23.75,0 -33.25,-23.75,0 -32.75,-23.75,0 -32.25,-23.75,0 -31.75,-23.75,0 -30.75,-24.25,0 -30.25,-24.25,0 -29.75,-24.25,0 -29.25,-24.25,0 -28.75,-24.25,0 -28.25,-24.25,0 -27.75,-24.25,0 -26.75,-24.75,0 -26.25,-24.75,0 -25.75,-24.75,0 -25.25,-24.75,0 -24.75,-24.75,0 -23.75,-25.25,0 -23.25,-25.25,0 -22.75,-25.25,0 -22.25,-25.25,0 -21.75,-25.25,0 -21.25,-25.25,0 -20.25,-23.25,0 -20.75,-22.75,0 -21.75,-22.25,0 -22.25,-22.25,0 -21.25,-21.75,0 -20.25,-21.25,0 -19.75,-20.75,0 -18.75,-19.75,0 -18.75,-19.25,0 -18.75,-18.75,0 -18.75,-18.25,0 -18.25,-17.25,0 -19.25,-15.25,0 -19.75,-15.25,0 -20.75,-14.75,0 -21.25,-14.75,0 -21.75,-14.75,0 -22.25,-14.75,0 -23.25,-14.25,0 -23.75,-14.25,0 -24.25,-14.25,0 -24.75,-14.25,0 -25.25,-14.25,0 -25.75,-14.25,0 -26.25,-14.25,0 -26.75,-14.25,0 -27.25,-14.25,0 -27.75,-14.25,0 -28.25,-14.25,0 -28.75,-14.25,0 -29.25,-14.25,0 -29.75,-14.25,0 -30.25,-14.25,0 -31.25,-13.75,0 -31.75,-13.75,0 -32.25,-13.75,0 -32.75,-13.75,0 -33.25,-13.75,0 -33.75,-13.75,0 -34.75,-13.25,0 -35.25,-13.25,0 -35.75,-13.25,0 -36.25,-12.75,0 -37.25,-11.75,0 -37.75,-11.75,0 -37.25,-11.25,0 -36.75,-10.75,0 -36.25,-10.25,0 -35.75,-9.75,0 -35.25,-8.75,0 -34.75,-7.75,0 -34.75,-7.25,0 -34.75,-6.75,0 -35.25,-5.75,0 -36.25,-5.25,0 -37.25,-4.75,0 -38.25,-4.25,0 -38.75,-3.75,0 -39.75,-3.25,0 -40.75,-2.75,0 -41.25,-2.75,0 -41.75,-2.75,0 -42.25,-2.75,0 -42.75,-2.75,0 -44.25,-2.75,0 -45.25,-1.75,0 -45.75,-1.25,0 -46.75,-0.75,0 -47.75,-0.25,0 -47.75,0.25,0 -47.75,2.25,0 -48.25,2.75,0 -48.75,3.25,0 -49.75,3.75,0 -50.25,4.75,0 -50.75,5.25,0 -51.25,5.75,0 -51.75,6.25,0 -52.75,6.75,0 -53.25,6.75,0 -54.25,6.25,0 -54.75,6.25,0 -55.25,6.25,0 -55.75,6.25,0 -56.25,6.25,0 -56.75,6.25,0 -57.25,6.25,0 -57.75,6.25,0 -58.25,6.75,0 -58.75,7.75,0 -59.75,8.25,0 -60.25,8.75,0 -61.25,9.75,0 -61.75,10.75,0 -62.75,11.25,0 -63.75,10.75,0 -64.25,10.25,0 -64.75,10.25,0 -65.25,10.25,0 -65.75,10.25,0 -66.75,10.75,0 -67.25,10.75,0 -67.75,10.75,0 -68.25,10.75,0 -68.75,11.25,0 -70.25,11.25,0 -70.75,11.25,0 -71.75,11.75,0 -72.25,11.75,0 -73.25,11.25,0 -74.25,10.75,0 -75.75,9.25,0 -76.25,8.75,0 -76.75,7.75,0 -77.25,8.25,0 -77.75,8.75,0 -79.25,9.25,0 -79.75,9.25,0 -80.75,8.75,0 -81.25,8.75,0 -81.75,8.75,0 -82.25,9.25,0 -82.75,9.75,0 -83.25,10.25,0 -83.75,10.75,0 -83.75,11.25,0 -83.75,11.75,0 -83.75,12.25,0 -83.75,12.75,0 -83.75,13.25,0 -83.75,13.75,0 -84.25,15.25,0 -85.25,15.75,0 -85.75,15.75,0 -86.25,15.75,0 -86.75,15.75,0 -87.25,15.75,0 -87.75,15.75,0 -88.25,15.75,0 -88.75,15.75,0 -88.75,16.25,0 -88.25,17.75,0 -88.25,18.25,0 -88.25,18.75,0 -87.75,19.75,0 -88.75,21.75,0 -89.75,21.25,0 -90.25,20.25,0 -90.25,19.75,0 -90.75,19.25,0 -91.25,18.75,0 -91.75,18.75,0 -92.25,18.75,0 -92.75,18.75,0 -93.75,18.25,0 -94.25,18.25,0 -94.75,18.25,0 -95.75,18.75,0 -96.25,19.25,0 -96.75,20.25,0 -97.25,20.75,0 -97.25,21.25,0 -97.75,22.25,0 -97.75,22.75,0 -97.75,23.25,0 -97.75,23.75,0 -97.75,24.25,0 -97.75,24.75,0 -97.75,25.25,0 -97.25,26.25,0 -97.25,26.75,0 -97.25,27.25,0 -97.25,27.75,0 -97.25,28.25,0 -96.75,28.75,0 -95.25,29.25,0 -94.25,29.25,0 -93.75,29.25,0 -93.25,29.25,0 -92.75,29.25,0 -92.25,29.25,0 -91.75,29.25,0 -90.75,28.75,0 -90.25,28.75,0 -89.75,28.75,0 -88.25,29.75,0 -87.25,30.25,0 -86.75,30.25,0 -86.25,30.25,0 -85.75,30.25,0 -84.25,30.25,0 -83.75,30.25,0 -83.25,29.25,0 -81.25,30.25,0 -81.25,30.75,0 -81.25,31.75,0 -80.75,32.25,0 -79.75,32.75,0 -79.25,33.25,0 -78.75,33.75,0 -77.75,34.25,0 -77.25,34.75,0 -76.25,35.75,0 -75.75,35.75,0 -74.75,36.25,0 -74.25,36.75,0 -73.75,37.25,0 -73.25,37.75,0 -72.25,38.25,0 -71.25,38.75,0 -70.75,38.75,0 -70.25,38.75,0 -69.75,38.75,0 -68.75,39.25,0 -68.25,39.25,0 -67.75,39.25,0 -66.75,39.75,0 -66.25,39.75,0 -65.25,40.25,0 -64.75,40.25,0 -64.25,40.25,0 -63.75,40.25,0 -62.75,40.75,0 -62.25,40.75,0 -61.75,40.75,0 -61.25,40.75,0 -60.75,40.75,0 -60.25,40.75,0 -59.25,41.25,0 -58.75,41.25,0 -58.25,41.25,0 -57.75,41.25,0 -57.25,41.25,0 -56.75,41.25,0 -56.25,41.25,0 -55.25,40.75,0 -54.75,40.75,0 -54.25,40.75,0 -53.75,40.75,0 -53.25,40.75,0 -52.75,40.75,0 -52.25,40.75,0 -51.75,40.75,0 -51.25,40.75,0 -50.75,40.75,0 -50.25,40.75,0 -49.75,40.75,0 -49.25,40.75,0 -48.75,40.75,0 -47.75,40.75,0 -46.75,41.25,0 -46.25,41.75,0 -45.75,42.25,0 -45.25,42.25,0 -44.75,42.25,0 -44.25,42.25,0 -43.75,42.25,0 -43.25,42.25,0 -42.25,41.75,0 -41.75,41.25,0 -40.75,40.75,0 -40.25,40.75,0 -39.25,40.25,0 -38.75,40.25,0 -38.25,40.25,0 -37.75,40.25,0 -37.25,40.25,0 -36.75,40.25,0 -36.25,40.25,0 -35.75,40.25,0 -35.25,40.25,0 -34.25,39.75,0 -33.75,39.75,0 -33.25,39.75,0 -32.75,39.75,0 -31.75,39.25,0 -31.25,39.25,0 -30.25,38.75,0 -29.25,38.25,0 -28.75,38.25,0 -28.25,38.25,0 -27.25,37.75,0 -26.75,37.75,0 -26.25,37.75,0 -25.75,37.75,0 -25.25,37.75,0 -24.75,37.75,0 -24.25,37.75,0 -23.25,37.25,0 -22.75,37.25,0 -21.75,36.75,0 -21.25,35.75,0 -21.75,35.25,0 -22.25,34.25,0 -22.75,34.25,0 -23.25,34.25,0 -23.75,34.25,0 -24.75,34.75,0 -25.75,34.25,0 -26.75,33.75,0 -27.25,33.25,0 -27.75,32.75,0 -28.75,32.25,0 -29.25,31.75,0 -29.75,31.75,0 -30.75,31.25,0 -31.25,31.25,0 -31.75,31.25,0 -32.75,30.75,0 -33.25,30.75,0 -33.75,30.75,0 -34.25,30.75,0 -34.75,30.75,0 -35.25,30.75,0 -36.25,30.25,0 -36.75,30.25,0 -37.25,30.25,0 -37.75,30.25,0 -38.25,30.25,0 -38.75,30.25,0 -39.25,30.25,0 -39.75,30.25,0 -40.25,30.25,0 -40.75,30.25,0 -41.25,30.25,0 -41.75,30.25,0 -42.75,29.75,0 -43.75,30.25,0 -44.25,30.25,0 -44.75,30.25,0 -45.25,30.25,0 -45.75,30.25,0 -46.25,30.25,0 -46.75,30.25,0 -47.25,30.25,0 -47.75,30.25,0 -48.25,30.25,0 -48.75,30.25,0 -49.25,30.25,0 -49.75,30.25,0 -50.25,30.25,0 -50.75,30.25,0 -51.25,30.25,0 -51.75,30.25,0 -52.25,30.25,0 -53.25,29.75,0 -53.75,29.75,0 -54.25,29.75,0 -54.75,29.75,0 -55.75,29.25,0 -56.25,29.25,0 -56.75,29.25,0 -57.25,29.25,0 -57.75,29.25,0 -58.25,29.25,0 -59.25,28.75,0 -59.75,28.75,0 -60.25,28.75,0 -60.75,28.75,0 -61.75,28.25,0 -62.75,27.75,0 -63.25,27.75,0 -64.25,27.25,0 -64.75,25.25,0 -63.75,24.75,0 -63.25,24.75,0 -62.75,24.75,0 -62.25,24.75,0 -61.75,24.75,0 -61.25,24.75,0 -60.75,24.75,0 -60.25,24.75,0 -59.25,24.25,0 -58.75,24.25,0 -58.25,24.25,0 -57.25,23.75,0 -56.25,23.25,0 -55.75,23.25,0 -54.75,22.75,0 -54.25,22.25,0 -53.75,21.75,0 -53.25,21.25,0 -52.25,20.75,0 -51.75,20.75,0 -51.25,20.75,0 -50.75,20.75,0 -50.25,20.75,0 -49.25,21.25,0 -48.75,21.25,0 -48.25,21.25,0 -47.75,21.25,0 -46.75,20.75,0 -46.25,20.75,0 -45.75,20.75,0 -45.25,20.75,0 -44.75,20.75,0 -44.25,20.75,0 -43.75,20.75,0 -42.75,21.25,0 -42.25,21.25,0 -41.75,21.25,0 -41.25,21.25,0 -40.75,21.25,0 -40.25,21.25,0 -39.75,21.25,0 -39.25,21.25,0 -38.75,21.25,0 -38.25,21.25,0 -37.75,21.25,0 -37.25,21.25,0 -36.75,21.25,0 -36.25,21.25,0 -35.75,21.25,0 -34.75,21.75,0 -34.25,21.75,0 -33.75,21.75,0 -32.75,21.25,0 -32.25,21.25,0 -31.75,21.25,0 -31.25,21.25,0 -30.25,20.75,0 -29.75,20.75,0 -29.25,20.75,0 -28.75,20.75,0 -28.25,20.75,0 -27.25,21.25,0 -26.25,21.75,0 -25.25,22.25,0 -24.25,22.75,0 -23.25,23.25,0 -22.25,23.75,0 -21.25,24.25,0 -20.75,24.25,0 -20.25,24.25,0 -19.75,24.25,0 -18.75,24.75,0 -18.25,24.75,0 -17.25,25.25,0 -17.25,24.75,0 -17.25,24.25,0 -17.75,23.25,0 -18.25,22.75,0 -18.75,21.75,0 -18.75,21.25,0 -18.75,20.75,0 -18.25,19.75,0 -16.25,20.25,0 -17.25,18.75,0 -17.25,18.25,0 -17.25,17.75,0 -17.25,17.25,0 -17.25,16.75,0 -17.25,16.25,0 -17.25,15.75,0 -17.25,15.25,0 -17.25,14.75,0 -17.25,14.25,0 -16.75,13.25,0 -16.25,12.25,0 -15.25,11.75,0 -14.75,10.75,0 -14.25,10.25,0 -13.25,9.75,0 -13.25,9.25,0 -12.75,8.25,0 -12.25,7.25,0 -11.25,6.75,0 -10.75,6.75,0 -10.25,6.25,0 -9.75,5.75,0 -9.25,5.25,0 -8.25,4.75,0 -7.75,4.75,0 -6.75,4.25,0 -6.25,4.25,0 -5.25,4.75,0 -4.75,4.75,0 -4.25,4.75,0 -3.75,4.75,0 -3.25,4.75,0 -2.75,4.75,0 -1.75,5.25,0 -1.25,5.25,0 -0.25,5.75,0 1.25,6.25,0 1.75,6.25,0 2.25,6.25,0 2.75,6.25,0 3.25,6.25,0 4.25,5.75,0 4.75,5.25,0 5.25,4.25,0 6.25,3.75,0 7.25,3.25,0 8.25,2.75,0 8.25,2.25,0 8.25,1.75,0 8.25,1.25,0 8.25,0.75,0 8.75,-0.25,0 9.25,-1.25,0 9.75,-2.25,0 10.25,-2.75,0 10.75,-3.75,0 10.75,-5.25,0 10.75,-5.75,0 11.25,-6.75,0 12.25,-7.25,0 12.75,-7.75,0 13.25,-8.25,0 13.25,-9.75,0 13.25,-10.25,0 13.25,-10.75,0 13.25,-11.25,0 13.25,-11.75,0 13.25,-12.25,0 12.25,-13.25,0 11.75,-14.25,0 11.75,-14.75,0 11.25,-15.75,0 10.75,-16.25,0 10.25,-16.75,0 9.75,-17.25,0 9.25,-18.25,0 8.75,-18.75,0 8.25,-19.25,0 7.75,-20.25,0 8.25,-21.25,0 9.25,-21.75,0 9.75,-22.25,0 9.75,-22.75,0 9.75,-23.25,0 9.75,-23.75,0 9.75,-24.25,0 9.25,-25.25,0 9.25,-25.75,0 9.25,-26.25,0 9.25,-26.75,0 9.25,-27.25,0 8.75,-27.75,0 8.25,-28.75,0 7.75,-29.25,0 7.25,-29.75,0 6.75,-30.25,0 5.75,-30.75,0 4.75,-31.25,0 4.25,-31.25,0 3.75,-31.25,0 2.75,-31.75,0 2.25,-31.75,0 1.75,-31.75,0 1.25,-31.75,0 0.75,-31.75,0 -0.25,-32.25,0 -0.75,-32.25,0 -1.25,-32.25,0 -1.75,-32.25,0 -2.25,-32.25,0 -2.75,-32.25,0 -3.75,-32.75,0 -4.25,-32.75,0 -4.75,-32.75,0 -5.25,-32.75,0 -5.75,-32.75,0 -6.25,-32.75,0 -6.75,-32.75,0 -7.25,-32.75,0 -7.75,-32.75,0 -8.25,-32.75,0 -8.75,-32.75,0 -9.25,-32.75,0 -9.75,-32.75,0 -10.25,-32.75,0 -10.75,-32.75,0 -11.25,-32.75,0 -12.25,-33.25,0 -12.75,-33.25,0 -14.25,-33.25,0 -14.75,-33.25,0 -15.25,-33.25,0 -15.75,-33.25,0 -16.25,-33.25,0 -16.75,-33.25,0 -17.25,-33.25,0 -17.75,-33.25,0 -18.25,-33.25,0 -18.75,-33.25,0 -19.25,-33.25,0 -19.75,-33.25,0 -20.25,-33.25,0 -20.75,-33.25,0 -21.25,-33.25,0 -21.75,-33.25,0 -22.25,-33.25,0 -22.75,-33.25,0 -23.25,-33.25,0 -23.75,-33.25,0 -24.25,-33.25,0 -24.75,-33.25,0 -25.25,-33.25,0 -25.75,-33.25,0 -26.25,-33.25,0 -26.75,-33.25,0 -27.25,-33.25,0 -27.75,-33.25,0 -28.25,-33.25,0 -28.75,-33.25,0 -29.25,-33.25,0 -29.75,-33.25,0 -30.25,-33.25,0 -30.75,-33.25,0 -31.25,-33.25,0 -31.75,-33.25,0 -32.25,-33.25,0 -33.25,-33.75,0 -33.75,-33.75,0 -34.25,-33.75,0 -34.75,-33.75,0 -35.25,-33.75,0 -35.75,-33.75,0 -36.25,-33.75,0 -36.75,-33.75,0 -37.25,-33.75,0 -37.75,-33.75,0 -38.25,-33.75,0 -38.75,-33.75,0 -39.25,-33.75,0 -39.75,-33.75,0 -40.75,-34.25,0 -41.25,-34.25,0 -41.75,-34.25,0 -42.25,-34.25,0 -42.75,-34.25,0 -43.25,-34.25,0 -44.25,-34.75,0 -44.75,-34.75,0 -45.25,-34.75,0 -45.75,-34.75,0 -46.75,-35.25,0 -47.25,-35.25,0 -48.25,-35.75,0 -48.75,-35.75,0 -49.25,-35.75,0 -49.75,-35.75,0 -50.75,-36.25,0 -51.25,-36.25,0 -51.75,-36.25,0</coordinates>
          </LinearRing>
        </outerBoundaryIs>
      </Polygon>
    </Placemark>
  </Document>
</kml>