<?xml version="1.0" encoding="UTF-8"?>
<kml xmlns="http://www.opengis.net/kml/2.2">
  <Document>
    <name>Range</name>
    <Placemark>
      <name>Range – Low (0.00–0.33) (1)</name>
      <Style>
        <PolygonStyle>
          <color>80ff0000</color>
          <outline>0</outline>
        </PolygonStyle>
      </Style>
      <Polygon>
        <outerBoundaryIs>
          <LinearRing>
            <coordinates>-60.25,73.75,0 -59.75,74.75,0 -59.25,74.75,0 -58.75,74.75,0 -58.25,74.75,0 -57.75,74.75,0 -57.25,74.75,0 -56.75,74.75,0 -56.25,74.25,0 -55.75,73.75,0 -54.75,73.25,0 -52.75,71.75,0 -52.25,71.75,0 -51.75,71.75,0 -51.25,71.75,0 -50.75,70.75,0 -50.25,70.25,0 -50.25,69.75,0 -50.25,69.25,0 -50.25,68.75,0 -50.75,67.75,0 -50.75,66.75,0 -50.25,64.75,0 -49.75,64.25,0 -48.75,62.25,0 -48.25,61.75,0 -46.75,61.25,0 -46.25,61.25,0 -45.75,61.25,0 -45.25,61.25,0 -43.25,62.75,0 -42.25,63.25,0 -41.75,63.75,0 -41.25,63.75,0 -40.75,63.75,0 -40.75,63.25,0 -41.25,62.75,0 -41.75,61.75,0 -42.25,61.25,0 -42.75,60.25,0 -42.75,59.25,0 -44.75,59.25,0 -45.25,59.25,0 -45.75,59.25,0 -46.75,59.75,0 -47.75,60.25,0 -48.75,60.25,0 -49.75,60.75,0 -50.25,61.25,0 -50.75,61.75,0 -51.75,62.25,0 -52.25,62.75,0 -52.75,63.25,0 -54.25,63.75,0 -55.75,63.75,0 -56.25,63.75,0 -56.75,63.75,0 -58.75,62.75,0 -59.75,59.25,0 -59.25,57.75,0 -58.75,57.25,0 -57.75,56.75,0 -55.75,55.25,0 -55.25,55.25,0 -53.75,55.25,0 -52.75,54.75,0 -52.75,53.25,0 -53.25,52.75,0 -54.25,52.25,0 -54.75,52.25,0 -55.25,52.25,0 -55.75,52.25,0 -56.25,52.75,0 -58.75,53.75,0 -60.25,53.25,0 -60.25,53.75,0 -60.75,55.25,0 -61.25,55.75,0 -62.25,56.25,0 -63.75,58.25,0 -64.25,59.75,0 -65.25,61.25,0 -66.25,62.25,0 -66.75,62.75,0 -67.25,63.75,0 -68.25,65.75,0 -68.25,66.25,0 -67.75,66.25,0 -67.25,66.25,0 -66.75,66.25,0 -66.25,66.25,0 -65.75,66.25,0 -65.25,66.25,0 -64.75,66.25,0 -61.75,64.75,0 -60.25,65.25,0 -59.25,67.75,0 -59.25,68.25,0 -59.25,68.75,0 -59.75,70.25,0 -59.75,70.75,0 -60.25,72.25,0 -60.75,72.75,0 -60.75,73.25,0 -60.25,73.75,0</coordinates>
          </LinearRing>
        </outerBoundaryIs>
      </Polygon>
    </Placemark>
    <Placemark>
      <name>Range – Low (0.00–0.33) (2)</name>
      <Style>
        <PolygonStyle>
          <color>80ff0000</color>
          <outline>0</outline>
        </PolygonStyle>
      </Style>
      <Polygon>
        <outerBoundaryIs>
          <LinearRing>
            <coordinates>-14.75,50.75,0 -13.75,50.75,0 -12.25,49.25,0 -12.25,51.75,0 -13.25,54.25,0 -15.75,55.25,0 -15.75,57.25,0 -13.25,58.75,0 -10.75,59.25,0 -10.25,59.75,0 -10.25,61.75,0 -7.25,63.25,0 -6.75,63.25,0 -7.25,63.75,0 -8.25,65.25,0 -8.25,65.75,0 -8.25,68.75,0 -7.75,69.25,0 -5.75,70.75,0 -4.75,71.25,0 -5.25,71.25,0 -5.75,71.25,0 -6.25,71.25,0 -6.75,71.25,0 -8.75,73.75,0 -9.25,73.75,0 -11.25,72.25,0 -12.75,72.75,0 -14.25,71.75,0 -14.75,71.75,0 -15.25,71.75,0 -16.75,71.25,0 -18.25,71.75,0 -18.75,71.25,0 -19.25,70.75,0 -20.25,69.75,0 -21.75,69.25,0 -23.25,68.75,0 -23.75,68.75,0 -25.25,68.25,0 -25.75,68.25,0 -26.25,68.25,0 -27.75,67.75,0 -28.25,67.75,0 -28.75,67.75,0 -29.25,67.75,0 -29.75,67.75,0 -30.25,67.75,0 -30.75,67.75,0 -31.25,67.75,0 -32.25,67.25,0 -33.25,66.75,0 -34.25,66.75,0 -35.75,66.25,0 -36.25,66.25,0 -37.25,66.25,0 -37.75,66.25,0 -39.25,65.75,0 -39.75,65.75,0 -40.75,65.25,0 -41.25,64.75,0 -41.25,64.25,0 -40.75,64.25,0 -40.25,64.25,0 -39.75,64.25,0 -39.25,64.25,0 -38.75,64.25,0 -38.25,64.75,0 -36.75,65.25,0 -36.25,65.25,0 -35.75,65.25,0 -33.75,64.75,0 -31.75,66.25,0 -31.25,66.25,0 -30.75,66.25,0 -30.25,66.25,0 -28.25,64.25,0 -28.25,61.25,0 -29.25,60.75,0 -29.75,59.75,0 -28.75,60.25,0 -27.75,60.75,0 -26.75,61.25,0 -25.75,61.75,0 -23.25,62.75,0 -26.25,62.75,0 -27.25,63.75,0 -25.75,66.75,0 -24.25,67.25,0 -22.75,67.75,0 -22.25,67.75,0 -21.75,67.75,0 -21.25,67.75,0 -20.25,68.25,0 -19.25,68.25,0 -17.75,67.75,0 -17.25,67.75,0 -16.75,67.75,0 -16.25,67.75,0 -15.75,67.75,0 -15.25,67.75,0 -14.75,67.75,0 -13.25,67.25,0 -12.25,66.75,0 -11.25,66.25,0 -10.75,65.75,0 -12.25,62.25,0 -12.75,62.25,0 -14.75,59.75,0 -17.75,59.25,0 -19.75,57.75,0 -19.75,57.25,0 -19.75,56.75,0 -18.25,54.75,0 -17.75,54.75,0 -17.25,54.75,0 -15.25,52.75,0 -15.25,52.25,0 -15.25,51.75,0 -14.75,50.75,0</coordinates>
          </LinearRing>
        </outerBoundaryIs>
      </Polygon>
    </Placemark>
    <Placemark>
      <name>Range – Low (0.00–0.33) (3)</name>
      <Style>
        <PolygonStyle>
          <color>80ff0000</color>
          <outline>0</outline>
        </PolygonStyle>
      </Style>
      <Polygon>
        <outerBoundaryIs>
          <LinearRing>
            <coordinates>21.25,64.75,0 22.25,65.75,0 22.75,65.75,0 23.25,65.75,0 24.75,65.75,0 25.25,65.75,0 25.25,64.75,0 24.25,64.25,0 23.25,63.75,0 24.75,60.25,0 25.25,60.25,0 25.75,60.25,0 26.25,60.25,0 28.75,60.75,0 30.25,60.25,0 30.25,59.75,0 29.75,59.75,0 29.25,59.75,0 26.75,59.75,0 24.75,58.25,0 24.25,57.75,0 23.75,57.25,0 23.25,57.25,0 21.25,55.25,0 21.25,54.75,0 19.75,54.25,0 19.25,54.25,0 18.75,54.25,0 16.25,54.25,0 14.75,53.75,0 14.25,53.75,0 13.75,53.75,0 12.25,54.25,0 11.75,54.25,0 11.25,54.25,0 10.75,54.25,0 10.25,54.25,0 10.75,54.75,0 12.25,55.25,0 12.75,55.75,0 14.25,56.25,0 16.25,58.75,0 17.25,60.75,0 17.25,61.25,0 17.25,61.75,0 17.25,62.25,0 17.25,62.75,0 17.75,63.25,0 19.25,63.75,0 20.75,64.25,0 21.25,64.75,0</coordinates>
          </LinearRing>
        </outerBoundaryIs>
      </Polygon>
    </Placemark>
    <Placemark>
      <name>Range – Low (0.00–0.33) (4)</name>
      <Style>
        <PolygonStyle>
          <color>80ff0000</color>
          <outline>0</outline>
        </PolygonStyle>
      </Style>
      <Polygon>
        <outerBoundaryIs>
          <LinearRing>
            <coordinates>-46.25,48.25,0 -45.75,48.75,0 -45.25,48.75,0 -44.75,48.75,0 -43.75,48.25,0 -43.25,47.25,0 -43.25,46.75,0 -44.25,46.25,0 -46.25,48.25,0</coordinates>
          </LinearRing>
        </outerBoundaryIs>
      </Polygon>
    </Placemark>
    <Placemark>
      <name>Range – Low (0.00–0.33) (5)</name>
      <Style>
        <PolygonStyle>
          <color>80ff0000</color>
          <outline>0</outline>
        </PolygonStyle>
      </Style>
      <Polygon>
        <outerBoundaryIs>
          <LinearRing>
            <coordinates>-67.25,49.75,0 -66.75,50.25,0 -65.75,49.75,0 -65.75,49.25,0 -67.25,48.75,0 -68.75,48.25,0 -69.25,47.75,0 -70.25,47.25,0 -70.75,46.75,0 -71.25,46.75,0 -70.75,47.25,0 -70.25,47.75,0 -69.75,48.25,0 -69.25,48.75,0 -68.75,49.25,0 -67.25,49.75,0</coordinates>
          </LinearRing>
        </outerBoundaryIs>
      </Polygon>
    </Placemark>
    <Placemark>
      <name>Range – Low (0.00–0.33) (6)</name>
      <Style>
        <PolygonStyle>
          <color>80ff0000</color>
          <outline>0</outline>
        </PolygonStyle>
      </Style>
      <Polygon>
        <outerBoundaryIs>
          <LinearRing>
            <coordinates>-27.75,32.25,0 -28.25,33.75,0 -29.75,34.25,0 -30.25,34.75,0 -29.75,37.75,0 -27.25,37.75,0 -25.75,37.25,0 -25.25,36.75,0 -24.75,36.75,0 -24.25,37.25,0 -24.75,37.25,0 -26.75,39.25,0 -26.75,39.75,0 -26.75,40.25,0 -28.75,40.75,0 -30.75,41.75,0 -30.75,39.75,0 -31.75,38.75,0 -32.25,38.25,0 -33.25,37.75,0 -33.75,37.25,0 -33.75,36.25,0 -33.75,35.75,0 -31.25,34.25,0 -30.75,34.25,0 -30.25,34.25,0 -28.25,32.25,0 -28.25,31.75,0 -27.75,31.75,0 -27.75,32.25,0</coordinates>
          </LinearRing>
        </outerBoundaryIs>
      </Polygon>
    </Placemark>
    <Placemark>
      <name>Range – Low (0.00–0.33) (7)</name>
      <Style>
        <PolygonStyle>
          <color>80ff0000</color>
          <outline>0</outline>
        </PolygonStyle>
      </Style>
      <Polygon>
        <outerBoundaryIs>
          <LinearRing>
            <coordinates>-3.25,36.25,0 -2.25,36.25,0 -0.75,38.25,0 -0.25,39.75,0 1.25,40.75,0 1.75,41.25,0 2.75,41.75,0 3.75,41.75,0 4.25,40.25,0 4.75,39.75,0 4.75,36.75,0 4.25,36.75,0 3.75,36.75,0 3.25,36.75,0 2.75,36.75,0 2.25,36.75,0 1.75,36.75,0 0.25,35.75,0 -1.25,35.25,0 -1.75,35.25,0 -2.25,35.25,0 -2.75,35.25,0 -3.25,35.25,0 -3.75,35.25,0 -6.75,35.25,0 -7.25,34.25,0 -8.25,33.75,0 -8.75,33.25,0 -10.25,32.25,0 -9.25,33.75,0 -10.75,36.75,0 -11.25,36.75,0 -9.75,38.25,0 -8.25,36.75,0 -7.25,36.25,0 -6.75,35.75,0 -4.25,35.75,0 -3.25,36.25,0</coordinates>
          </LinearRing>
        </outerBoundaryIs>
      </Polygon>
    </Placemark>
    <Placemark>
      <name>Range – Low (0.00–0.33) (8)</name>
      <Style>
        <PolygonStyle>
          <color>80ff0000</color>
          <outline>0</outline>
        </PolygonStyle>
      </Style>
      <Polygon>
        <outerBoundaryIs>
          <LinearRing>
            <coordinates>37.25,74.75,0 37.75,74.75,0 38.25,74.75,0 38.75,74.75,0 39.25,74.75,0 39.75,74.75,0 40.25,74.75,0 40.75,74.75,0 41.25,74.75,0 41.75,74.75,0 41.75,74.25,0 41.75,73.75,0 41.75,73.25,0 41.25,73.25,0 40.75,73.25,0 40.25,73.25,0 39.75,73.25,0 38.75,73.75,0 37.75,74.25,0 36.25,74.75,0 36.75,74.75,0 37.25,74.75,0</coordinates>
          </LinearRing>
        </outerBoundaryIs>
      </Polygon>
    </Placemark>
    <Placemark>
      <name>Range – Low (0.00–0.33) (9)</name>
      <Style>
        <PolygonStyle>
          <color>80ff0000</color>
          <outline>0</outline>
        </PolygonStyle>
      </Style>
      <Polygon>
        <outerBoundaryIs>
          <LinearRing>
            <coordinates>18.25,42.75,0 17.25,43.25,0 15.75,43.75,0 14.25,44.25,0 12.75,44.75,0 10.25,43.75,0 9.25,44.25,0 8.75,44.25,0 8.25,44.25,0 6.75,43.75,0 5.75,43.25,0 5.25,42.75,0 5.75,42.75,0 7.75,40.75,0 7.75,40.25,0 7.75,39.75,0 7.75,39.25,0 6.25,37.25,0 5.75,36.75,0 6.25,36.75,0 6.75,36.75,0 7.25,36.75,0 7.75,36.75,0 8.25,36.75,0 10.25,34.75,0 10.25,34.25,0 10.25,33.75,0 11.25,33.25,0 12.25,32.75,0 12.75,32.75,0 13.25,32.75,0 14.75,32.25,0 15.25,31.75,0 15.75,31.25,0 16.25,31.25,0 17.75,30.75,0 18.75,30.25,0 19.25,30.25,0 19.75,30.25,0 20.25,30.75,0 23.25,32.25,0 23.25,32.75,0 25.25,35.25,0 25.75,35.25,0 26.25,35.25,0 29.25,36.75,0 28.25,37.25,0 27.25,38.25,0 28.75,41.75,0 29.25,41.75,0 30.25,41.75,0 30.75,41.75,0 31.25,41.75,0 31.75,41.75,0 32.25,41.75,0 32.75,41.75,0 34.25,42.25,0 34.75,42.25,0 36.25,41.75,0 37.75,41.25,0 38.25,41.25,0 38.75,41.25,0 39.25,41.25,0 39.75,41.25,0 40.25,42.75,0 40.25,43.25,0 39.25,43.75,0 38.25,44.25,0 37.75,44.25,0 36.75,44.25,0 35.75,44.75,0 35.25,44.75,0 34.75,44.75,0 33.25,45.25,0 32.75,45.25,0 29.75,45.75,0 29.25,45.25,0 28.75,44.25,0 28.25,41.75,0 25.25,40.25,0 24.75,40.25,0 24.25,40.25,0 23.25,39.75,0 21.25,39.25,0 19.75,41.25,0 19.25,41.75,0 18.75,42.25,0 18.25,42.75,0</coordinates>
          </LinearRing>
        </outerBoundaryIs>
      </Polygon>
    </Placemark>
    <Placemark>
      <name>Range – Mid (0.34–0.65) (1)</name>
      <Style>
        <PolygonStyle>
          <color>8000ffff</color>
          <outline>0</outline>
        </PolygonStyle>
      </Style>
      <Polygon>
        <outerBoundaryIs>
          <LinearRing>
            <coordinates>-33.75,65.25,0 -33.25,65.25,0 -32.25,65.25,0 -31.75,65.25,0 -31.25,65.25,0 -30.75,65.25,0 -30.25,65.25,0 -29.75,65.25,0 -28.25,65.75,0 -27.75,65.75,0 -26.25,62.25,0 -27.25,61.75,0 -27.75,61.25,0 -28.75,60.75,0 -29.25,60.25,0 -28.25,60.75,0 -27.25,61.25,0 -26.25,61.75,0 -24.75,62.25,0 -23.75,62.75,0 -25.75,62.75,0 -26.25,66.25,0 -24.75,66.75,0 -23.25,66.25,0 -23.75,62.75,0 -21.75,65.25,0 -21.25,65.25,0 -20.75,65.25,0 -19.75,65.75,0 -18.25,66.25,0 -17.75,66.25,0 -17.25,66.25,0 -16.75,66.25,0 -15.25,63.25,0 -13.75,60.25,0 -15.25,59.25,0 -15.75,59.25,0 -16.25,59.25,0 -16.75,59.25,0 -17.25,59.25,0 -18.75,58.75,0 -18.75,58.25,0 -18.75,57.75,0 -17.25,55.75,0 -17.25,55.25,0 -16.75,55.25,0 -16.25,55.25,0 -15.25,57.75,0 -14.75,58.75,0 -11.25,57.25,0 -12.75,54.25,0 -11.25,54.75,0 -9.75,57.25,0 -7.75,59.25,0 -7.25,59.75,0 -7.75,60.25,0 -7.75,63.25,0 -8.25,63.75,0 -9.25,64.75,0 -10.25,65.25,0 -11.25,65.75,0 -11.75,66.25,0 -12.75,66.75,0 -13.75,67.25,0 -14.25,67.25,0 -14.75,67.25,0 -15.25,67.25,0 -15.75,67.25,0 -16.25,67.25,0 -16.75,67.25,0 -18.25,67.75,0 -18.75,67.75,0 -19.25,67.75,0 -19.75,67.75,0 -20.25,67.75,0 -20.75,67.75,0 -22.25,67.25,0 -22.75,67.25,0 -23.25,67.25,0 -23.75,67.25,0 -25.25,66.75,0 -26.75,66.25,0 -27.25,66.25,0 -27.75,66.25,0 -28.25,66.25,0 -28.75,66.25,0 -29.25,66.25,0 -29.75,66.25,0 -31.25,65.75,0 -31.75,65.75,0 -32.25,65.75,0 -32.75,65.75,0 -33.75,65.25,0</coordinates>
          </LinearRing>
        </outerBoundaryIs>
      </Polygon>
    </Placemark>
    <Placemark>
      <name>Range – Mid (0.34–0.65) (2)</name>
      <Style>
        <PolygonStyle>
          <color>8000ffff</color>
          <outline>0</outline>
        </PolygonStyle>
      </Style>
      <Polygon>
        <outerBoundaryIs>
          <LinearRing>
            <coordinates>-34.75,64.25,0 -34.25,64.75,0 -34.25,65.25,0 -34.75,65.25,0 -35.25,65.25,0 -36.75,64.75,0 -37.25,64.75,0 -37.75,64.75,0 -38.25,64.25,0 -39.75,63.75,0 -40.25,63.75,0 -40.75,62.75,0 -41.25,62.25,0 -41.75,61.25,0 -42.25,60.75,0 -44.25,59.25,0 -43.75,59.25,0 -43.25,59.25,0 -42.25,59.75,0 -41.75,60.25,0 -41.25,61.25,0 -40.25,62.25,0 -38.75,63.25,0 -38.25,63.25,0 -37.75,63.25,0 -37.25,63.75,0 -35.75,64.25,0 -35.25,64.25,0 -34.75,64.25,0</coordinates>
          </LinearRing>
        </outerBoundaryIs>
      </Polygon>
    </Placemark>
    <Placemark>
      <name>Range – Mid (0.34–0.65) (3)</name>
      <Style>
        <PolygonStyle>
          <color>8000ffff</color>
          <outline>0</outline>
        </PolygonStyle>
      </Style>
      <Polygon>
        <outerBoundaryIs>
          <LinearRing>
            <coordinates>4.25,52.25,0 3.75,54.25,0 4.25,54.75,0 4.75,54.75,0 5.25,54.75,0 8.75,54.25,0 9.25,54.75,0 9.75,55.75,0 10.25,56.25,0 10.75,56.25,0 11.25,56.25,0 12.75,56.75,0 12.25,55.75,0 11.75,53.75,0 11.25,53.75,0 10.75,53.75,0 9.75,53.75,0 8.75,53.25,0 5.25,52.25,0 4.75,51.75,0 4.25,51.75,0 4.25,52.25,0</coordinates>
          </LinearRing>
        </outerBoundaryIs>
      </Polygon>
    </Placemark>
    <Placemark>
      <name>Range – Mid (0.34–0.65) (4)</name>
      <Style>
        <PolygonStyle>
          <color>8000ffff</color>
          <outline>0</outline>
        </PolygonStyle>
      </Style>
      <Polygon>
        <outerBoundaryIs>
          <LinearRing>
            <coordinates>-45.75,48.25,0 -44.25,48.25,0 -44.75,46.25,0 -46.25,45.75,0 -46.75,45.75,0 -47.75,46.75,0 -48.75,47.25,0 -50.25,47.75,0 -50.75,47.75,0 -51.25,47.75,0 -51.75,47.75,0 -52.75,48.25,0 -53.25,48.75,0 -54.75,49.25,0 -55.25,49.25,0 -55.75,49.25,0 -56.25,49.25,0 -56.75,49.75,0 -58.25,50.25,0 -58.75,50.25,0 -59.25,50.25,0 -59.75,50.25,0 -61.25,49.75,0 -62.75,49.25,0 -63.75,48.25,0 -65.25,47.75,0 -65.75,47.75,0 -66.25,47.75,0 -66.75,48.25,0 -66.25,50.25,0 -65.75,50.25,0 -65.25,50.25,0 -64.75,50.25,0 -64.25,50.25,0 -63.75,50.25,0 -63.25,50.25,0 -62.75,50.25,0 -62.25,50.25,0 -60.75,53.25,0 -59.75,53.25,0 -57.25,56.25,0 -56.75,55.75,0 -54.75,55.25,0 -54.25,55.25,0 -53.25,54.75,0 -52.75,54.25,0 -52.25,53.75,0 -51.75,53.25,0 -51.25,52.75,0 -50.75,52.25,0 -50.25,51.75,0 -50.25,51.25,0 -50.25,50.25,0 -49.25,48.75,0 -47.75,48.25,0 -47.25,48.25,0 -46.75,48.25,0 -45.75,48.25,0</coordinates>
          </LinearRing>
        </outerBoundaryIs>
      </Polygon>
    </Placemark>
    <Placemark>
      <name>Range – Mid (0.34–0.65) (5)</name>
      <Style>
        <PolygonStyle>
          <color>8000ffff</color>
          <outline>0</outline>
        </PolygonStyle>
      </Style>
      <Polygon>
        <outerBoundaryIs>
          <LinearRing>
            <coordinates>-7.75,33.75,0 -7.75,36.75,0 -7.25,36.75,0 -6.75,36.75,0 -6.25,36.75,0 -4.75,36.75,0 -4.25,36.75,0 -3.75,36.75,0 -3.25,36.75,0 -1.75,37.25,0 -1.25,37.75,0 0.25,40.25,0 0.75,41.25,0 2.25,41.75,0 0.75,40.25,0 -0.75,37.75,0 0.75,36.25,0 -0.25,35.75,0 -2.75,36.25,0 -3.75,35.75,0 -4.25,35.25,0 -4.75,35.25,0 -6.75,33.75,0 -8.25,33.25,0 -7.75,33.75,0</coordinates>
          </LinearRing>
        </outerBoundaryIs>
      </Polygon>
    </Placemark>
    <Placemark>
      <name>Range – Mid (0.34–0.65) (6)</name>
      <Style>
        <PolygonStyle>
          <color>8000ffff</color>
          <outline>0</outline>
        </PolygonStyle>
      </Style>
      <Polygon>
        <outerBoundaryIs>
          <LinearRing>
            <coordinates>-74.75,36.25,0 -74.75,39.25,0 -71.75,39.25,0 -72.75,41.25,0 -73.75,41.25,0 -74.25,40.75,0 -75.75,39.75,0 -76.25,39.75,0 -76.75,39.25,0 -76.75,37.75,0 -76.75,36.25,0 -76.75,35.75,0 -76.75,35.25,0 -75.25,35.75,0 -74.75,36.25,0</coordinates>
          </LinearRing>
        </outerBoundaryIs>
      </Polygon>
    </Placemark>
    <Placemark>
      <name>Range – Mid (0.34–0.65) (7)</name>
      <Style>
        <PolygonStyle>
          <color>8000ffff</color>
          <outline>0</outline>
        </PolygonStyle>
      </Style>
      <Polygon>
        <outerBoundaryIs>
          <LinearRing>
            <coordinates>-25.75,37.75,0 -26.75,38.25,0 -27.75,38.25,0 -28.75,37.75,0 -29.25,37.75,0 -29.75,38.25,0 -31.25,39.25,0 -31.25,39.75,0 -28.75,39.25,0 -28.25,39.25,0 -27.75,39.25,0 -26.75,38.75,0 -25.25,37.75,0 -25.75,37.75,0</coordinates>
          </LinearRing>
        </outerBoundaryIs>
      </Polygon>
    </Placemark>
    <Placemark>
      <name>Range – Mid (0.34–0.65) (8)</name>
      <Style>
        <PolygonStyle>
          <color>8000ffff</color>
          <outline>0</outline>
        </PolygonStyle>
      </Style>
      <Polygon>
        <outerBoundaryIs>
          <LinearRing>
            <coordinates>16.75,70.75,0 16.25,71.25,0 15.75,71.75,0 14.75,72.25,0 14.75,72.75,0 14.75,73.25,0 15.25,73.75,0 15.75,74.75,0 16.25,74.75,0 16.75,74.75,0 17.25,74.75,0 17.75,74.75,0 18.25,74.75,0 19.75,74.25,0 20.25,74.25,0 20.75,74.25,0 21.25,74.25,0 21.75,74.25,0 22.25,74.25,0 22.75,74.25,0 23.25,74.25,0 24.75,74.75,0 25.25,74.75,0 25.75,74.75,0 26.25,74.75,0 26.75,74.75,0 27.25,74.75,0 27.75,74.75,0 28.25,74.75,0 28.75,74.75,0 29.25,74.75,0 29.75,74.75,0 30.25,74.75,0 30.75,74.75,0 31.25,74.75,0 31.75,74.75,0 32.25,74.75,0 32.75,74.75,0 33.25,74.75,0 33.75,74.75,0 34.25,74.75,0 34.75,74.75,0 35.25,74.75,0 35.75,74.75,0 37.25,74.25,0 38.25,73.75,0 39.25,73.25,0 40.75,72.75,0 41.25,72.75,0 41.75,72.75,0 41.75,72.25,0 41.75,71.75,0 41.75,71.25,0 41.75,70.75,0 41.75,70.25,0 41.75,69.75,0 41.75,69.25,0 41.75,68.75,0 41.75,68.25,0 41.75,67.75,0 41.25,67.25,0 40.75,65.75,0 39.75,64.75,0 38.25,64.25,0 37.75,64.75,0 34.75,64.75,0 34.25,65.25,0 32.75,66.75,0 31.75,67.25,0 32.25,67.25,0 32.75,67.25,0 35.25,70.25,0 33.75,71.75,0 32.25,71.75,0 31.75,71.75,0 31.25,71.75,0 29.75,72.25,0 29.25,72.25,0 28.25,72.75,0 27.25,72.75,0 25.75,73.25,0 25.25,73.25,0 24.75,73.25,0 23.25,72.75,0 22.75,72.75,0 22.25,72.75,0 21.75,72.75,0 21.25,72.75,0 20.75,72.75,0 20.25,72.75,0 19.75,72.75,0 19.25,72.75,0 18.75,72.75,0 16.75,70.75,0</coordinates>
          </LinearRing>
        </outerBoundaryIs>
      </Polygon>
    </Placemark>
    <Placemark>
      <name>Range – Mid (0.34–0.65) (9)</name>
      <Style>
        <PolygonStyle>
          <color>8000ffff</color>
          <outline>0</outline>
        </PolygonStyle>
      </Style>
      <Polygon>
        <outerBoundaryIs>
          <LinearRing>
            <coordinates>41.25,43.25,0 39.75,43.75,0 39.25,44.25,0 38.75,46.25,0 39.25,47.25,0 38.75,47.25,0 38.25,47.25,0 37.75,47.25,0 37.25,47.25,0 35.75,46.75,0 35.25,46.75,0 33.75,46.25,0 32.25,46.75,0 31.75,46.75,0 31.25,46.75,0 30.75,46.75,0 30.25,46.25,0 30.25,45.75,0 29.25,44.25,0 28.75,43.75,0 27.75,43.25,0 27.25,42.25,0 23.75,40.75,0 22.75,40.75,0 19.75,41.75,0 22.75,40.25,0 22.75,39.75,0 22.75,39.25,0 22.75,38.75,0 22.75,38.25,0 22.75,37.75,0 23.25,37.75,0 23.75,37.75,0 25.75,39.25,0 27.25,38.75,0 29.75,40.75,0 31.25,41.25,0 31.75,41.25,0 33.25,41.75,0 34.25,41.75,0 34.75,41.75,0 36.25,41.25,0 36.75,41.25,0 38.25,40.75,0 38.75,40.75,0 40.25,40.75,0 41.25,41.25,0 41.75,41.75,0 41.75,42.25,0 41.75,42.75,0 41.25,43.25,0</coordinates>
          </LinearRing>
        </outerBoundaryIs>
      </Polygon>
    </Placemark>
    <Placemark>
      <name>Range – High (0.66–1.00) (1)</name>
      <Style>
        <PolygonStyle>
          <color>800000ff</color>
          <outline>0</outline>
        </PolygonStyle>
      </Style>
      <Polygon>
        <outerBoundaryIs>
          <LinearRing>
            <coordinates>-15.75,63.25,0 -14.25,63.75,0 -13.75,63.75,0 -13.25,63.75,0 -13.25,64.25,0 -14.25,64.75,0 -15.75,64.25,0 -16.25,64.25,0 -18.25,65.75,0 -19.25,65.75,0 -22.25,65.25,0 -23.25,65.75,0 -23.75,66.25,0 -24.25,66.25,0 -24.75,66.25,0 -25.25,66.25,0 -25.75,66.25,0 -27.25,65.75,0 -27.75,65.25,0 -27.75,64.75,0 -27.25,64.25,0 -26.75,63.75,0 -26.25,63.25,0 -25.25,62.75,0 -24.75,62.75,0 -24.25,62.75,0 -22.75,63.25,0 -22.25,63.25,0 -21.75,63.25,0 -21.25,63.25,0 -20.75,63.25,0 -20.25,63.25,0 -19.75,63.25,0 -19.25,63.25,0 -18.75,63.25,0 -18.25,63.25,0 -17.75,63.25,0 -17.25,63.25,0 -16.75,63.25,0 -16.25,63.25,0 -15.75,63.25,0</coordinates>
          </LinearRing>
        </outerBoundaryIs>
      </Polygon>
    </Placemark>
    <Placemark>
      <name>Range – High (0.66–1.00) (2)</name>
      <Style>
        <PolygonStyle>
          <color>800000ff</color>
          <outline>0</outline>
        </PolygonStyle>
      </Style>
      <Polygon>
        <outerBoundaryIs>
          <LinearRing>
            <coordinates>16.75,69.25,0 16.25,69.75,0 15.75,69.75,0 14.25,69.25,0 13.75,69.25,0 12.25,68.75,0 11.75,68.75,0 10.25,68.25,0 9.25,67.75,0 8.25,67.25,0 6.75,66.75,0 6.25,66.25,0 5.75,65.75,0 5.75,65.25,0 5.75,64.75,0 4.75,63.25,0 3.25,62.75,0 2.75,62.75,0 2.25,62.75,0 0.75,62.25,0 0.25,62.25,0 -0.25,62.25,0 -1.25,61.75,0 -3.75,62.25,0 -4.25,62.75,0 -4.75,62.75,0 -5.25,62.75,0 -5.75,62.75,0 -6.25,62.75,0 -6.75,62.75,0 -8.25,63.25,0 -8.75,63.25,0 -10.25,63.75,0 -10.75,64.25,0 -11.75,64.75,0 -12.25,64.75,0 -12.75,64.25,0 -12.75,63.75,0 -12.75,63.25,0 -12.75,60.75,0 -13.75,59.25,0 -14.25,58.75,0 -14.75,58.25,0 -17.75,58.25,0 -17.75,57.75,0 -16.75,56.25,0 -16.75,55.75,0 -14.75,53.25,0 -14.75,52.75,0 -14.75,52.25,0 -14.75,51.75,0 -14.75,51.25,0 -14.25,51.25,0 -13.75,51.25,0 -11.25,49.25,0 -10.75,48.75,0 -9.75,48.25,0 -8.25,47.75,0 -8.75,44.25,0 -9.25,43.75,0 -9.75,43.25,0 -9.75,42.75,0 -9.75,40.25,0 -10.25,39.25,0 -9.75,38.75,0 -9.25,37.25,0 -8.75,37.25,0 -8.25,37.25,0 -7.75,37.25,0 -7.25,37.25,0 -6.75,37.25,0 -8.75,38.75,0 -8.75,39.75,0 -8.75,40.25,0 -8.75,40.75,0 -8.75,41.25,0 -8.75,41.75,0 -6.75,43.75,0 -6.25,43.75,0 -4.75,43.25,0 -4.25,43.25,0 -3.75,43.25,0 -3.25,43.25,0 -2.75,43.25,0 -2.25,43.25,0 -1.75,43.25,0 -1.25,43.75,0 -0.75,45.25,0 -0.75,45.75,0 0.25,49.25,0 1.25,49.75,0 1.75,50.25,0 3.25,51.25,0 3.75,51.25,0 4.25,51.25,0 5.75,52.25,0 6.25,52.75,0 7.25,53.25,0 8.25,53.25,0 8.75,53.75,0 8.75,54.75,0 10.75,56.75,0 12.25,56.25,0 12.75,56.25,0 12.25,57.25,0 11.75,58.25,0 11.25,59.25,0 10.75,59.75,0 10.75,63.25,0 11.25,63.75,0 12.75,65.25,0 13.25,66.25,0 13.75,66.75,0 15.25,67.25,0 15.75,67.75,0 17.25,68.25,0 17.25,68.75,0 16.75,69.25,0</coordinates>
          </LinearRing>
        </outerBoundaryIs>
      </Polygon>
    </Placemark>
    <Placemark>
      <name>Range – High (0.66–1.00) (3)</name>
      <Style>
        <PolygonStyle>
          <color>800000ff</color>
          <outline>0</outline>
        </PolygonStyle>
      </Style>
      <Polygon>
        <outerBoundaryIs>
          <LinearRing>
            <coordinates>-76.25,36.25,0 -76.75,37.25,0 -75.75,38.25,0 -75.25,38.75,0 -74.25,40.25,0 -73.75,40.75,0 -73.25,41.25,0 -71.25,42.25,0 -70.75,43.25,0 -70.25,43.75,0 -69.75,44.25,0 -68.75,44.75,0 -67.25,45.25,0 -65.25,47.25,0 -64.75,48.25,0 -63.25,48.75,0 -62.25,49.25,0 -60.75,49.75,0 -60.25,49.75,0 -59.75,49.75,0 -59.25,49.75,0 -57.75,50.25,0 -54.25,48.75,0 -53.75,48.75,0 -53.25,48.25,0 -52.25,47.75,0 -50.75,47.25,0 -50.25,47.25,0 -49.75,47.25,0 -49.25,47.25,0 -48.25,46.75,0 -47.25,46.75,0 -46.25,47.25,0 -45.75,47.75,0 -45.25,48.25,0 -44.75,48.25,0 -43.75,47.75,0 -43.75,47.25,0 -43.75,46.75,0 -45.25,46.25,0 -45.75,46.25,0 -46.25,46.25,0 -47.75,45.75,0 -48.25,45.25,0 -48.75,43.75,0 -49.25,43.25,0 -49.75,42.75,0 -50.25,42.75,0 -50.75,42.75,0 -51.75,43.25,0 -52.75,43.75,0 -53.25,44.25,0 -54.25,44.75,0 -55.25,44.75,0 -55.75,44.75,0 -57.25,44.25,0 -58.75,43.75,0 -60.25,43.25,0 -61.75,42.75,0 -62.25,42.75,0 -62.75,42.75,0 -63.25,42.75,0 -64.75,42.25,0 -65.75,41.25,0 -66.25,40.75,0 -67.25,40.25,0 -67.75,40.25,0 -69.25,39.75,0 -69.75,39.75,0 -70.25,39.75,0 -70.75,39.75,0 -72.25,39.25,0 -72.75,38.75,0 -73.25,38.25,0 -73.75,37.75,0 -74.25,37.25,0 -74.75,36.75,0 -75.25,36.25,0 -75.75,36.25,0 -76.25,36.25,0</coordinates>
          </LinearRing>
        </outerBoundaryIs>
      </Polygon>
    </Placemark>
    <Placemark>
      <name>Range – High (0.66–1.00) (4)</name>
      <Style>
        <PolygonStyle>
          <color>800000ff</color>
          <outline>0</outline>
        </PolygonStyle>
      </Style>
      <Polygon>
        <outerBoundaryIs>
          <LinearRing>
            <coordinates>18.25,72.75,0 16.75,73.75,0 16.25,74.25,0 16.25,72.25,0 16.25,71.75,0 16.75,70.25,0 16.75,69.75,0 17.25,69.25,0 17.75,69.25,0 18.25,69.25,0 18.75,69.25,0 19.25,69.25,0 20.25,69.25,0 21.75,69.75,0 23.25,70.25,0 24.75,70.25,0 25.25,70.25,0 25.75,70.25,0 26.75,70.25,0 28.75,70.25,0 29.75,69.75,0 30.25,69.75,0 30.75,69.75,0 31.25,69.75,0 32.75,69.25,0 33.25,69.25,0 33.75,69.25,0 34.25,69.25,0 34.75,69.25,0 35.25,69.25,0 35.75,69.25,0 36.25,69.25,0 34.75,71.25,0 33.25,71.75,0 32.75,71.75,0 30.75,71.75,0 30.25,71.75,0 28.75,72.25,0 27.75,72.75,0 26.75,72.75,0 26.25,72.75,0 25.75,72.75,0 25.25,72.75,0 24.75,72.75,0 24.25,72.75,0 23.75,72.75,0 22.25,72.25,0 21.75,72.25,0 21.25,72.25,0 20.75,72.25,0 20.25,72.25,0 19.75,72.25,0 18.25,72.75,0</coordinates>
          </LinearRing>
        </outerBoundaryIs>
      </Polygon>
    </Placemark>
    <Placemark>
      <name>Range – High (0.66–1.00) (5)</name>
      <Style>
        <PolygonStyle>
          <color>800000ff</color>
          <outline>0</outline>
        </PolygonStyle>
      </Style>
      <Polygon>
        <outerBoundaryIs>
          <LinearRing>
            <coordinates>26.75,39.75,0 28.25,40.25,0 28.75,40.25,0 29.25,40.25,0 29.25,40.75,0 27.75,41.25,0 25.25,41.25,0 24.25,40.75,0 25.75,39.75,0 26.25,39.75,0 26.75,39.75,0</coordinates>
          </LinearRing>
        </outerBoundaryIs>
      </Polygon>
    </Placemark>
  </Document>
</kml>