<?xml version="1.0" encoding="UTF-8"?>
<kml xmlns="http://www.opengis.net/kml/2.2">
  <Document>
    <name>Atlantic Herring Range</name>
    <Placemark>
      <name>Atlantic Herring Range – Low (0.00–0.33) (1)</name>
      <Style>
        <PolygonStyle>
          <color>80ff0000</color>
          <outline>0</outline>
        </PolygonStyle>
      </Style>
      <Polygon>
        <outerBoundaryIs>
          <LinearRing>
            <coordinates>-2.25,47.25,0 4.25,51.75,0 4.75,51.75,0 9.25,53.75,0 5.25,52.25,0 4.75,52.25,0 4.25,52.25,0 -3.75,51.25,0 -2.75,49.25,0 -2.25,47.25,0</coordinates>
          </LinearRing>
        </outerBoundaryIs>
      </Polygon>
    </Placemark>
    <Placemark>
      <name>Atlantic Herring Range – Low (0.00–0.33) (2)</name>
      <Style>
        <PolygonStyle>
          <color>80ff0000</color>
          <outline>0</outline>
        </PolygonStyle>
      </Style>
      <Polygon>
        <outerBoundaryIs>
          <LinearRing>
            <coordinates>21.25,54.75,0 24.25,57.25,0 28.25,59.25,0 30.25,59.75,0 30.25,60.25,0 25.25,65.75,0 24.75,65.75,0 24.25,65.75,0 23.75,65.75,0 23.25,65.75,0 22.75,65.75,0 22.25,65.75,0 21.25,65.25,0 19.25,63.75,0 18.75,63.25,0 18.25,62.75,0 17.75,62.25,0 17.25,61.75,0 12.75,55.25,0 12.25,54.75,0 14.25,53.75,0 15.75,54.25,0 18.75,54.25,0 19.25,54.25,0 19.75,54.25,0 21.25,54.75,0</coordinates>
          </LinearRing>
        </outerBoundaryIs>
      </Polygon>
    </Placemark>
    <Placemark>
      <name>Atlantic Herring Range – Low (0.00–0.33) (3)</name>
      <Style>
        <PolygonStyle>
          <color>80ff0000</color>
          <outline>0</outline>
        </PolygonStyle>
      </Style>
      <Polygon>
        <outerBoundaryIs>
          <LinearRing>
            <coordinates>1.75,62.25,0 5.75,65.75,0 7.25,66.75,0 9.25,67.75,0 8.25,65.75,0 5.75,64.25,0 3.75,61.25,0 2.75,61.75,0 1.75,62.25,0</coordinates>
          </LinearRing>
        </outerBoundaryIs>
      </Polygon>
    </Placemark>
    <Placemark>
      <name>Atlantic Herring Range – Low (0.00–0.33) (4)</name>
      <Style>
        <PolygonStyle>
          <color>80ff0000</color>
          <outline>0</outline>
        </PolygonStyle>
      </Style>
      <Polygon>
        <outerBoundaryIs>
          <LinearRing>
            <coordinates>38.75,71.75,0 40.75,78.25,0 41.25,78.25,0 41.75,78.25,0 42.25,78.25,0 42.75,78.25,0 45.25,78.75,0 45.75,78.75,0 46.25,78.75,0 46.75,78.75,0 47.25,78.75,0 50.25,78.75,0 50.75,78.75,0 51.25,78.75,0 51.75,78.75,0 52.25,78.75,0 54.75,78.25,0 55.25,78.25,0 55.75,78.25,0 56.25,78.25,0 56.75,78.25,0 57.25,78.25,0 57.75,78.25,0 58.25,78.25,0 58.75,78.25,0 61.25,77.75,0 61.75,77.75,0 62.25,77.75,0 62.75,77.75,0 63.25,77.75,0 63.75,77.75,0 64.25,77.75,0 64.75,77.75,0 65.25,77.75,0 65.75,77.75,0 66.25,77.75,0 66.75,77.75,0 67.25,77.75,0 68.25,77.25,0 67.25,76.75,0 60.75,69.25,0 60.75,68.75,0 59.75,68.25,0 59.25,68.25,0 55.25,68.25,0 54.75,68.25,0 54.25,68.25,0 53.75,68.25,0 53.25,68.25,0 52.75,68.25,0 47.75,67.25,0 47.25,67.25,0 46.75,67.25,0 46.25,67.25,0 45.75,67.25,0 40.25,64.75,0 38.75,71.75,0</coordinates>
          </LinearRing>
        </outerBoundaryIs>
      </Polygon>
    </Placemark>
    <Placemark>
      <name>Atlantic Herring Range – Low (0.00–0.33) (5)</name>
      <Style>
        <PolygonStyle>
          <color>80ff0000</color>
          <outline>0</outline>
        </PolygonStyle>
      </Style>
      <Polygon>
        <outerBoundaryIs>
          <LinearRing>
            <coordinates>14.25,75.75,0 8.25,79.75,0 10.75,79.75,0 11.25,79.75,0 11.75,79.75,0 12.25,79.75,0 12.75,79.75,0 13.25,79.75,0 13.75,79.75,0 14.25,79.75,0 14.75,79.75,0 15.25,79.75,0 15.75,79.75,0 16.75,79.75,0 17.25,79.75,0 17.75,79.75,0 18.25,79.75,0 18.75,79.75,0 19.25,79.75,0 20.75,78.75,0 21.75,78.25,0 24.25,77.75,0 25.25,77.75,0 25.75,77.75,0 26.25,77.75,0 26.75,77.75,0 27.25,77.75,0 27.75,77.75,0 28.25,77.75,0 28.75,77.75,0 31.25,78.25,0 31.75,78.25,0 32.25,78.25,0 32.75,78.25,0 33.25,78.25,0 33.75,78.25,0 34.25,78.25,0 34.75,78.25,0 35.25,78.25,0 35.75,78.25,0 36.25,78.25,0 36.75,78.25,0 37.25,78.25,0 37.75,78.25,0 38.25,78.25,0 38.75,78.25,0 39.25,78.25,0 39.75,78.25,0 40.25,78.25,0 40.75,77.75,0 41.25,76.75,0 41.25,76.25,0 40.25,75.75,0 39.75,75.75,0 37.25,76.25,0 36.75,76.25,0 36.25,76.25,0 35.75,76.25,0 35.25,76.25,0 30.25,73.75,0 29.75,73.75,0 29.25,73.75,0 26.75,73.25,0 22.25,71.75,0 21.75,71.75,0 16.25,71.75,0 14.25,75.75,0</coordinates>
          </LinearRing>
        </outerBoundaryIs>
      </Polygon>
    </Placemark>
    <Placemark>
      <name>Atlantic Herring Range – Low (0.00–0.33) (6)</name>
      <Style>
        <PolygonStyle>
          <color>80ff0000</color>
          <outline>0</outline>
        </PolygonStyle>
      </Style>
      <Polygon>
        <outerBoundaryIs>
          <LinearRing>
            <coordinates>-9.25,36.75,0 -8.75,36.75,0 -8.25,36.75,0 -7.75,36.75,0 -8.75,44.25,0 -9.75,42.75,0 -10.25,38.75,0 -9.25,36.75,0</coordinates>
          </LinearRing>
        </outerBoundaryIs>
      </Polygon>
    </Placemark>
    <Placemark>
      <name>Atlantic Herring Range – Low (0.00–0.33) (7)</name>
      <Style>
        <PolygonStyle>
          <color>80ff0000</color>
          <outline>0</outline>
        </PolygonStyle>
      </Style>
      <Polygon>
        <outerBoundaryIs>
          <LinearRing>
            <coordinates>-25.25,36.75,0 -28.75,37.75,0 -29.25,37.75,0 -29.75,38.75,0 -28.75,38.25,0 -25.75,37.75,0 -25.25,37.75,0 -24.75,37.25,0 -24.75,36.75,0 -25.25,36.75,0</coordinates>
          </LinearRing>
        </outerBoundaryIs>
      </Polygon>
    </Placemark>
    <Placemark>
      <name>Atlantic Herring Range – Low (0.00–0.33) (8)</name>
      <Style>
        <PolygonStyle>
          <color>80ff0000</color>
          <outline>0</outline>
        </PolygonStyle>
      </Style>
      <Polygon>
        <outerBoundaryIs>
          <LinearRing>
            <coordinates>-70.75,39.75,0 -69.25,47.75,0 -69.25,48.25,0 -69.75,48.25,0 -70.25,47.75,0 -70.75,47.25,0 -70.75,46.75,0 -76.25,39.75,0 -76.75,39.25,0 -77.25,38.75,0 -77.25,38.25,0 -78.75,33.75,0 -78.75,33.25,0 -78.25,33.25,0 -77.75,33.25,0 -77.25,33.25,0 -75.25,34.75,0 -74.75,35.25,0 -70.75,39.75,0</coordinates>
          </LinearRing>
        </outerBoundaryIs>
      </Polygon>
    </Placemark>
    <Placemark>
      <name>Atlantic Herring Range – Low (0.00–0.33) (9)</name>
      <Style>
        <PolygonStyle>
          <color>80ff0000</color>
          <outline>0</outline>
        </PolygonStyle>
      </Style>
      <Polygon>
        <outerBoundaryIs>
          <LinearRing>
            <coordinates>-43.75,47.25,0 -47.75,48.25,0 -50.75,52.25,0 -51.25,52.75,0 -52.25,53.75,0 -52.75,54.25,0 -53.25,54.75,0 -54.25,55.25,0 -55.75,54.75,0 -60.25,48.25,0 -58.75,46.75,0 -56.75,45.25,0 -48.75,43.75,0 -43.75,47.25,0</coordinates>
          </LinearRing>
        </outerBoundaryIs>
      </Polygon>
    </Placemark>
    <Placemark>
      <name>Atlantic Herring Range – Low (0.00–0.33) (10)</name>
      <Style>
        <PolygonStyle>
          <color>80ff0000</color>
          <outline>0</outline>
        </PolygonStyle>
      </Style>
      <Polygon>
        <outerBoundaryIs>
          <LinearRing>
            <coordinates>-5.25,60.75,0 -11.25,65.75,0 -11.75,64.25,0 -12.75,60.75,0 -15.25,57.25,0 -16.25,55.75,0 -14.75,52.25,0 -14.25,52.25,0 -13.75,52.25,0 -13.25,52.25,0 -12.25,52.25,0 -9.75,55.75,0 -6.75,59.75,0 -5.25,60.75,0</coordinates>
          </LinearRing>
        </outerBoundaryIs>
      </Polygon>
    </Placemark>
    <Placemark>
      <name>Atlantic Herring Range – Low (0.00–0.33) (11)</name>
      <Style>
        <PolygonStyle>
          <color>80ff0000</color>
          <outline>0</outline>
        </PolygonStyle>
      </Style>
      <Polygon>
        <outerBoundaryIs>
          <LinearRing>
            <coordinates>-58.75,55.25,0 -61.25,55.75,0 -62.25,56.25,0 -63.75,58.25,0 -66.75,62.25,0 -67.75,62.75,0 -68.25,63.25,0 -68.75,63.75,0 -71.25,71.25,0 -73.75,76.75,0 -73.75,77.25,0 -73.25,77.75,0 -72.75,77.75,0 -72.25,77.75,0 -71.75,77.75,0 -71.25,77.75,0 -69.75,77.25,0 -68.25,76.75,0 -65.75,76.25,0 -65.25,76.25,0 -64.75,76.25,0 -64.25,76.25,0 -63.75,76.25,0 -63.25,76.25,0 -62.75,76.25,0 -62.25,76.25,0 -61.75,76.25,0 -61.25,76.25,0 -60.75,76.25,0 -60.25,76.25,0 -58.25,75.75,0 -56.75,74.75,0 -54.75,73.25,0 -51.25,71.75,0 -50.25,70.25,0 -50.25,69.75,0 -50.25,69.25,0 -50.25,68.75,0 -50.75,66.75,0 -54.75,64.25,0 -57.75,56.25,0 -57.75,55.25,0 -58.25,55.25,0 -58.75,55.25,0</coordinates>
          </LinearRing>
        </outerBoundaryIs>
      </Polygon>
    </Placemark>
    <Placemark>
      <name>Atlantic Herring Range – Low (0.00–0.33) (12)</name>
      <Style>
        <PolygonStyle>
          <color>80ff0000</color>
          <outline>0</outline>
        </PolygonStyle>
      </Style>
      <Polygon>
        <outerBoundaryIs>
          <LinearRing>
            <coordinates>-27.25,65.75,0 -24.25,67.25,0 -19.25,67.25,0 -18.25,67.75,0 -12.25,70.75,0 -11.75,70.75,0 -10.25,70.75,0 -9.75,71.25,0 -9.25,73.75,0 -17.75,72.25,0 -19.25,71.25,0 -22.75,70.25,0 -23.25,70.25,0 -24.25,69.75,0 -25.25,69.25,0 -27.75,68.75,0 -29.75,68.25,0 -31.75,67.75,0 -33.75,67.25,0 -34.25,66.75,0 -34.75,66.25,0 -34.25,66.25,0 -33.75,66.25,0 -31.25,65.75,0 -30.25,65.75,0 -27.25,65.75,0</coordinates>
          </LinearRing>
        </outerBoundaryIs>
      </Polygon>
    </Placemark>
    <Placemark>
      <name>Atlantic Herring Range – Low (0.00–0.33) (13)</name>
      <Style>
        <PolygonStyle>
          <color>80ff0000</color>
          <outline>0</outline>
        </PolygonStyle>
      </Style>
      <Polygon>
        <outerBoundaryIs>
          <LinearRing>
            <coordinates>-49.25,61.75,0 -52.25,62.75,0 -51.25,64.25,0 -50.25,64.75,0 -41.25,64.75,0 -40.75,65.25,0 -39.75,65.75,0 -37.75,66.25,0 -37.25,66.25,0 -36.25,66.25,0 -35.75,66.25,0 -35.25,66.25,0 -34.75,65.75,0 -35.25,64.25,0 -36.25,63.75,0 -44.25,60.25,0 -44.75,60.25,0 -45.25,60.25,0 -45.75,60.25,0 -46.25,60.25,0 -49.25,61.75,0</coordinates>
          </LinearRing>
        </outerBoundaryIs>
      </Polygon>
    </Placemark>
    <Placemark>
      <name>Atlantic Herring Range – Mid (0.34–0.65) (1)</name>
      <Style>
        <PolygonStyle>
          <color>8000ffff</color>
          <outline>0</outline>
        </PolygonStyle>
      </Style>
      <Polygon>
        <outerBoundaryIs>
          <LinearRing>
            <coordinates>17.75,63.25,0 18.25,63.25,0 20.75,56.75,0 21.25,55.25,0 19.75,54.75,0 19.25,54.75,0 16.25,54.25,0 14.75,53.75,0 13.75,53.75,0 8.75,53.25,0 5.75,52.25,0 4.25,51.25,0 1.25,50.25,0 0.25,52.75,0 0.25,62.25,0 6.25,66.25,0 8.25,67.25,0 10.25,68.25,0 11.25,66.75,0 17.75,63.25,0</coordinates>
          </LinearRing>
        </outerBoundaryIs>
      </Polygon>
    </Placemark>
    <Placemark>
      <name>Atlantic Herring Range – Mid (0.34–0.65) (2)</name>
      <Style>
        <PolygonStyle>
          <color>8000ffff</color>
          <outline>0</outline>
        </PolygonStyle>
      </Style>
      <Polygon>
        <outerBoundaryIs>
          <LinearRing>
            <coordinates>35.75,65.25,0 32.75,73.75,0 32.75,75.75,0 33.25,76.25,0 33.75,76.25,0 34.25,76.25,0 36.75,75.75,0 37.25,75.75,0 37.75,75.75,0 38.25,75.75,0 38.75,75.75,0 39.25,75.75,0 40.75,75.75,0 41.25,75.75,0 44.75,75.75,0 45.25,75.75,0 47.75,75.75,0 50.25,75.25,0 50.75,75.25,0 54.25,74.25,0 53.25,68.75,0 52.25,68.25,0 47.75,66.75,0 47.25,66.75,0 46.75,66.75,0 44.25,66.25,0 43.75,66.25,0 40.25,65.25,0 37.25,64.25,0 36.75,64.25,0 36.25,64.25,0 35.75,64.25,0 35.75,64.75,0 35.75,65.25,0</coordinates>
          </LinearRing>
        </outerBoundaryIs>
      </Polygon>
    </Placemark>
    <Placemark>
      <name>Atlantic Herring Range – Mid (0.34–0.65) (3)</name>
      <Style>
        <PolygonStyle>
          <color>8000ffff</color>
          <outline>0</outline>
        </PolygonStyle>
      </Style>
      <Polygon>
        <outerBoundaryIs>
          <LinearRing>
            <coordinates>15.75,69.75,0 12.75,77.25,0 11.75,77.75,0 9.25,78.25,0 8.75,79.25,0 8.75,79.75,0 9.25,79.75,0 9.75,79.75,0 10.25,79.75,0 11.75,79.25,0 14.25,78.75,0 15.25,78.25,0 20.25,76.25,0 24.75,75.25,0 26.75,75.75,0 28.75,76.25,0 29.25,76.25,0 29.75,76.25,0 31.75,75.25,0 31.75,73.75,0 32.25,71.75,0 30.25,71.25,0 29.75,71.25,0 27.25,71.75,0 26.75,71.75,0 24.25,71.75,0 23.75,71.75,0 23.25,71.75,0 22.75,71.75,0 21.25,71.75,0 20.75,71.75,0 15.75,69.75,0</coordinates>
          </LinearRing>
        </outerBoundaryIs>
      </Polygon>
    </Placemark>
    <Placemark>
      <name>Atlantic Herring Range – Mid (0.34–0.65) (4)</name>
      <Style>
        <PolygonStyle>
          <color>8000ffff</color>
          <outline>0</outline>
        </PolygonStyle>
      </Style>
      <Polygon>
        <outerBoundaryIs>
          <LinearRing>
            <coordinates>-10.25,39.25,0 -9.75,43.25,0 -8.25,44.25,0 -5.75,49.25,0 -5.75,49.75,0 -4.25,51.25,0 -3.75,51.75,0 -3.25,51.75,0 -0.75,49.75,0 -1.25,45.25,0 -1.75,43.25,0 -5.75,36.25,0 -6.25,36.25,0 -6.75,36.25,0 -9.25,37.25,0 -10.25,39.25,0</coordinates>
          </LinearRing>
        </outerBoundaryIs>
      </Polygon>
    </Placemark>
    <Placemark>
      <name>Atlantic Herring Range – Mid (0.34–0.65) (5)</name>
      <Style>
        <PolygonStyle>
          <color>8000ffff</color>
          <outline>0</outline>
        </PolygonStyle>
      </Style>
      <Polygon>
        <outerBoundaryIs>
          <LinearRing>
            <coordinates>-28.25,38.25,0 -31.25,39.25,0 -31.25,39.75,0 -28.25,39.25,0 -27.75,39.25,0 -26.75,38.75,0 -27.75,38.25,0 -28.25,38.25,0</coordinates>
          </LinearRing>
        </outerBoundaryIs>
      </Polygon>
    </Placemark>
    <Placemark>
      <name>Atlantic Herring Range – Mid (0.34–0.65) (6)</name>
      <Style>
        <PolygonStyle>
          <color>8000ffff</color>
          <outline>0</outline>
        </PolygonStyle>
      </Style>
      <Polygon>
        <outerBoundaryIs>
          <LinearRing>
            <coordinates>-74.75,36.25,0 -69.25,39.75,0 -72.75,41.25,0 -73.25,41.25,0 -73.75,41.25,0 -74.25,40.75,0 -75.75,38.25,0 -76.25,37.75,0 -76.75,37.25,0 -76.75,36.25,0 -76.75,35.75,0 -76.75,35.25,0 -75.25,35.75,0 -74.75,36.25,0</coordinates>
          </LinearRing>
        </outerBoundaryIs>
      </Polygon>
    </Placemark>
    <Placemark>
      <name>Atlantic Herring Range – Mid (0.34–0.65) (7)</name>
      <Style>
        <PolygonStyle>
          <color>8000ffff</color>
          <outline>0</outline>
        </PolygonStyle>
      </Style>
      <Polygon>
        <outerBoundaryIs>
          <LinearRing>
            <coordinates>-44.75,48.25,0 -50.25,51.75,0 -52.25,53.25,0 -52.75,53.75,0 -53.25,54.25,0 -53.75,54.75,0 -54.75,55.25,0 -57.25,56.25,0 -59.25,57.75,0 -60.75,55.25,0 -66.75,50.25,0 -68.75,49.25,0 -69.25,48.75,0 -71.25,46.75,0 -66.75,48.25,0 -63.25,49.75,0 -52.75,43.75,0 -46.25,46.75,0 -45.75,47.25,0 -44.75,48.25,0</coordinates>
          </LinearRing>
        </outerBoundaryIs>
      </Polygon>
    </Placemark>
    <Placemark>
      <name>Atlantic Herring Range – Mid (0.34–0.65) (8)</name>
      <Style>
        <PolygonStyle>
          <color>8000ffff</color>
          <outline>0</outline>
        </PolygonStyle>
      </Style>
      <Polygon>
        <outerBoundaryIs>
          <LinearRing>
            <coordinates>-16.25,56.25,0 -19.75,67.25,0 -13.25,70.75,0 -12.75,70.75,0 -9.25,71.25,0 -8.75,71.25,0 -8.25,71.25,0 -7.75,71.25,0 -7.25,70.75,0 -4.25,62.25,0 -2.25,61.25,0 -2.75,56.25,0 -11.25,50.25,0 -14.25,51.75,0 -16.25,56.25,0</coordinates>
          </LinearRing>
        </outerBoundaryIs>
      </Polygon>
    </Placemark>
    <Placemark>
      <name>Atlantic Herring Range – Mid (0.34–0.65) (9)</name>
      <Style>
        <PolygonStyle>
          <color>8000ffff</color>
          <outline>0</outline>
        </PolygonStyle>
      </Style>
      <Polygon>
        <outerBoundaryIs>
          <LinearRing>
            <coordinates>-55.75,65.75,0 -54.75,69.25,0 -54.25,69.25,0 -53.75,69.25,0 -53.25,69.25,0 -52.75,69.25,0 -52.25,69.25,0 -51.75,68.75,0 -41.75,63.75,0 -39.75,64.25,0 -40.25,62.25,0 -43.25,59.25,0 -44.25,59.25,0 -46.25,59.75,0 -48.25,60.25,0 -49.25,60.75,0 -50.25,61.25,0 -50.75,61.75,0 -52.75,63.25,0 -54.25,64.25,0 -54.75,64.75,0 -55.25,65.25,0 -55.75,65.75,0</coordinates>
          </LinearRing>
        </outerBoundaryIs>
      </Polygon>
    </Placemark>
    <Placemark>
      <name>Atlantic Herring Range – Mid (0.34–0.65) (10)</name>
      <Style>
        <PolygonStyle>
          <color>8000ffff</color>
          <outline>0</outline>
        </PolygonStyle>
      </Style>
      <Polygon>
        <outerBoundaryIs>
          <LinearRing>
            <coordinates>-25.75,63.25,0 -25.25,63.25,0 -26.75,66.25,0 -28.75,66.25,0 -29.25,66.25,0 -31.75,65.75,0 -32.25,65.75,0 -32.75,65.75,0 -33.25,65.75,0 -33.75,65.75,0 -34.25,65.75,0 -36.75,65.25,0 -37.25,65.25,0 -37.75,65.25,0 -38.25,64.25,0 -36.75,64.25,0 -36.25,64.25,0 -35.75,64.25,0 -32.75,65.25,0 -26.75,63.75,0 -25.75,63.25,0</coordinates>
          </LinearRing>
        </outerBoundaryIs>
      </Polygon>
    </Placemark>
    <Placemark>
      <name>Atlantic Herring Range – High (0.66–1.00) (1)</name>
      <Style>
        <PolygonStyle>
          <color>800000ff</color>
          <outline>0</outline>
        </PolygonStyle>
      </Style>
      <Polygon>
        <outerBoundaryIs>
          <LinearRing>
            <coordinates>11.25,64.25,0 10.75,64.75,0 10.25,65.25,0 9.25,65.75,0 6.75,65.25,0 0.75,62.25,0 -5.25,62.75,0 -5.75,62.75,0 -6.25,62.75,0 -6.75,62.75,0 -7.25,62.75,0 -7.75,62.75,0 -8.25,62.75,0 -8.75,62.25,0 -12.75,60.25,0 -14.25,58.25,0 -16.75,55.75,0 -14.25,52.75,0 -11.25,49.25,0 -9.25,43.75,0 -9.25,43.25,0 -9.25,42.75,0 -9.25,42.25,0 -9.25,41.25,0 -9.25,40.75,0 -9.25,39.75,0 -2.75,43.75,0 -1.75,43.75,0 -1.25,43.75,0 -0.75,45.25,0 1.25,49.75,0 3.25,51.25,0 7.25,53.25,0 10.75,53.75,0 11.25,53.75,0 11.75,53.75,0 14.25,56.25,0 11.25,63.75,0 11.25,64.25,0</coordinates>
          </LinearRing>
        </outerBoundaryIs>
      </Polygon>
    </Placemark>
    <Placemark>
      <name>Atlantic Herring Range – High (0.66–1.00) (2)</name>
      <Style>
        <PolygonStyle>
          <color>800000ff</color>
          <outline>0</outline>
        </PolygonStyle>
      </Style>
      <Polygon>
        <outerBoundaryIs>
          <LinearRing>
            <coordinates>11.25,64.75,0 8.75,66.25,0 8.25,66.75,0 9.75,67.75,0 9.75,77.75,0 8.75,78.75,0 8.25,79.25,0 11.25,77.75,0 12.25,77.25,0 13.75,76.75,0 15.25,76.25,0 17.25,75.75,0 21.25,74.25,0 21.75,74.25,0 22.25,74.25,0 22.75,74.25,0 25.25,74.75,0 27.25,75.25,0 28.75,73.25,0 29.25,71.25,0 29.25,70.75,0 29.25,70.25,0 28.75,70.25,0 26.75,70.25,0 25.75,70.25,0 25.25,70.25,0 24.75,70.25,0 21.75,69.75,0 20.25,69.25,0 17.25,68.25,0 15.25,67.25,0 12.75,65.25,0 11.75,64.75,0 11.25,64.75,0</coordinates>
          </LinearRing>
        </outerBoundaryIs>
      </Polygon>
    </Placemark>
    <Placemark>
      <name>Atlantic Herring Range – High (0.66–1.00) (3)</name>
      <Style>
        <PolygonStyle>
          <color>800000ff</color>
          <outline>0</outline>
        </PolygonStyle>
      </Style>
      <Polygon>
        <outerBoundaryIs>
          <LinearRing>
            <coordinates>31.25,74.75,0 32.25,75.25,0 32.75,75.25,0 33.25,75.25,0 34.75,74.75,0 36.75,74.25,0 41.75,71.75,0 42.25,71.75,0 44.75,72.25,0 46.25,72.75,0 46.75,72.75,0 47.75,72.75,0 48.25,72.75,0 48.75,72.75,0 49.25,72.75,0 49.75,72.75,0 48.25,70.75,0 47.25,70.25,0 45.75,69.75,0 44.75,69.25,0 39.75,64.75,0 38.25,63.75,0 37.75,63.75,0 37.25,63.75,0 36.75,63.75,0 35.25,64.25,0 34.75,64.75,0 34.25,65.25,0 31.75,67.25,0 29.75,69.75,0 29.75,70.25,0 29.75,70.75,0 30.25,73.25,0 31.25,74.75,0</coordinates>
          </LinearRing>
        </outerBoundaryIs>
      </Polygon>
    </Placemark>
    <Placemark>
      <name>Atlantic Herring Range – High (0.66–1.00) (4)</name>
      <Style>
        <PolygonStyle>
          <color>800000ff</color>
          <outline>0</outline>
        </PolygonStyle>
      </Style>
      <Polygon>
        <outerBoundaryIs>
          <LinearRing>
            <coordinates>-49.75,42.75,0 -49.25,43.25,0 -44.25,46.75,0 -44.25,47.25,0 -44.25,47.75,0 -44.75,47.75,0 -45.25,47.75,0 -51.25,51.25,0 -51.75,51.75,0 -55.75,51.75,0 -56.25,51.75,0 -56.75,51.75,0 -57.25,51.75,0 -58.75,51.25,0 -59.75,50.75,0 -62.25,50.25,0 -64.25,49.75,0 -66.75,49.25,0 -69.75,44.25,0 -70.25,43.75,0 -70.75,43.25,0 -73.25,40.75,0 -73.75,40.25,0 -74.25,39.75,0 -75.25,38.25,0 -75.75,37.25,0 -75.75,36.75,0 -75.25,37.25,0 -74.75,37.75,0 -71.25,39.75,0 -68.75,40.25,0 -68.25,40.25,0 -67.75,40.25,0 -67.25,40.25,0 -66.25,40.75,0 -61.75,42.75,0 -60.25,43.25,0 -58.75,43.75,0 -57.25,44.25,0 -51.75,43.25,0 -50.75,42.75,0 -50.25,42.75,0 -49.75,42.75,0</coordinates>
          </LinearRing>
        </outerBoundaryIs>
      </Polygon>
    </Placemark>
    <Placemark>
      <name>Atlantic Herring Range – High (0.66–1.00) (5)</name>
      <Style>
        <PolygonStyle>
          <color>800000ff</color>
          <outline>0</outline>
        </PolygonStyle>
      </Style>
      <Polygon>
        <outerBoundaryIs>
          <LinearRing>
            <coordinates>-34.25,65.25,0 -33.75,65.25,0 -36.75,63.75,0 -41.75,60.25,0 -42.25,59.75,0 -43.75,59.25,0 -41.75,61.25,0 -40.75,62.75,0 -40.25,63.25,0 -39.75,63.75,0 -37.25,64.25,0 -36.25,64.75,0 -34.25,65.25,0</coordinates>
          </LinearRing>
        </outerBoundaryIs>
      </Polygon>
    </Placemark>
    <Placemark>
      <name>Atlantic Herring Range – High (0.66–1.00) (6)</name>
      <Style>
        <PolygonStyle>
          <color>800000ff</color>
          <outline>0</outline>
        </PolygonStyle>
      </Style>
      <Polygon>
        <outerBoundaryIs>
          <LinearRing>
            <coordinates>-26.25,63.75,0 -27.25,65.25,0 -26.75,65.75,0 -26.25,66.25,0 -25.25,66.75,0 -23.75,67.25,0 -23.25,67.25,0 -22.75,67.25,0 -22.25,67.25,0 -21.75,67.25,0 -21.25,67.25,0 -20.75,67.25,0 -20.25,67.25,0 -18.75,67.25,0 -18.25,67.25,0 -17.25,67.25,0 -16.75,67.25,0 -15.75,67.25,0 -15.25,67.25,0 -14.75,67.25,0 -14.25,67.25,0 -12.75,66.75,0 -11.75,66.25,0 -11.75,65.75,0 -11.75,65.25,0 -11.75,64.75,0 -12.25,64.25,0 -13.75,63.75,0 -15.75,63.25,0 -16.25,63.25,0 -16.75,63.25,0 -17.25,63.25,0 -17.75,63.25,0 -18.25,63.25,0 -18.75,63.25,0 -19.25,63.25,0 -19.75,63.25,0 -20.25,63.25,0 -20.75,63.25,0 -21.25,63.25,0 -21.75,63.25,0 -22.25,63.25,0 -22.75,63.25,0 -23.25,63.25,0 -23.75,63.25,0 -24.25,63.25,0 -24.75,63.25,0 -26.25,63.75,0</coordinates>
          </LinearRing>
        </outerBoundaryIs>
      </Polygon>
    </Placemark>
  </Document>
</kml>