<?xml version="1.0" encoding="UTF-8"?>
<kml xmlns="http://www.opengis.net/kml/2.2">
  <Document>
    <name>Atlantic Menhaden Range</name>
    <Placemark>
      <name>Atlantic Menhaden Range – Low (0.00–0.33)</name>
      <Style>
        <PolygonStyle>
          <color>80ff0000</color>
          <outline>0</outline>
        </PolygonStyle>
      </Style>
      <Polygon>
        <outerBoundaryIs>
          <LinearRing>
            <coordinates>-64.25,45.25,0 -64.25,45.75,0 -65.25,45.75,0 -66.75,45.25,0 -67.25,45.25,0 -68.25,44.75,0 -67.25,44.25,0 -67.75,42.25,0 -66.25,42.75,0 -64.75,42.75,0 -65.25,43.25,0 -64.25,45.25,0</coordinates>
          </LinearRing>
        </outerBoundaryIs>
      </Polygon>
    </Placemark>
    <Placemark>
      <name>Atlantic Menhaden Range – Mid (0.34–0.65)</name>
      <Style>
        <PolygonStyle>
          <color>8000ffff</color>
          <outline>0</outline>
        </PolygonStyle>
      </Style>
      <Polygon>
        <outerBoundaryIs>
          <LinearRing>
            <coordinates>-64.25,44.25,0 -65.25,44.75,0 -66.25,45.25,0 -67.25,44.75,0 -66.25,43.75,0 -67.25,42.25,0 -68.75,41.25,0 -69.75,42.25,0 -71.25,42.25,0 -70.75,41.25,0 -69.25,41.25,0 -68.75,40.75,0 -68.25,40.75,0 -67.75,40.75,0 -66.75,41.75,0 -66.25,43.75,0 -65.25,43.75,0 -64.75,43.75,0 -64.25,44.25,0</coordinates>
          </LinearRing>
        </outerBoundaryIs>
      </Polygon>
    </Placemark>
    <Placemark>
      <name>Atlantic Menhaden Range – High (0.66–1.00)</name>
      <Style>
        <PolygonStyle>
          <color>800000ff</color>
          <outline>0</outline>
        </PolygonStyle>
      </Style>
      <Polygon>
        <outerBoundaryIs>
          <LinearRing>
            <coordinates>-80.75,30.75,0 -80.25,31.75,0 -79.75,32.25,0 -78.75,32.75,0 -77.75,33.25,0 -77.25,33.75,0 -76.25,34.25,0 -75.75,34.75,0 -75.25,35.25,0 -74.75,35.75,0 -74.75,36.25,0 -74.75,36.75,0 -74.75,37.25,0 -74.25,38.25,0 -73.75,38.75,0 -73.25,39.25,0 -73.25,39.75,0 -72.25,40.75,0 -71.75,40.75,0 -70.25,40.75,0 -69.75,40.75,0 -69.25,40.75,0 -68.25,41.25,0 -67.75,41.25,0 -67.25,41.25,0 -66.75,41.25,0 -66.25,41.75,0 -67.25,41.75,0 -67.75,41.75,0 -68.75,43.75,0 -67.75,44.25,0 -68.25,44.25,0 -68.75,44.25,0 -69.25,44.25,0 -70.25,43.75,0 -70.75,43.25,0 -70.75,42.75,0 -71.25,41.75,0 -72.25,41.25,0 -72.75,41.25,0 -73.25,40.75,0 -74.25,40.25,0 -74.75,39.25,0 -75.25,38.75,0 -75.75,38.25,0 -76.25,37.25,0 -76.75,36.25,0 -76.75,35.75,0 -77.25,34.75,0 -77.75,34.25,0 -78.75,33.75,0 -79.25,33.75,0 -80.25,32.75,0 -80.75,32.25,0 -80.75,31.75,0 -80.75,31.25,0 -80.75,30.75,0</coordinates>
          </LinearRing>
        </outerBoundaryIs>
      </Polygon>
    </Placemark>
  </Document>
</kml>