<?xml version="1.0" encoding="UTF-8"?>
<kml xmlns="http://www.opengis.net/kml/2.2">
  <Document>
    <name>Barred Surfperch Range</name>
    <Placemark>
      <name>Barred Surfperch Range – High (0.66–1.00)</name>
      <Style>
        <PolygonStyle>
          <color>800000ff</color>
          <outline>0</outline>
        </PolygonStyle>
      </Style>
      <Polygon>
        <outerBoundaryIs>
          <LinearRing>
            <coordinates>-122.25,36.75,0 -122.75,37.25,0 -122.75,37.75,0 -122.25,37.25,0 -121.75,36.75,0 -121.25,36.25,0 -120.75,35.25,0 -120.25,34.75,0 -119.25,34.25,0 -118.75,34.25,0 -118.25,34.25,0 -117.75,33.75,0 -117.25,32.75,0 -117.25,32.25,0 -118.25,32.75,0 -118.75,32.75,0 -119.75,33.25,0 -120.25,33.75,0 -120.75,34.75,0 -121.25,35.75,0 -121.75,36.25,0 -122.25,36.75,0</coordinates>
          </LinearRing>
        </outerBoundaryIs>
      </Polygon>
    </Placemark>
  </Document>
</kml>