<?xml version="1.0" encoding="UTF-8"?>
<kml xmlns="http://www.opengis.net/kml/2.2">
  <Document>
    <name>Range</name>
    <Placemark>
      <name>Range – Low (0.00–0.33)</name>
      <Style>
        <PolygonStyle>
          <color>80ff0000</color>
          <outline>0</outline>
        </PolygonStyle>
      </Style>
      <Polygon>
        <outerBoundaryIs>
          <LinearRing>
            <coordinates>113.25,-27.75,0 47.75,-22.25,0 34.75,-20.25,0 34.25,25.75,0 34.25,27.25,0 34.75,29.75,0 141.25,35.75,0 166.75,19.25,0 179.75,-9.25,0 179.75,-19.25,0 162.25,-26.25,0 114.25,-27.75,0 113.25,-27.75,0</coordinates>
          </LinearRing>
        </outerBoundaryIs>
      </Polygon>
    </Placemark>
    <Placemark>
      <name>Range – Mid (0.34–0.65)</name>
      <Style>
        <PolygonStyle>
          <color>8000ffff</color>
          <outline>0</outline>
        </PolygonStyle>
      </Style>
      <Polygon>
        <outerBoundaryIs>
          <LinearRing>
            <coordinates>153.25,-27.75,0 113.75,-26.75,0 35.25,-20.25,0 35.25,-19.25,0 35.75,22.75,0 48.25,29.75,0 139.75,33.75,0 170.25,10.25,0 179.25,-8.75,0 179.75,-16.75,0 179.75,-18.75,0 178.75,-19.25,0 153.75,-27.75,0 153.25,-27.75,0</coordinates>
          </LinearRing>
        </outerBoundaryIs>
      </Polygon>
    </Placemark>
    <Placemark>
      <name>Range – High (0.66–1.00)</name>
      <Style>
        <PolygonStyle>
          <color>800000ff</color>
          <outline>0</outline>
        </PolygonStyle>
      </Style>
      <Polygon>
        <outerBoundaryIs>
          <LinearRing>
            <coordinates>153.75,-26.75,0 33.25,-26.25,0 33.25,-25.25,0 37.25,19.75,0 47.75,29.75,0 48.75,30.25,0 129.75,30.75,0 131.25,30.75,0 142.25,27.75,0 169.75,10.25,0 171.25,8.75,0 176.75,-1.25,0 179.25,-8.25,0 178.75,-17.75,0 178.25,-18.75,0 153.75,-26.75,0</coordinates>
          </LinearRing>
        </outerBoundaryIs>
      </Polygon>
    </Placemark>
  </Document>
</kml>