<?xml version="1.0" encoding="UTF-8"?>
<kml xmlns="http://www.opengis.net/kml/2.2">
  <Document>
    <name>Range</name>
    <Placemark>
      <name>Range – High (0.66–1.00) (1)</name>
      <Style>
        <PolygonStyle>
          <color>800000ff</color>
          <outline>0</outline>
        </PolygonStyle>
      </Style>
      <Polygon>
        <outerBoundaryIs>
          <LinearRing>
            <coordinates>-151.28,60.54,0 -150.52,61.43,0 -151.28,60.47,0 -152.2,58.18,0 -154.15,57.25,0 -154.46,57.57,0 -156.0,58.48,0 -157.03,58.7,0 -157.07,58.72,0 -158.62,59.28,0 -161.0,60.0,0 -159.49,61.58,0 -156.66,58.69,0 -154.29,59.55,0 -151.28,60.54,0</coordinates>
          </LinearRing>
        </outerBoundaryIs>
      </Polygon>
    </Placemark>
    <Placemark>
      <name>Range – High (0.66–1.00) (2)</name>
      <Style>
        <PolygonStyle>
          <color>800000ff</color>
          <outline>0</outline>
        </PolygonStyle>
      </Style>
      <Polygon>
        <outerBoundaryIs>
          <LinearRing>
            <coordinates>-137.25,60.57,0 -135.0,64.0,0 -135.09,61.12,0 -133.58,58.57,0 -130.43,58.42,0 -129.5,58.3,0 -129.42,58.3,0 -128.78,58.3,0 -126.43,59.42,0 -125.73,57.72,0 -124.73,56.72,0 -123.67,56.04,0 -120.22,56.28,0 -118.63,54.53,0 -116.11,54.46,0 -115.58,54.54,0 -114.07,53.62,0 -110.0,53.6,0 -107.08,50.75,0 -108.48,45.79,0 -107.91,45.32,0 -106.88,44.09,0 -103.84,43.94,0 -103.57,43.85,0 -104.76,40.35,0 -105.17,38.17,0 -105.92,35.98,0 -105.75,33.13,0 -108.54,33.35,0 -110.94,33.82,0 -111.68,34.54,0 -116.59,32.9,0 -117.72,33.79,0 -119.38,34.42,0 -120.36,34.55,0 -121.34,35.98,0 -121.91,36.41,0 -122.25,37.09,0 -122.38,37.37,0 -122.96,38.37,0 -123.07,38.54,0 -123.45,39.06,0 -123.55,39.19,0 -123.67,39.39,0 -124.11,40.22,0 -124.08,41.09,0 -124.18,41.99,0 -124.04,42.83,0 -123.97,43.95,0 -124.34,46.57,0 -126.87,48.85,0 -128.01,50.12,0 -131.97,52.7,0 -134.32,56.3,0 -137.25,60.57,0</coordinates>
          </LinearRing>
        </outerBoundaryIs>
      </Polygon>
    </Placemark>
    <Placemark>
      <name>Range – High (0.66–1.00) (3)</name>
      <Style>
        <PolygonStyle>
          <color>800000ff</color>
          <outline>0</outline>
        </PolygonStyle>
      </Style>
      <Polygon>
        <outerBoundaryIs>
          <LinearRing>
            <coordinates>-63.43,46.47,0 -64.52,48.47,0 -64.75,49.13,0 -65.97,50.28,0 -65.05,49.02,0 -67.17,45.2,0 -70.82,46.88,0 -71.29,46.74,0 -75.79,46.2,0 -79.15,46.14,0 -81.93,46.28,0 -82.91,46.59,0 -84.79,47.93,0 -86.3,48.6,0 -86.51,48.77,0 -86.63,48.8,0 -86.87,48.82,0 -88.2,49.22,0 -88.25,49.22,0 -89.59,48.44,0 -89.67,48.36,0 -89.68,48.35,0 -89.69,48.34,0 -89.7,48.3,0 -89.45,48.08,0 -88.03,47.45,0 -86.76,43.64,0 -87.13,41.63,0 -84.98,40.19,0 -83.96,35.34,0 -84.23,35.12,0 -84.14,35.0,0 -83.9,34.67,0 -83.79,34.61,0 -82.79,35.02,0 -82.26,35.22,0 -81.7,35.53,0 -81.59,35.59,0 -77.07,34.71,0 -77.38,39.64,0 -74.06,40.05,0 -73.41,41.1,0 -71.37,42.31,0 -67.08,45.12,0 -66.9,45.12,0 -65.28,44.89,0 -64.6,45.05,0 -63.43,46.47,0</coordinates>
          </LinearRing>
        </outerBoundaryIs>
      </Polygon>
    </Placemark>
    <Placemark>
      <name>Range – High (0.66–1.00) (4)</name>
      <Style>
        <PolygonStyle>
          <color>800000ff</color>
          <outline>0</outline>
        </PolygonStyle>
      </Style>
      <Polygon>
        <outerBoundaryIs>
          <LinearRing>
            <coordinates>-99.33,19.43,0 -98.8,20.38,0 -95.02,16.8,0 -99.33,19.43,0</coordinates>
          </LinearRing>
        </outerBoundaryIs>
      </Polygon>
    </Placemark>
    <Placemark>
      <name>Range – High (0.66–1.00) (5)</name>
      <Style>
        <PolygonStyle>
          <color>800000ff</color>
          <outline>0</outline>
        </PolygonStyle>
      </Style>
      <Polygon>
        <outerBoundaryIs>
          <LinearRing>
            <coordinates>-9.52,53.76,0 -8.62,54.94,0 -7.47,57.24,0 -7.35,57.52,0 -6.59,58.18,0 -6.42,58.18,0 -5.08,58.4,0 -4.57,58.41,0 -1.82,60.23,0 -1.1,60.32,0 -1.83,57.54,0 -0.92,54.48,0 -0.62,54.21,0 -0.33,53.84,0 1.12,52.92,0 1.69,52.63,0 4.0,51.55,0 8.0,54.0,0 9.86,54.44,0 11.57,58.8,0 11.54,58.88,0 12.82,62.29,0 16.3,65.15,0 16.31,65.15,0 16.32,65.14,0 16.62,61.17,0 17.44,60.57,0 18.28,59.5,0 18.94,57.92,0 22.0,55.0,0 18.41,57.74,0 16.49,57.13,0 15.4,56.19,0 14.06,55.45,0 12.3,51.04,0 13.66,46.21,0 11.15,46.67,0 8.82,42.03,0 8.82,41.85,0 6.3,43.29,0 5.94,43.29,0 2.82,39.8,0 2.71,39.79,0 -0.31,38.5,0 -0.89,38.06,0 -2.83,37.09,0 -2.94,37.0,0 -3.06,36.91,0 -5.17,33.1,0 -5.41,36.89,0 -5.5,39.59,0 -8.21,42.58,0 -8.57,42.59,0 -8.94,43.13,0 -8.07,43.39,0 -7.58,43.57,0 -7.33,43.57,0 -5.91,43.54,0 -4.14,47.97,0 -5.63,50.02,0 -8.87,51.61,0 -9.59,51.69,0 -9.48,52.59,0 -9.49,52.95,0 -9.52,53.76,0</coordinates>
          </LinearRing>
        </outerBoundaryIs>
      </Polygon>
    </Placemark>
    <Placemark>
      <name>Range – High (0.66–1.00) (6)</name>
      <Style>
        <PolygonStyle>
          <color>800000ff</color>
          <outline>0</outline>
        </PolygonStyle>
      </Style>
      <Polygon>
        <outerBoundaryIs>
          <LinearRing>
            <coordinates>15.0,38.0,0 20.6,39.82,0 23.83,40.92,0 24.15,41.15,0 17.89,43.26,0 15.0,38.0,0</coordinates>
          </LinearRing>
        </outerBoundaryIs>
      </Polygon>
    </Placemark>
    <Placemark>
      <name>Range – High (0.66–1.00) (7)</name>
      <Style>
        <PolygonStyle>
          <color>800000ff</color>
          <outline>0</outline>
        </PolygonStyle>
      </Style>
      <Polygon>
        <outerBoundaryIs>
          <LinearRing>
            <coordinates>31.05,-26.19,0 30.78,-25.1,0 27.12,-26.7,0 27.61,-30.96,0 28.06,-31.23,0 28.48,-31.49,0 29.12,-29.91,0 29.96,-29.2,0 30.56,-28.03,0 31.05,-26.19,0</coordinates>
          </LinearRing>
        </outerBoundaryIs>
      </Polygon>
    </Placemark>
    <Placemark>
      <name>Range – High (0.66–1.00) (8)</name>
      <Style>
        <PolygonStyle>
          <color>800000ff</color>
          <outline>0</outline>
        </PolygonStyle>
      </Style>
      <Polygon>
        <outerBoundaryIs>
          <LinearRing>
            <coordinates>139.1,36.69,0 139.0,37.0,0 134.79,35.55,0 135.63,34.41,0 135.98,35.07,0 139.1,36.69,0</coordinates>
          </LinearRing>
        </outerBoundaryIs>
      </Polygon>
    </Placemark>
    <Placemark>
      <name>Range – High (0.66–1.00) (9)</name>
      <Style>
        <PolygonStyle>
          <color>800000ff</color>
          <outline>0</outline>
        </PolygonStyle>
      </Style>
      <Polygon>
        <outerBoundaryIs>
          <LinearRing>
            <coordinates>143.4,-38.8,0 144.75,-36.13,0 144.8,-36.1,0 147.4,-35.1,0 147.95,-34.32,0 147.98,-34.28,0 148.57,-34.06,0 148.63,-34.03,0 150.08,-32.45,0 151.0,-31.0,0 151.15,-30.87,0 152.3,-28.3,0 151.4,-31.02,0 150.9,-33.8,0 149.1,-36.2,0 148.43,-36.72,0 146.9,-36.9,0 145.8,-37.5,0 145.25,-42.25,0 143.4,-38.8,0</coordinates>
          </LinearRing>
        </outerBoundaryIs>
      </Polygon>
    </Placemark>
  </Document>
</kml>